[
  {
    "code": "010201",
    "label": "បន្ទាយនាង",
    "name_en": "Banteay Neang",
    "parent_code": "0102"
  },
  {
    "code": "010202",
    "label": "បត់ត្រង់",
    "name_en": "Bat Trang",
    "parent_code": "0102"
  },
  {
    "code": "010203",
    "label": "ចំណោម",
    "name_en": "Chamnaom",
    "parent_code": "0102"
  },
  {
    "code": "010204",
    "label": "គោកបល្ល័ង្គ",
    "name_en": "Kouk Ballangk",
    "parent_code": "0102"
  },
  {
    "code": "010205",
    "label": "គយម៉ែង",
    "name_en": "Koy Maeng",
    "parent_code": "0102"
  },
  {
    "code": "010206",
    "label": "អូរប្រាសាទ",
    "name_en": "Ou Prasat",
    "parent_code": "0102"
  },
  {
    "code": "010207",
    "label": "ភ្នំតូច",
    "name_en": "Phnum Touch",
    "parent_code": "0102"
  },
  {
    "code": "010208",
    "label": "រហាត់ទឹក",
    "name_en": "Rohat Tuek",
    "parent_code": "0102"
  },
  {
    "code": "010209",
    "label": "ឫស្សីក្រោក",
    "name_en": "Ruessei Kraok",
    "parent_code": "0102"
  },
  {
    "code": "010210",
    "label": "សំបួរ",
    "name_en": "Sambuor",
    "parent_code": "0102"
  },
  {
    "code": "010211",
    "label": "សឿ",
    "name_en": "Soea",
    "parent_code": "0102"
  },
  {
    "code": "010212",
    "label": "ស្រះរាំង",
    "name_en": "Srah Reang",
    "parent_code": "0102"
  },
  {
    "code": "010213",
    "label": "តាឡំ",
    "name_en": "Ta Lam",
    "parent_code": "0102"
  },
  {
    "code": "010301",
    "label": "ណាំតៅ",
    "name_en": "Nam Tau",
    "parent_code": "0103"
  },
  {
    "code": "010302",
    "label": "ប៉ោយចារ",
    "name_en": "Poy Char",
    "parent_code": "0103"
  },
  {
    "code": "010303",
    "label": "ពន្លៃ",
    "name_en": "Ponley",
    "parent_code": "0103"
  },
  {
    "code": "010304",
    "label": "ស្ពានស្រែង",
    "name_en": "Spean Sraeng",
    "parent_code": "0103"
  },
  {
    "code": "010305",
    "label": "ស្រះជីក",
    "name_en": "Srah Chik",
    "parent_code": "0103"
  },
  {
    "code": "010306",
    "label": "ភ្នំដី",
    "name_en": "Phnum Dei",
    "parent_code": "0103"
  },
  {
    "code": "010401",
    "label": "ឈ្នួរមានជ័យ",
    "name_en": "Chnuor Mean Chey",
    "parent_code": "0104"
  },
  {
    "code": "010402",
    "label": "ជប់វារី",
    "name_en": "Chob Vari",
    "parent_code": "0104"
  },
  {
    "code": "010403",
    "label": "ភ្នំលៀប",
    "name_en": "Phnum Lieb",
    "parent_code": "0104"
  },
  {
    "code": "010404",
    "label": "ប្រាសាទ",
    "name_en": "Prasat",
    "parent_code": "0104"
  },
  {
    "code": "010405",
    "label": "ព្រះនេត្រព្រះ",
    "name_en": "Preak Netr Preah",
    "parent_code": "0104"
  },
  {
    "code": "010406",
    "label": "រហាល",
    "name_en": "Rohal",
    "parent_code": "0104"
  },
  {
    "code": "010407",
    "label": "ទានកាំ",
    "name_en": "Tean Kam",
    "parent_code": "0104"
  },
  {
    "code": "010408",
    "label": "ទឹកជោរ",
    "name_en": "Tuek Chour",
    "parent_code": "0104"
  },
  {
    "code": "010409",
    "label": "បុស្បូវ",
    "name_en": "Bos Sbov",
    "parent_code": "0104"
  },
  {
    "code": "010501",
    "label": "ចង្ហា",
    "name_en": "Changha",
    "parent_code": "0105"
  },
  {
    "code": "010502",
    "label": "កូប",
    "name_en": "Koub",
    "parent_code": "0105"
  },
  {
    "code": "010503",
    "label": "គុត្ដសត",
    "name_en": "Kuttasat",
    "parent_code": "0105"
  },
  {
    "code": "010505",
    "label": "សំរោង",
    "name_en": "Samraong",
    "parent_code": "0105"
  },
  {
    "code": "010506",
    "label": "សូភី",
    "name_en": "Souphi",
    "parent_code": "0105"
  },
  {
    "code": "010507",
    "label": "សឹង្ហ",
    "name_en": "Soengh",
    "parent_code": "0105"
  },
  {
    "code": "010509",
    "label": "អូរបីជាន់",
    "name_en": "Ou Beichoan",
    "parent_code": "0105"
  },
  {
    "code": "010602",
    "label": "កំពង់ស្វាយ",
    "name_en": "Kampong Svay",
    "parent_code": "0106"
  },
  {
    "code": "010603",
    "label": "កោះពងសត្វ",
    "name_en": "Kaoh Pong Satv",
    "parent_code": "0106"
  },
  {
    "code": "010604",
    "label": "ម្កាក់",
    "name_en": "Mkak",
    "parent_code": "0106"
  },
  {
    "code": "010605",
    "label": "អូរអំបិល",
    "name_en": "Ou Ambel",
    "parent_code": "0106"
  },
  {
    "code": "010606",
    "label": "ភ្នៀត",
    "name_en": "Phniet",
    "parent_code": "0106"
  },
  {
    "code": "010607",
    "label": "ព្រះពន្លា",
    "name_en": "Preah Ponlea",
    "parent_code": "0106"
  },
  {
    "code": "010608",
    "label": "ទឹកថ្លា",
    "name_en": "Tuek Thla",
    "parent_code": "0106"
  },
  {
    "code": "010701",
    "label": "បន្ទាយឆ្មារ",
    "name_en": "Banteay Chhmar",
    "parent_code": "0107"
  },
  {
    "code": "010702",
    "label": "គោករមៀត",
    "name_en": "Kouk Romiet",
    "parent_code": "0107"
  },
  {
    "code": "010703",
    "label": "ភូមិថ្មី",
    "name_en": "Phum Thmei",
    "parent_code": "0107"
  },
  {
    "code": "010704",
    "label": "ថ្មពួក",
    "name_en": "Thma Puok",
    "parent_code": "0107"
  },
  {
    "code": "010705",
    "label": "គោកកឋិន",
    "name_en": "Kouk Kakthen",
    "parent_code": "0107"
  },
  {
    "code": "010706",
    "label": "គំរូ",
    "name_en": "Kumru",
    "parent_code": "0107"
  },
  {
    "code": "010801",
    "label": "ផ្គាំ",
    "name_en": "Phkoam",
    "parent_code": "0108"
  },
  {
    "code": "010802",
    "label": "សារង្គ",
    "name_en": "Sarongk",
    "parent_code": "0108"
  },
  {
    "code": "010803",
    "label": "ស្លក្រាម",
    "name_en": "Sla Kram",
    "parent_code": "0108"
  },
  {
    "code": "010804",
    "label": "ស្វាយចេក",
    "name_en": "Svay Chek",
    "parent_code": "0108"
  },
  {
    "code": "010805",
    "label": "តាបែន",
    "name_en": "Ta Baen",
    "parent_code": "0108"
  },
  {
    "code": "010806",
    "label": "តាផូ",
    "name_en": "Ta Phou",
    "parent_code": "0108"
  },
  {
    "code": "010807",
    "label": "ទ្រាស",
    "name_en": "Treas",
    "parent_code": "0108"
  },
  {
    "code": "010808",
    "label": "រលួស",
    "name_en": "Roluos",
    "parent_code": "0108"
  },
  {
    "code": "010901",
    "label": "បឹងបេង",
    "name_en": "Boeng Beng",
    "parent_code": "0109"
  },
  {
    "code": "010902",
    "label": "ម៉ាឡៃ",
    "name_en": "Malai",
    "parent_code": "0109"
  },
  {
    "code": "010903",
    "label": "អូរសំព័រ",
    "name_en": "Ou Sampoar",
    "parent_code": "0109"
  },
  {
    "code": "010904",
    "label": "អូរស្រឡៅ",
    "name_en": "Ou Sralau",
    "parent_code": "0109"
  },
  {
    "code": "010905",
    "label": "ទួលពង្រ",
    "name_en": "Tuol Pongro",
    "parent_code": "0109"
  },
  {
    "code": "010906",
    "label": "តាគង់",
    "name_en": "Ta Kong",
    "parent_code": "0109"
  },
  {
    "code": "011001",
    "label": "និមិត្ដ",
    "name_en": "Nimitt",
    "parent_code": "0110"
  },
  {
    "code": "011002",
    "label": "ប៉ោយប៉ែត",
    "name_en": "Paoy Paet",
    "parent_code": "0110"
  },
  {
    "code": "011003",
    "label": "ផ្សារកណ្តាល",
    "name_en": "Phsar Kandal",
    "parent_code": "0110"
  },
  {
    "code": "020101",
    "label": "កន្ទឺ ១",
    "name_en": "Kantueu Muoy",
    "parent_code": "0201"
  },
  {
    "code": "020102",
    "label": "កន្ទឺ ២",
    "name_en": "Kantueu Pir",
    "parent_code": "0201"
  },
  {
    "code": "020103",
    "label": "បាយដំរាំ",
    "name_en": "Bay Damram",
    "parent_code": "0201"
  },
  {
    "code": "020104",
    "label": "ឈើទាល",
    "name_en": "Chheu Teal",
    "parent_code": "0201"
  },
  {
    "code": "020105",
    "label": "ចែងមានជ័យ",
    "name_en": "Chaeng Mean Chey",
    "parent_code": "0201"
  },
  {
    "code": "020106",
    "label": "ភ្នំសំពៅ",
    "name_en": "Phnum Sampov",
    "parent_code": "0201"
  },
  {
    "code": "020107",
    "label": "ស្នឹង",
    "name_en": "Snoeng",
    "parent_code": "0201"
  },
  {
    "code": "020108",
    "label": "តាគ្រាម",
    "name_en": "Ta Kream",
    "parent_code": "0201"
  },
  {
    "code": "020201",
    "label": "តាពូង",
    "name_en": "Ta Pung",
    "parent_code": "0202"
  },
  {
    "code": "020202",
    "label": "តាម៉ឺន",
    "name_en": "Ta Meun",
    "parent_code": "0202"
  },
  {
    "code": "020203",
    "label": "អូរតាគី",
    "name_en": "Ou Ta Ki",
    "parent_code": "0202"
  },
  {
    "code": "020204",
    "label": "ជ្រៃ",
    "name_en": "Chrey",
    "parent_code": "0202"
  },
  {
    "code": "020205",
    "label": "អន្លង់រុន",
    "name_en": "Anlong Run",
    "parent_code": "0202"
  },
  {
    "code": "020206",
    "label": "ជ្រោយស្ដៅ",
    "name_en": "Chrouy Sdau",
    "parent_code": "0202"
  },
  {
    "code": "020207",
    "label": "បឹងព្រីង",
    "name_en": "Boeng Pring",
    "parent_code": "0202"
  },
  {
    "code": "020208",
    "label": "គោកឃ្មុំ",
    "name_en": "Kouk Khmum",
    "parent_code": "0202"
  },
  {
    "code": "020209",
    "label": "បន្សាយត្រែង",
    "name_en": "Bansay Traeng",
    "parent_code": "0202"
  },
  {
    "code": "020210",
    "label": "រូងជ្រៃ",
    "name_en": "Rung Chrey",
    "parent_code": "0202"
  },
  {
    "code": "020301",
    "label": "ទួលតាឯក",
    "name_en": "Tuol Ta Ek",
    "parent_code": "0203"
  },
  {
    "code": "020302",
    "label": "ព្រែកព្រះស្ដេច",
    "name_en": "Prek Preah Sdach",
    "parent_code": "0203"
  },
  {
    "code": "020303",
    "label": "រតនៈ",
    "name_en": "Rottanak",
    "parent_code": "0203"
  },
  {
    "code": "020304",
    "label": "ចំការសំរោង",
    "name_en": "Chomkar Somraong",
    "parent_code": "0203"
  },
  {
    "code": "020305",
    "label": "ស្លាកែត",
    "name_en": "Sla Ket",
    "parent_code": "0203"
  },
  {
    "code": "020306",
    "label": "ក្ដុលដូនទាវ",
    "name_en": "Kdol Doun Teav",
    "parent_code": "0203"
  },
  {
    "code": "020307",
    "label": "អូរម៉ាល់",
    "name_en": "OMal",
    "parent_code": "0203"
  },
  {
    "code": "020308",
    "label": "វត្ដគរ",
    "name_en": "wat Kor",
    "parent_code": "0203"
  },
  {
    "code": "020309",
    "label": "អូរចារ",
    "name_en": "Ou Char",
    "parent_code": "0203"
  },
  {
    "code": "020310",
    "label": "ស្វាយប៉ោ",
    "name_en": "Svay Por",
    "parent_code": "0203"
  },
  {
    "code": "020401",
    "label": "បវេល",
    "name_en": "Bavel",
    "parent_code": "0204"
  },
  {
    "code": "020402",
    "label": "ខ្នាចរមាស",
    "name_en": "Khnach Romeas",
    "parent_code": "0204"
  },
  {
    "code": "020403",
    "label": "ល្វា",
    "name_en": "Lvea",
    "parent_code": "0204"
  },
  {
    "code": "020404",
    "label": "ព្រៃខ្ពស់",
    "name_en": "Prey Khpos",
    "parent_code": "0204"
  },
  {
    "code": "020405",
    "label": "អំពិលប្រាំដើម",
    "name_en": "Ampil Pram Daeum",
    "parent_code": "0204"
  },
  {
    "code": "020406",
    "label": "ក្ដុលតាហែន",
    "name_en": "Kdol Ta Haen",
    "parent_code": "0204"
  },
  {
    "code": "020407",
    "label": "ឃ្លាំងមាស",
    "name_en": "Khlaeng Meas",
    "parent_code": "0204"
  },
  {
    "code": "020408",
    "label": "បឹងប្រាំ",
    "name_en": "Boeung Pram",
    "parent_code": "0204"
  },
  {
    "code": "020501",
    "label": "ព្រែកនរិន្ទ",
    "name_en": "Preaek Norint",
    "parent_code": "0205"
  },
  {
    "code": "020502",
    "label": "សំរោងក្នុង",
    "name_en": "Samraong Knong",
    "parent_code": "0205"
  },
  {
    "code": "020503",
    "label": "ព្រែកខ្ពប",
    "name_en": "Preaek Khpob",
    "parent_code": "0205"
  },
  {
    "code": "020504",
    "label": "ព្រែកហ្លួង",
    "name_en": "Preaek Luong",
    "parent_code": "0205"
  },
  {
    "code": "020505",
    "label": "ពាមឯក",
    "name_en": "Peam Aek",
    "parent_code": "0205"
  },
  {
    "code": "020506",
    "label": "ព្រៃចាស់",
    "name_en": "Prey Chas",
    "parent_code": "0205"
  },
  {
    "code": "020507",
    "label": "កោះជីវាំង",
    "name_en": "Kaoh Chiveang",
    "parent_code": "0205"
  },
  {
    "code": "020601",
    "label": "មោង",
    "name_en": "Moung",
    "parent_code": "0206"
  },
  {
    "code": "020602",
    "label": "គារ",
    "name_en": "Kear",
    "parent_code": "0206"
  },
  {
    "code": "020603",
    "label": "ព្រៃស្វាយ",
    "name_en": "Prey Svay",
    "parent_code": "0206"
  },
  {
    "code": "020604",
    "label": "ឫស្សីក្រាំង",
    "name_en": "Ruessei Krang",
    "parent_code": "0206"
  },
  {
    "code": "020605",
    "label": "ជ្រៃ",
    "name_en": "Chrey",
    "parent_code": "0206"
  },
  {
    "code": "020606",
    "label": "តាលាស់",
    "name_en": "Ta Loas",
    "parent_code": "0206"
  },
  {
    "code": "020607",
    "label": "កកោះ",
    "name_en": "Kakaoh",
    "parent_code": "0206"
  },
  {
    "code": "020608",
    "label": "ព្រៃតូច",
    "name_en": "Prey Touch",
    "parent_code": "0206"
  },
  {
    "code": "020609",
    "label": "របស់មង្គល",
    "name_en": "Robas Mongkol",
    "parent_code": "0206"
  },
  {
    "code": "020701",
    "label": "ស្ដៅ",
    "name_en": "Sdau",
    "parent_code": "0207"
  },
  {
    "code": "020702",
    "label": "អណ្ដើកហែប",
    "name_en": "Andaeuk Haeb",
    "parent_code": "0207"
  },
  {
    "code": "020703",
    "label": "ផ្លូវមាស",
    "name_en": "Phlov Meas",
    "parent_code": "0207"
  },
  {
    "code": "020704",
    "label": "ត្រែង",
    "name_en": "Traeng",
    "parent_code": "0207"
  },
  {
    "code": "020705",
    "label": "រស្មីសង្ហារ",
    "name_en": "Reaksmei Songha",
    "parent_code": "0207"
  },
  {
    "code": "020801",
    "label": "អន្លង់វិល",
    "name_en": "Anlong Vil",
    "parent_code": "0208"
  },
  {
    "code": "020802",
    "label": "នរា",
    "name_en": "Norea",
    "parent_code": "0208"
  },
  {
    "code": "020803",
    "label": "តាប៉ុន",
    "name_en": "Ta Pon",
    "parent_code": "0208"
  },
  {
    "code": "020804",
    "label": "រកា",
    "name_en": "Roka",
    "parent_code": "0208"
  },
  {
    "code": "020805",
    "label": "កំពង់ព្រះ",
    "name_en": "Kampong Preah",
    "parent_code": "0208"
  },
  {
    "code": "020806",
    "label": "កំពង់ព្រៀង",
    "name_en": "Kampong Prieng",
    "parent_code": "0208"
  },
  {
    "code": "020807",
    "label": "រាំងកេសី",
    "name_en": "Reang Kesei",
    "parent_code": "0208"
  },
  {
    "code": "020808",
    "label": "អូរដំបង ១",
    "name_en": "Ou Dambang Muoy",
    "parent_code": "0208"
  },
  {
    "code": "020809",
    "label": "អូរដំបង ២",
    "name_en": "Ou Dambang Pir",
    "parent_code": "0208"
  },
  {
    "code": "020810",
    "label": "វត្ដតាមិម",
    "name_en": "Vaot Ta Muem",
    "parent_code": "0208"
  },
  {
    "code": "020901",
    "label": "តាតោក",
    "name_en": "Ta Taok",
    "parent_code": "0209"
  },
  {
    "code": "020902",
    "label": "កំពង់ល្ពៅ",
    "name_en": "Kampong Lpov",
    "parent_code": "0209"
  },
  {
    "code": "020903",
    "label": "អូរសំរិល",
    "name_en": "Ou Samril",
    "parent_code": "0209"
  },
  {
    "code": "020904",
    "label": "ស៊ុង",
    "name_en": "Sung",
    "parent_code": "0209"
  },
  {
    "code": "020905",
    "label": "សំឡូត",
    "name_en": "Samlout",
    "parent_code": "0209"
  },
  {
    "code": "020906",
    "label": "មានជ័យ",
    "name_en": "Mean Chey",
    "parent_code": "0209"
  },
  {
    "code": "020907",
    "label": "តាសាញ",
    "name_en": "Ta Sanh",
    "parent_code": "0209"
  },
  {
    "code": "021001",
    "label": "សំពៅលូន",
    "name_en": "Sampov Lun",
    "parent_code": "0210"
  },
  {
    "code": "021002",
    "label": "អង្គរបាន",
    "name_en": "Angkor Ban",
    "parent_code": "0210"
  },
  {
    "code": "021003",
    "label": "តាស្ដា",
    "name_en": "Ta Sda",
    "parent_code": "0210"
  },
  {
    "code": "021004",
    "label": "សន្ដិភាព",
    "name_en": "Santepheap",
    "parent_code": "0210"
  },
  {
    "code": "021005",
    "label": "សេរីមានជ័យ",
    "name_en": "Serei Mean Chey",
    "parent_code": "0210"
  },
  {
    "code": "021006",
    "label": "ជ្រៃសីមា",
    "name_en": "Chrey Seima",
    "parent_code": "0210"
  },
  {
    "code": "021101",
    "label": "ភ្នំព្រឹក",
    "name_en": "Phnum Proek",
    "parent_code": "0211"
  },
  {
    "code": "021102",
    "label": "ពេជ្រចិន្ដា",
    "name_en": "Pech Chenda",
    "parent_code": "0211"
  },
  {
    "code": "021103",
    "label": "បួរ",
    "name_en": "Bour",
    "parent_code": "0211"
  },
  {
    "code": "021104",
    "label": "បារាំងធ្លាក់",
    "name_en": "Barang Thleak",
    "parent_code": "0211"
  },
  {
    "code": "021105",
    "label": "អូររំដួល",
    "name_en": "Ou Rumduol",
    "parent_code": "0211"
  },
  {
    "code": "021201",
    "label": "កំរៀង",
    "name_en": "Kamrieng",
    "parent_code": "0212"
  },
  {
    "code": "021202",
    "label": "បឹងរាំង",
    "name_en": "Boeng Reang",
    "parent_code": "0212"
  },
  {
    "code": "021203",
    "label": "អូរដា",
    "name_en": "Ou Da",
    "parent_code": "0212"
  },
  {
    "code": "021204",
    "label": "ត្រាង",
    "name_en": "Trang",
    "parent_code": "0212"
  },
  {
    "code": "021205",
    "label": "តាសែន",
    "name_en": "Ta Saen",
    "parent_code": "0212"
  },
  {
    "code": "021206",
    "label": "តាក្រី",
    "name_en": "Ta Krei",
    "parent_code": "0212"
  },
  {
    "code": "021301",
    "label": "ធិបតី",
    "name_en": "Thipakdei",
    "parent_code": "0213"
  },
  {
    "code": "021302",
    "label": "គាស់ក្រឡ",
    "name_en": "Kaos Krala",
    "parent_code": "0213"
  },
  {
    "code": "021303",
    "label": "ហប់",
    "name_en": "Hab",
    "parent_code": "0213"
  },
  {
    "code": "021304",
    "label": "ព្រះផុស",
    "name_en": "Preah Phos",
    "parent_code": "0213"
  },
  {
    "code": "021305",
    "label": "ដូនបា",
    "name_en": "Doun Ba",
    "parent_code": "0213"
  },
  {
    "code": "021306",
    "label": "ឆ្នាល់មាន់",
    "name_en": "Chhnal Moan",
    "parent_code": "0213"
  },
  {
    "code": "021401",
    "label": "ព្រែកជីក",
    "name_en": "Preaek Chik",
    "parent_code": "0214"
  },
  {
    "code": "021402",
    "label": "ព្រៃត្រឡាច",
    "name_en": "Prey Tralach",
    "parent_code": "0214"
  },
  {
    "code": "021403",
    "label": "មុខរាហ៍",
    "name_en": "Mukh Reah",
    "parent_code": "0214"
  },
  {
    "code": "021404",
    "label": "ស្តុកប្រវឹក",
    "name_en": "Sdok Pravoek",
    "parent_code": "0214"
  },
  {
    "code": "021405",
    "label": "បាសាក់",
    "name_en": "Basak",
    "parent_code": "0214"
  },
  {
    "code": "030101",
    "label": "បាធាយ",
    "name_en": "Batheay",
    "parent_code": "0301"
  },
  {
    "code": "030102",
    "label": "ច្បារអំពៅ",
    "name_en": "Chbar Ampov",
    "parent_code": "0301"
  },
  {
    "code": "030103",
    "label": "ជាលា",
    "name_en": "Chealea",
    "parent_code": "0301"
  },
  {
    "code": "030104",
    "label": "ជើងព្រៃ",
    "name_en": "Cheung Prey",
    "parent_code": "0301"
  },
  {
    "code": "030105",
    "label": "មេព្រីង",
    "name_en": "Me Pring",
    "parent_code": "0301"
  },
  {
    "code": "030106",
    "label": "ផ្អាវ",
    "name_en": "Ph'av",
    "parent_code": "0301"
  },
  {
    "code": "030107",
    "label": "សំបូរ",
    "name_en": "Sambour",
    "parent_code": "0301"
  },
  {
    "code": "030108",
    "label": "សណ្ដែក",
    "name_en": "Sandaek",
    "parent_code": "0301"
  },
  {
    "code": "030109",
    "label": "តាំងក្រាំង",
    "name_en": "Tang Krang",
    "parent_code": "0301"
  },
  {
    "code": "030110",
    "label": "តាំងក្រសាំង",
    "name_en": "Tang Krasang",
    "parent_code": "0301"
  },
  {
    "code": "030111",
    "label": "ត្រប់",
    "name_en": "Trab",
    "parent_code": "0301"
  },
  {
    "code": "030112",
    "label": "ទំនប់",
    "name_en": "Tumnob",
    "parent_code": "0301"
  },
  {
    "code": "030201",
    "label": "បុសខ្នុរ",
    "name_en": "Bos Khnor",
    "parent_code": "0302"
  },
  {
    "code": "030202",
    "label": "ចំការអណ្ដូង",
    "name_en": "Chamkar Andoung",
    "parent_code": "0302"
  },
  {
    "code": "030203",
    "label": "ជយោ",
    "name_en": "Cheyyou",
    "parent_code": "0302"
  },
  {
    "code": "030204",
    "label": "ល្វាលើ",
    "name_en": "Lvea Leu",
    "parent_code": "0302"
  },
  {
    "code": "030205",
    "label": "ស្ពឺ",
    "name_en": "Spueu",
    "parent_code": "0302"
  },
  {
    "code": "030206",
    "label": "ស្វាយទាប",
    "name_en": "Svay Teab",
    "parent_code": "0302"
  },
  {
    "code": "030207",
    "label": "តាអុង",
    "name_en": "Ta Ong",
    "parent_code": "0302"
  },
  {
    "code": "030208",
    "label": "តាប្រុក",
    "name_en": "Ta Prok",
    "parent_code": "0302"
  },
  {
    "code": "030301",
    "label": "ខ្នុរដំបង",
    "name_en": "Khnor Dambang",
    "parent_code": "0303"
  },
  {
    "code": "030302",
    "label": "គោករវៀង",
    "name_en": "Kouk Rovieng",
    "parent_code": "0303"
  },
  {
    "code": "030303",
    "label": "ផ្ដៅជុំ",
    "name_en": "Pdau Chum",
    "parent_code": "0303"
  },
  {
    "code": "030304",
    "label": "ព្រៃចារ",
    "name_en": "Prey Char",
    "parent_code": "0303"
  },
  {
    "code": "030305",
    "label": "ព្រីងជ្រុំ",
    "name_en": "Pring Chrum",
    "parent_code": "0303"
  },
  {
    "code": "030306",
    "label": "សំពងជ័យ",
    "name_en": "Sampong Chey",
    "parent_code": "0303"
  },
  {
    "code": "030307",
    "label": "ស្ដើងជ័យ",
    "name_en": "Sdaeung Chey",
    "parent_code": "0303"
  },
  {
    "code": "030308",
    "label": "សូទិព្វ",
    "name_en": "Soutib",
    "parent_code": "0303"
  },
  {
    "code": "030309",
    "label": "ស្រម៉រ",
    "name_en": "Sramar",
    "parent_code": "0303"
  },
  {
    "code": "030310",
    "label": "ត្រពាំងគរ",
    "name_en": "Trapeang Kor",
    "parent_code": "0303"
  },
  {
    "code": "030501",
    "label": "បឹងកុក",
    "name_en": "Boeng Kok",
    "parent_code": "0305"
  },
  {
    "code": "030502",
    "label": "កំពង់ចាម",
    "name_en": "Kampong Cham",
    "parent_code": "0305"
  },
  {
    "code": "030503",
    "label": "សំបួរមាស",
    "name_en": "Sambuor Meas",
    "parent_code": "0305"
  },
  {
    "code": "030504",
    "label": "វាលវង់",
    "name_en": "Veal Vong",
    "parent_code": "0305"
  },
  {
    "code": "030601",
    "label": "អំពិល",
    "name_en": "Ampil",
    "parent_code": "0306"
  },
  {
    "code": "030602",
    "label": "ហាន់ជ័យ",
    "name_en": "Hanchey",
    "parent_code": "0306"
  },
  {
    "code": "030603",
    "label": "កៀនជ្រៃ",
    "name_en": "Kien Chrey",
    "parent_code": "0306"
  },
  {
    "code": "030604",
    "label": "គគរ",
    "name_en": "Kokor",
    "parent_code": "0306"
  },
  {
    "code": "030605",
    "label": "កោះមិត្ដ",
    "name_en": "Kaoh Mitt",
    "parent_code": "0306"
  },
  {
    "code": "030606",
    "label": "កោះរកា",
    "name_en": "Kaoh Roka",
    "parent_code": "0306"
  },
  {
    "code": "030607",
    "label": "កោះសំរោង",
    "name_en": "Kaoh Samraong",
    "parent_code": "0306"
  },
  {
    "code": "030608",
    "label": "កោះទន្ទឹម",
    "name_en": "Kaoh Tontuem",
    "parent_code": "0306"
  },
  {
    "code": "030609",
    "label": "ក្រឡា",
    "name_en": "Krala",
    "parent_code": "0306"
  },
  {
    "code": "030610",
    "label": "អូរស្វាយ",
    "name_en": "Ou Svay",
    "parent_code": "0306"
  },
  {
    "code": "030611",
    "label": "រអាង",
    "name_en": "Ro'ang",
    "parent_code": "0306"
  },
  {
    "code": "030612",
    "label": "រំចេក",
    "name_en": "Rumchek",
    "parent_code": "0306"
  },
  {
    "code": "030613",
    "label": "ស្រក",
    "name_en": "Srak",
    "parent_code": "0306"
  },
  {
    "code": "030614",
    "label": "ទ្រាន",
    "name_en": "Trean",
    "parent_code": "0306"
  },
  {
    "code": "030615",
    "label": "វិហារធំ",
    "name_en": "Vihear Thum",
    "parent_code": "0306"
  },
  {
    "code": "030701",
    "label": "អង្គរបាន",
    "name_en": "Angkor Ban",
    "parent_code": "0307"
  },
  {
    "code": "030702",
    "label": "កងតាណឹង",
    "name_en": "Kang Ta Noeng",
    "parent_code": "0307"
  },
  {
    "code": "030703",
    "label": "ខ្ចៅ",
    "name_en": "Khchau",
    "parent_code": "0307"
  },
  {
    "code": "030704",
    "label": "ពាមជីកង",
    "name_en": "Peam Chi Kang",
    "parent_code": "0307"
  },
  {
    "code": "030705",
    "label": "ព្រែកកុយ",
    "name_en": "Preaek Koy",
    "parent_code": "0307"
  },
  {
    "code": "030706",
    "label": "ព្រែកក្របៅ",
    "name_en": "Preaek Krabau",
    "parent_code": "0307"
  },
  {
    "code": "030707",
    "label": "រាយប៉ាយ",
    "name_en": "Reay Pay",
    "parent_code": "0307"
  },
  {
    "code": "030708",
    "label": "រកាអារ",
    "name_en": "Roka Ar",
    "parent_code": "0307"
  },
  {
    "code": "030709",
    "label": "រកាគយ",
    "name_en": "Roka Koy",
    "parent_code": "0307"
  },
  {
    "code": "030710",
    "label": "ស្ដៅ",
    "name_en": "Sdau",
    "parent_code": "0307"
  },
  {
    "code": "030711",
    "label": "សូរគង",
    "name_en": "Sour Kong",
    "parent_code": "0307"
  },
  {
    "code": "030801",
    "label": "កំពង់រាប",
    "name_en": "Kampong Reab",
    "parent_code": "0308"
  },
  {
    "code": "030802",
    "label": "កោះសូទិន",
    "name_en": "Kaoh Sotin",
    "parent_code": "0308"
  },
  {
    "code": "030803",
    "label": "ល្វេ",
    "name_en": "Lve",
    "parent_code": "0308"
  },
  {
    "code": "030804",
    "label": "មហាលាភ",
    "name_en": "Moha Leaph",
    "parent_code": "0308"
  },
  {
    "code": "030805",
    "label": "មហាខ្ញូង",
    "name_en": "Moha Khnhoung",
    "parent_code": "0308"
  },
  {
    "code": "030806",
    "label": "ពាមប្រធ្នោះ",
    "name_en": "Peam Prathnuoh",
    "parent_code": "0308"
  },
  {
    "code": "030807",
    "label": "ពង្រ",
    "name_en": "Pongro",
    "parent_code": "0308"
  },
  {
    "code": "030808",
    "label": "ព្រែកតានង់",
    "name_en": "Preaek Ta Nong",
    "parent_code": "0308"
  },
  {
    "code": "031301",
    "label": "បារាយណ៍",
    "name_en": "Baray",
    "parent_code": "0313"
  },
  {
    "code": "031302",
    "label": "បឹងណាយ",
    "name_en": "Boeng Nay",
    "parent_code": "0313"
  },
  {
    "code": "031303",
    "label": "ជ្រៃវៀន",
    "name_en": "Chrey Vien",
    "parent_code": "0313"
  },
  {
    "code": "031304",
    "label": "ខ្វិតធំ",
    "name_en": "Khvet Thum",
    "parent_code": "0313"
  },
  {
    "code": "031305",
    "label": "គរ",
    "name_en": "Kor",
    "parent_code": "0313"
  },
  {
    "code": "031306",
    "label": "ក្រូច",
    "name_en": "Krouch",
    "parent_code": "0313"
  },
  {
    "code": "031307",
    "label": "ល្វា",
    "name_en": "Lvea",
    "parent_code": "0313"
  },
  {
    "code": "031308",
    "label": "មៀន",
    "name_en": "Mien",
    "parent_code": "0313"
  },
  {
    "code": "031309",
    "label": "ព្រៃឈរ",
    "name_en": "Prey Chhor",
    "parent_code": "0313"
  },
  {
    "code": "031310",
    "label": "សូរ្យសែន",
    "name_en": "Sour Saen",
    "parent_code": "0313"
  },
  {
    "code": "031311",
    "label": "សំរោង",
    "name_en": "Samraong",
    "parent_code": "0313"
  },
  {
    "code": "031312",
    "label": "ស្រង៉ែ",
    "name_en": "Sragnae",
    "parent_code": "0313"
  },
  {
    "code": "031313",
    "label": "ថ្មពូន",
    "name_en": "Thma Pun",
    "parent_code": "0313"
  },
  {
    "code": "031314",
    "label": "តុងរ៉ុង",
    "name_en": "Tong Rong",
    "parent_code": "0313"
  },
  {
    "code": "031315",
    "label": "ត្រពាំងព្រះ",
    "name_en": "Trapeang Preah",
    "parent_code": "0313"
  },
  {
    "code": "031401",
    "label": "បារាយណ៍",
    "name_en": "Baray",
    "parent_code": "0314"
  },
  {
    "code": "031402",
    "label": "ជីបាល",
    "name_en": "Chi Bal",
    "parent_code": "0314"
  },
  {
    "code": "031403",
    "label": "ខ្នារស",
    "name_en": "Khnar Sa",
    "parent_code": "0314"
  },
  {
    "code": "031404",
    "label": "កោះអណ្ដែត",
    "name_en": "Kaoh Andaet",
    "parent_code": "0314"
  },
  {
    "code": "031405",
    "label": "មានជ័យ",
    "name_en": "Mean Chey",
    "parent_code": "0314"
  },
  {
    "code": "031406",
    "label": "ផ្ទះកណ្ដាល",
    "name_en": "Phteah Kandal",
    "parent_code": "0314"
  },
  {
    "code": "031407",
    "label": "ប្រាំយ៉ាម",
    "name_en": "Pram Yam",
    "parent_code": "0314"
  },
  {
    "code": "031408",
    "label": "ព្រែកដំបូក",
    "name_en": "Preaek Dambouk",
    "parent_code": "0314"
  },
  {
    "code": "031409",
    "label": "ព្រែកពោធិ",
    "name_en": "Preaek Pou",
    "parent_code": "0314"
  },
  {
    "code": "031410",
    "label": "ព្រែករំដេង",
    "name_en": "Preaek Rumdeng",
    "parent_code": "0314"
  },
  {
    "code": "031411",
    "label": "ឫស្សីស្រុក",
    "name_en": "Ruessei Srok",
    "parent_code": "0314"
  },
  {
    "code": "031412",
    "label": "ស្វាយពោធិ",
    "name_en": "Svay Pou",
    "parent_code": "0314"
  },
  {
    "code": "031413",
    "label": "ស្វាយខ្សាច់ភ្នំ",
    "name_en": "Svay Khsach Phnum",
    "parent_code": "0314"
  },
  {
    "code": "031414",
    "label": "ទងត្រឡាច",
    "name_en": "Tong Tralach",
    "parent_code": "0314"
  },
  {
    "code": "031501",
    "label": "អារក្សត្នោត",
    "name_en": "Areaks Tnot",
    "parent_code": "0315"
  },
  {
    "code": "031503",
    "label": "ដងក្ដារ",
    "name_en": "Dang Kdar",
    "parent_code": "0315"
  },
  {
    "code": "031504",
    "label": "ខ្ពបតាងួន",
    "name_en": "Khpob Ta Nguon",
    "parent_code": "0315"
  },
  {
    "code": "031505",
    "label": "មេសរជ្រៃ",
    "name_en": "Me Sar Chrey",
    "parent_code": "0315"
  },
  {
    "code": "031506",
    "label": "អូរម្លូ",
    "name_en": "Ou Mlu",
    "parent_code": "0315"
  },
  {
    "code": "031507",
    "label": "ពាមកោះស្នា",
    "name_en": "Peam Kaoh Snar",
    "parent_code": "0315"
  },
  {
    "code": "031508",
    "label": "ព្រះអណ្ដូង",
    "name_en": "Preah Andoung",
    "parent_code": "0315"
  },
  {
    "code": "031509",
    "label": "ព្រែកបាក់",
    "name_en": "Preaek Bak",
    "parent_code": "0315"
  },
  {
    "code": "031510",
    "label": "ព្រែកកក់",
    "name_en": "Preak Kak",
    "parent_code": "0315"
  },
  {
    "code": "031512",
    "label": "សូភាស",
    "name_en": "Soupheas",
    "parent_code": "0315"
  },
  {
    "code": "031513",
    "label": "ទួលព្រះឃ្លាំង",
    "name_en": "Tuol Preah Khleang",
    "parent_code": "0315"
  },
  {
    "code": "031514",
    "label": "ទួលសំបួរ",
    "name_en": "Tuol Sambuor",
    "parent_code": "0315"
  },
  {
    "code": "040101",
    "label": "អញ្ចាញរូង",
    "name_en": "Anhchanh Rung",
    "parent_code": "0401"
  },
  {
    "code": "040102",
    "label": "ឆ្នុកទ្រូ",
    "name_en": "Chhnok Tru",
    "parent_code": "0401"
  },
  {
    "code": "040103",
    "label": "ចក",
    "name_en": "Chak",
    "parent_code": "0401"
  },
  {
    "code": "040104",
    "label": "ខុនរ៉ង",
    "name_en": "Khon Rang",
    "parent_code": "0401"
  },
  {
    "code": "040105",
    "label": "កំពង់ព្រះគគីរ",
    "name_en": "Kampong Preah Kokir",
    "parent_code": "0401"
  },
  {
    "code": "040106",
    "label": "មេលំ",
    "name_en": "Melum",
    "parent_code": "0401"
  },
  {
    "code": "040107",
    "label": "ផ្សារ",
    "name_en": "Phsar",
    "parent_code": "0401"
  },
  {
    "code": "040108",
    "label": "ពេជចង្វារ",
    "name_en": "Pech Changvar",
    "parent_code": "0401"
  },
  {
    "code": "040109",
    "label": "ពពេល",
    "name_en": "Popel",
    "parent_code": "0401"
  },
  {
    "code": "040110",
    "label": "ពន្លៃ",
    "name_en": "Ponley",
    "parent_code": "0401"
  },
  {
    "code": "040111",
    "label": "ត្រពាំងចាន់",
    "name_en": "Trapeang Chan",
    "parent_code": "0401"
  },
  {
    "code": "040201",
    "label": "ជលសា",
    "name_en": "Chol Sar",
    "parent_code": "0402"
  },
  {
    "code": "040202",
    "label": "កោះថ្កូវ",
    "name_en": "Kaoh Thkov",
    "parent_code": "0402"
  },
  {
    "code": "040203",
    "label": "កំពង់អុស",
    "name_en": "Kampong Ous",
    "parent_code": "0402"
  },
  {
    "code": "040204",
    "label": "ពាមឆ្កោក",
    "name_en": "Peam Chhkaok",
    "parent_code": "0402"
  },
  {
    "code": "040205",
    "label": "ព្រៃគ្រី",
    "name_en": "Prey Kri",
    "parent_code": "0402"
  },
  {
    "code": "040301",
    "label": "ផ្សារឆ្នាំង",
    "name_en": "Phsar Chhnang",
    "parent_code": "0403"
  },
  {
    "code": "040302",
    "label": "កំពង់ឆ្នាំង",
    "name_en": "Kampong Chhnang",
    "parent_code": "0403"
  },
  {
    "code": "040303",
    "label": "ប្អេរ",
    "name_en": "B'er",
    "parent_code": "0403"
  },
  {
    "code": "040304",
    "label": "ខ្សាម",
    "name_en": "Khsam",
    "parent_code": "0403"
  },
  {
    "code": "040401",
    "label": "ច្រណូក",
    "name_en": "Chranouk",
    "parent_code": "0404"
  },
  {
    "code": "040402",
    "label": "ដារ",
    "name_en": "Dar",
    "parent_code": "0404"
  },
  {
    "code": "040403",
    "label": "កំពង់ហៅ",
    "name_en": "Kampong Hau",
    "parent_code": "0404"
  },
  {
    "code": "040404",
    "label": "ផ្លូវទូក",
    "name_en": "Phlov Tuk",
    "parent_code": "0404"
  },
  {
    "code": "040405",
    "label": "ពោធិ៍",
    "name_en": "Pou",
    "parent_code": "0404"
  },
  {
    "code": "040406",
    "label": "ប្រឡាយមាស",
    "name_en": "Pralay Meas",
    "parent_code": "0404"
  },
  {
    "code": "040407",
    "label": "សំរោងសែន",
    "name_en": "Samraong Saen",
    "parent_code": "0404"
  },
  {
    "code": "040408",
    "label": "ស្វាយរំពារ",
    "name_en": "Svay Rumpear",
    "parent_code": "0404"
  },
  {
    "code": "040409",
    "label": "ត្រងិល",
    "name_en": "Trangel",
    "parent_code": "0404"
  },
  {
    "code": "040501",
    "label": "អំពិលទឹក",
    "name_en": "Ampil Tuek",
    "parent_code": "0405"
  },
  {
    "code": "040502",
    "label": "ឈូកស",
    "name_en": "Chhuk Sa",
    "parent_code": "0405"
  },
  {
    "code": "040503",
    "label": "ច្រេស",
    "name_en": "Chres",
    "parent_code": "0405"
  },
  {
    "code": "040504",
    "label": "កំពង់ត្រឡាច",
    "name_en": "Kampong Tralach",
    "parent_code": "0405"
  },
  {
    "code": "040505",
    "label": "លង្វែក",
    "name_en": "Longveaek",
    "parent_code": "0405"
  },
  {
    "code": "040506",
    "label": "អូរឫស្សី",
    "name_en": "Ou Ruessei",
    "parent_code": "0405"
  },
  {
    "code": "040507",
    "label": "ពានី",
    "name_en": "Peani",
    "parent_code": "0405"
  },
  {
    "code": "040508",
    "label": "សែប",
    "name_en": "Saeb",
    "parent_code": "0405"
  },
  {
    "code": "040509",
    "label": "តាជេស",
    "name_en": "Ta Ches",
    "parent_code": "0405"
  },
  {
    "code": "040510",
    "label": "ថ្មឥដ្ឋ",
    "name_en": "Thma Edth",
    "parent_code": "0405"
  },
  {
    "code": "040601",
    "label": "អណ្ដូងស្នាយ",
    "name_en": "Andoung Snay",
    "parent_code": "0406"
  },
  {
    "code": "040602",
    "label": "បន្ទាយព្រាល",
    "name_en": "Banteay Preal",
    "parent_code": "0406"
  },
  {
    "code": "040603",
    "label": "ជើងគ្រាវ",
    "name_en": "Cheung Kreav",
    "parent_code": "0406"
  },
  {
    "code": "040604",
    "label": "ជ្រៃបាក់",
    "name_en": "Chrey Bak",
    "parent_code": "0406"
  },
  {
    "code": "040605",
    "label": "គោកបន្ទាយ",
    "name_en": "Kouk Banteay",
    "parent_code": "0406"
  },
  {
    "code": "040606",
    "label": "ក្រាំងលាវ",
    "name_en": "Krang Leav",
    "parent_code": "0406"
  },
  {
    "code": "040607",
    "label": "ពង្រ",
    "name_en": "Pongro",
    "parent_code": "0406"
  },
  {
    "code": "040608",
    "label": "ប្រស្នឹប",
    "name_en": "Prasnoeb",
    "parent_code": "0406"
  },
  {
    "code": "040609",
    "label": "ព្រៃមូល",
    "name_en": "Prey Mul",
    "parent_code": "0406"
  },
  {
    "code": "040610",
    "label": "រលាប្អៀរ",
    "name_en": "Rolea B'ier",
    "parent_code": "0406"
  },
  {
    "code": "040611",
    "label": "ស្រែថ្មី",
    "name_en": "Srae Thmei",
    "parent_code": "0406"
  },
  {
    "code": "040612",
    "label": "ស្វាយជ្រុំ",
    "name_en": "Svay Chrum",
    "parent_code": "0406"
  },
  {
    "code": "040613",
    "label": "ទឹកហូត",
    "name_en": "Tuek Hout",
    "parent_code": "0406"
  },
  {
    "code": "040701",
    "label": "ឈានឡើង",
    "name_en": "Chhean Laeung",
    "parent_code": "0407"
  },
  {
    "code": "040702",
    "label": "ខ្នារឆ្មារ",
    "name_en": "Khnar Chhmar",
    "parent_code": "0407"
  },
  {
    "code": "040703",
    "label": "ក្រាំងល្វា",
    "name_en": "Krang Lvea",
    "parent_code": "0407"
  },
  {
    "code": "040704",
    "label": "ពាម",
    "name_en": "Peam",
    "parent_code": "0407"
  },
  {
    "code": "040705",
    "label": "សេដ្ឋី",
    "name_en": "Sedthei",
    "parent_code": "0407"
  },
  {
    "code": "040706",
    "label": "ស្វាយ",
    "name_en": "Svay",
    "parent_code": "0407"
  },
  {
    "code": "040707",
    "label": "ស្វាយជុក",
    "name_en": "Svay Chuk",
    "parent_code": "0407"
  },
  {
    "code": "040708",
    "label": "ត្បែងខ្ពស់",
    "name_en": "Tbaeng Khpos",
    "parent_code": "0407"
  },
  {
    "code": "040709",
    "label": "ធ្លកវៀន",
    "name_en": "Thlok Vien",
    "parent_code": "0407"
  },
  {
    "code": "040801",
    "label": "អភិវឌ្ឍន៍",
    "name_en": "Akphivoadth",
    "parent_code": "0408"
  },
  {
    "code": "040802",
    "label": "ជៀប",
    "name_en": "Chieb",
    "parent_code": "0408"
  },
  {
    "code": "040803",
    "label": "ចោងម៉ោង",
    "name_en": "Chaong Maong",
    "parent_code": "0408"
  },
  {
    "code": "040804",
    "label": "ក្បាលទឹក",
    "name_en": "Kbal Tuek",
    "parent_code": "0408"
  },
  {
    "code": "040805",
    "label": "ខ្លុងពពក",
    "name_en": "Khlong Popok",
    "parent_code": "0408"
  },
  {
    "code": "040806",
    "label": "ក្រាំងស្គារ",
    "name_en": "Krang Skear",
    "parent_code": "0408"
  },
  {
    "code": "040807",
    "label": "តាំងក្រសាំង",
    "name_en": "Tang Krasang",
    "parent_code": "0408"
  },
  {
    "code": "040808",
    "label": "ទួលខ្ពស់",
    "name_en": "Tuol Khpos",
    "parent_code": "0408"
  },
  {
    "code": "040809",
    "label": "ក្តុលសែនជ័យ",
    "name_en": "Kdol Saen Chey",
    "parent_code": "0408"
  },
  {
    "code": "050101",
    "label": "បរសេដ្ឋ",
    "name_en": "Basedth",
    "parent_code": "0501"
  },
  {
    "code": "050102",
    "label": "កាត់ភ្លុក",
    "name_en": "Kat Phluk",
    "parent_code": "0501"
  },
  {
    "code": "050103",
    "label": "និទាន",
    "name_en": "Nitean",
    "parent_code": "0501"
  },
  {
    "code": "050104",
    "label": "ភក្ដី",
    "name_en": "Pheakdei",
    "parent_code": "0501"
  },
  {
    "code": "050105",
    "label": "ភារីមានជ័យ",
    "name_en": "Pheari Mean Chey",
    "parent_code": "0501"
  },
  {
    "code": "050106",
    "label": "ផុង",
    "name_en": "Phong",
    "parent_code": "0501"
  },
  {
    "code": "050107",
    "label": "ពោធិអង្ក្រង",
    "name_en": "Pou Angkrang",
    "parent_code": "0501"
  },
  {
    "code": "050108",
    "label": "ពោធិ៍ចំរើន",
    "name_en": "Pou Chamraeun",
    "parent_code": "0501"
  },
  {
    "code": "050109",
    "label": "ពោធិ៍ម្រាល",
    "name_en": "Pou Mreal",
    "parent_code": "0501"
  },
  {
    "code": "050110",
    "label": "ស្វាយចចិប",
    "name_en": "Svay Chacheb",
    "parent_code": "0501"
  },
  {
    "code": "050111",
    "label": "ទួលអំពិល",
    "name_en": "Tuol Ampil",
    "parent_code": "0501"
  },
  {
    "code": "050112",
    "label": "ទួលសាលា",
    "name_en": "Tuol Sala",
    "parent_code": "0501"
  },
  {
    "code": "050113",
    "label": "កក់",
    "name_en": "Kak",
    "parent_code": "0501"
  },
  {
    "code": "050114",
    "label": "ស្វាយរំពារ",
    "name_en": "Svay Rumpear",
    "parent_code": "0501"
  },
  {
    "code": "050115",
    "label": "ព្រះខែ",
    "name_en": "Preah Khae",
    "parent_code": "0501"
  },
  {
    "code": "050201",
    "label": "ច្បារមន",
    "name_en": "Chbar Mon",
    "parent_code": "0502"
  },
  {
    "code": "050202",
    "label": "កណ្ដោលដុំ",
    "name_en": "Kandaol Dom",
    "parent_code": "0502"
  },
  {
    "code": "050203",
    "label": "រការធំ",
    "name_en": "Rokar Thum",
    "parent_code": "0502"
  },
  {
    "code": "050204",
    "label": "សុព័រទេព",
    "name_en": "Sopoar Tep",
    "parent_code": "0502"
  },
  {
    "code": "050205",
    "label": "ស្វាយក្រវ៉ាន់",
    "name_en": "Svay Kravan",
    "parent_code": "0502"
  },
  {
    "code": "050301",
    "label": "អង្គពពេល",
    "name_en": "Angk Popel",
    "parent_code": "0503"
  },
  {
    "code": "050302",
    "label": "ជង្រុក",
    "name_en": "Chongruk",
    "parent_code": "0503"
  },
  {
    "code": "050303",
    "label": "មហាឫស្សី",
    "name_en": "Moha Ruessei",
    "parent_code": "0503"
  },
  {
    "code": "050304",
    "label": "ពេជ្រមុនី",
    "name_en": "Pechr Muni",
    "parent_code": "0503"
  },
  {
    "code": "050305",
    "label": "ព្រះនិព្វាន",
    "name_en": "Preah Nipean",
    "parent_code": "0503"
  },
  {
    "code": "050306",
    "label": "ព្រៃញាតិ",
    "name_en": "Prey Nheat",
    "parent_code": "0503"
  },
  {
    "code": "050307",
    "label": "ព្រៃវិហារ",
    "name_en": "Prey Vihear",
    "parent_code": "0503"
  },
  {
    "code": "050308",
    "label": "រកាកោះ",
    "name_en": "Roka Kaoh",
    "parent_code": "0503"
  },
  {
    "code": "050309",
    "label": "ស្ដុក",
    "name_en": "Sdok",
    "parent_code": "0503"
  },
  {
    "code": "050310",
    "label": "ស្នំក្រពើ",
    "name_en": "Snam Krapeu",
    "parent_code": "0503"
  },
  {
    "code": "050311",
    "label": "ស្រង់",
    "name_en": "Srang",
    "parent_code": "0503"
  },
  {
    "code": "050312",
    "label": "ទឹកល្អក់",
    "name_en": "Tuek L'ak",
    "parent_code": "0503"
  },
  {
    "code": "050313",
    "label": "វាល",
    "name_en": "Veal",
    "parent_code": "0503"
  },
  {
    "code": "050401",
    "label": "ហោងសំណំ",
    "name_en": "Haong Samnam",
    "parent_code": "0504"
  },
  {
    "code": "050402",
    "label": "រស្មីសាមគ្គី",
    "name_en": "Reaksmei Sameakki",
    "parent_code": "0504"
  },
  {
    "code": "050403",
    "label": "ត្រពាំងជោ",
    "name_en": "Trapeang Chour",
    "parent_code": "0504"
  },
  {
    "code": "050404",
    "label": "សង្កែសាទប",
    "name_en": "Sangkae Satob",
    "parent_code": "0504"
  },
  {
    "code": "050405",
    "label": "តាសាល",
    "name_en": "Ta Sal",
    "parent_code": "0504"
  },
  {
    "code": "050501",
    "label": "ចាន់សែន",
    "name_en": "Chan Saen",
    "parent_code": "0505"
  },
  {
    "code": "050502",
    "label": "ជើងរាស់",
    "name_en": "Cheung Roas",
    "parent_code": "0505"
  },
  {
    "code": "050503",
    "label": "ជំពូព្រឹក្ស",
    "name_en": "Chumpu Proeks",
    "parent_code": "0505"
  },
  {
    "code": "050504",
    "label": "ក្សេមក្សាន្ដ",
    "name_en": "Khsem Khsant",
    "parent_code": "0505"
  },
  {
    "code": "050505",
    "label": "ក្រាំងចេក",
    "name_en": "Krang Chek",
    "parent_code": "0505"
  },
  {
    "code": "050506",
    "label": "មានជ័យ",
    "name_en": "Mean Chey",
    "parent_code": "0505"
  },
  {
    "code": "050507",
    "label": "ព្រះស្រែ",
    "name_en": "Preah Srae",
    "parent_code": "0505"
  },
  {
    "code": "050508",
    "label": "ព្រៃក្រសាំង",
    "name_en": "Prey Krasang",
    "parent_code": "0505"
  },
  {
    "code": "050509",
    "label": "ត្រាចទង",
    "name_en": "Trach Tong",
    "parent_code": "0505"
  },
  {
    "code": "050510",
    "label": "វាលពង់",
    "name_en": "Veal Pong",
    "parent_code": "0505"
  },
  {
    "code": "050511",
    "label": "វាំងចាស់",
    "name_en": "Veang Chas",
    "parent_code": "0505"
  },
  {
    "code": "050512",
    "label": "យុទ្ធសាមគ្គី",
    "name_en": "Yutth Sameakki",
    "parent_code": "0505"
  },
  {
    "code": "050513",
    "label": "ដំណាក់រាំង",
    "name_en": "Damnak Reang",
    "parent_code": "0505"
  },
  {
    "code": "050514",
    "label": "ពាំងល្វា",
    "name_en": "Peang Lvea",
    "parent_code": "0505"
  },
  {
    "code": "050515",
    "label": "ភ្នំតូច",
    "name_en": "Phnom Touch",
    "parent_code": "0505"
  },
  {
    "code": "050601",
    "label": "ចំបក់",
    "name_en": "Chambak",
    "parent_code": "0506"
  },
  {
    "code": "050602",
    "label": "ជាំសង្កែ",
    "name_en": "Choam Sangkae",
    "parent_code": "0506"
  },
  {
    "code": "050603",
    "label": "ដំបូករូង",
    "name_en": "Dambouk Rung",
    "parent_code": "0506"
  },
  {
    "code": "050604",
    "label": "គិរីវន្ដ",
    "name_en": "Kiri Voan",
    "parent_code": "0506"
  },
  {
    "code": "050605",
    "label": "ក្រាំងដីវ៉ាយ",
    "name_en": "Krang Dei Vay",
    "parent_code": "0506"
  },
  {
    "code": "050606",
    "label": "មហាសាំង",
    "name_en": "Moha Sang",
    "parent_code": "0506"
  },
  {
    "code": "050607",
    "label": "អូរ",
    "name_en": "Ou",
    "parent_code": "0506"
  },
  {
    "code": "050608",
    "label": "ព្រៃរំដួល",
    "name_en": "Prey Rumduol",
    "parent_code": "0506"
  },
  {
    "code": "050609",
    "label": "ព្រៃក្មេង",
    "name_en": "Prey Kmeng",
    "parent_code": "0506"
  },
  {
    "code": "050610",
    "label": "តាំងសំរោង",
    "name_en": "Tang Samraong",
    "parent_code": "0506"
  },
  {
    "code": "050611",
    "label": "តាំងស្យា",
    "name_en": "Tang Sya",
    "parent_code": "0506"
  },
  {
    "code": "050613",
    "label": "ត្រែងត្រយឹង",
    "name_en": "Traeng Trayueng",
    "parent_code": "0506"
  },
  {
    "code": "050701",
    "label": "រលាំងចក",
    "name_en": "Roleang Chak",
    "parent_code": "0507"
  },
  {
    "code": "050702",
    "label": "កាហែង",
    "name_en": "Kahaeng",
    "parent_code": "0507"
  },
  {
    "code": "050703",
    "label": "ខ្ទុំក្រាំង",
    "name_en": "Khtum Krang",
    "parent_code": "0507"
  },
  {
    "code": "050704",
    "label": "ក្រាំងអំពិល",
    "name_en": "Krang Ampil",
    "parent_code": "0507"
  },
  {
    "code": "050705",
    "label": "ព្នាយ",
    "name_en": "Pneay",
    "parent_code": "0507"
  },
  {
    "code": "050706",
    "label": "រលាំងគ្រើល",
    "name_en": "Roleang Kreul",
    "parent_code": "0507"
  },
  {
    "code": "050707",
    "label": "សំរោងទង",
    "name_en": "Samrong Tong",
    "parent_code": "0507"
  },
  {
    "code": "050708",
    "label": "សំបូរ",
    "name_en": "Sambour",
    "parent_code": "0507"
  },
  {
    "code": "050709",
    "label": "សែងដី",
    "name_en": "Saen Dei",
    "parent_code": "0507"
  },
  {
    "code": "050710",
    "label": "ស្គុះ",
    "name_en": "Skuh",
    "parent_code": "0507"
  },
  {
    "code": "050711",
    "label": "តាំងក្រូច",
    "name_en": "Tang Krouch",
    "parent_code": "0507"
  },
  {
    "code": "050712",
    "label": "ធម្មតាអរ",
    "name_en": "Thummoda Ar",
    "parent_code": "0507"
  },
  {
    "code": "050713",
    "label": "ត្រពាំងគង",
    "name_en": "Trapeang Kong",
    "parent_code": "0507"
  },
  {
    "code": "050714",
    "label": "ទំព័រមាស",
    "name_en": "Tumpoar Meas",
    "parent_code": "0507"
  },
  {
    "code": "050715",
    "label": "វល្លិសរ",
    "name_en": "Voa Sar",
    "parent_code": "0507"
  },
  {
    "code": "050801",
    "label": "អមលាំង",
    "name_en": "Amleang",
    "parent_code": "0508"
  },
  {
    "code": "050802",
    "label": "មនោរម្យ",
    "name_en": "Monourom",
    "parent_code": "0508"
  },
  {
    "code": "050804",
    "label": "ប្រាំបីមុម",
    "name_en": "Prambei Mum",
    "parent_code": "0508"
  },
  {
    "code": "050805",
    "label": "រុងរឿង",
    "name_en": "Rung Roeang",
    "parent_code": "0508"
  },
  {
    "code": "050806",
    "label": "ទ័ពមាន",
    "name_en": "Toap Mean",
    "parent_code": "0508"
  },
  {
    "code": "050807",
    "label": "វាលពន់",
    "name_en": "Veal Pon",
    "parent_code": "0508"
  },
  {
    "code": "050808",
    "label": "យាអង្គ",
    "name_en": "Yea Angk",
    "parent_code": "0508"
  },
  {
    "code": "060101",
    "label": "បាក់ស្នា",
    "name_en": "Bak Sna",
    "parent_code": "0601"
  },
  {
    "code": "060102",
    "label": "បល្ល័ង្គ",
    "name_en": "Ballangk",
    "parent_code": "0601"
  },
  {
    "code": "060103",
    "label": "បារាយណ៍",
    "name_en": "Baray",
    "parent_code": "0601"
  },
  {
    "code": "060104",
    "label": "បឹង",
    "name_en": "Boeng",
    "parent_code": "0601"
  },
  {
    "code": "060105",
    "label": "ចើងដើង",
    "name_en": "Chaeung Daeung",
    "parent_code": "0601"
  },
  {
    "code": "060106",
    "label": "ច្រនាង",
    "name_en": "Chraneang",
    "parent_code": "0601"
  },
  {
    "code": "060107",
    "label": "ឈូកខ្សាច់",
    "name_en": "Chhuk Khsach",
    "parent_code": "0601"
  },
  {
    "code": "060108",
    "label": "ចុងដូង",
    "name_en": "Chong Doung",
    "parent_code": "0601"
  },
  {
    "code": "060109",
    "label": "ជ្រលង",
    "name_en": "Chrolong",
    "parent_code": "0601"
  },
  {
    "code": "060110",
    "label": "គគីធំ",
    "name_en": "Kokir Thum",
    "parent_code": "0601"
  },
  {
    "code": "060111",
    "label": "ក្រវ៉ា",
    "name_en": "Krava",
    "parent_code": "0601"
  },
  {
    "code": "060112",
    "label": "អណ្ដូងពោធិ៍",
    "name_en": "Andoung Pou",
    "parent_code": "0601"
  },
  {
    "code": "060113",
    "label": "ពង្រ",
    "name_en": "Pongro",
    "parent_code": "0601"
  },
  {
    "code": "060114",
    "label": "សូយោង",
    "name_en": "Sou Young",
    "parent_code": "0601"
  },
  {
    "code": "060115",
    "label": "ស្រឡៅ",
    "name_en": "Sralau",
    "parent_code": "0601"
  },
  {
    "code": "060116",
    "label": "ស្វាយភ្លើង",
    "name_en": "Svay Phleung",
    "parent_code": "0601"
  },
  {
    "code": "060117",
    "label": "ត្នោតជុំ",
    "name_en": "Tnaot Chum",
    "parent_code": "0601"
  },
  {
    "code": "060118",
    "label": "ទ្រៀល",
    "name_en": "Triel",
    "parent_code": "0601"
  },
  {
    "code": "060201",
    "label": "ជ័យ",
    "name_en": "Chey",
    "parent_code": "0602"
  },
  {
    "code": "060202",
    "label": "ដំរីស្លាប់",
    "name_en": "Damrei Slab",
    "parent_code": "0602"
  },
  {
    "code": "060203",
    "label": "កំពង់គោ",
    "name_en": "Kampong Kou",
    "parent_code": "0602"
  },
  {
    "code": "060204",
    "label": "កំពង់ស្វាយ",
    "name_en": "Kampong Svay",
    "parent_code": "0602"
  },
  {
    "code": "060205",
    "label": "នីពេជ",
    "name_en": "Nipech",
    "parent_code": "0602"
  },
  {
    "code": "060206",
    "label": "ផាត់សណ្ដាយ",
    "name_en": "Phat Sanday",
    "parent_code": "0602"
  },
  {
    "code": "060207",
    "label": "សាន់គ",
    "name_en": "San Kor",
    "parent_code": "0602"
  },
  {
    "code": "060208",
    "label": "ត្បែង",
    "name_en": "Tbaeng",
    "parent_code": "0602"
  },
  {
    "code": "060209",
    "label": "ត្រពាំងឫស្សី",
    "name_en": "Trapeang Ruessei",
    "parent_code": "0602"
  },
  {
    "code": "060210",
    "label": "ក្ដីដូង",
    "name_en": "Kdei Doung",
    "parent_code": "0602"
  },
  {
    "code": "060211",
    "label": "ព្រៃគុយ",
    "name_en": "Prey Kuy",
    "parent_code": "0602"
  },
  {
    "code": "060301",
    "label": "ដំរីជាន់ខ្លា",
    "name_en": "Damrei Choan Khla",
    "parent_code": "0603"
  },
  {
    "code": "060302",
    "label": "កំពង់ធំ",
    "name_en": "Kampong Thum",
    "parent_code": "0603"
  },
  {
    "code": "060303",
    "label": "កំពង់រទេះ",
    "name_en": "Kampong Roteh",
    "parent_code": "0603"
  },
  {
    "code": "060304",
    "label": "អូរកន្ធរ",
    "name_en": "Ou Kanthor",
    "parent_code": "0603"
  },
  {
    "code": "060306",
    "label": "កំពង់ក្របៅ",
    "name_en": "Kampong Krabau",
    "parent_code": "0603"
  },
  {
    "code": "060308",
    "label": "ព្រៃតាហ៊ូ",
    "name_en": "Prey Ta Hu",
    "parent_code": "0603"
  },
  {
    "code": "060309",
    "label": "អាចារ្យលាក់",
    "name_en": "Achar Leak",
    "parent_code": "0603"
  },
  {
    "code": "060310",
    "label": "ស្រយ៉ូវ",
    "name_en": "Srayov",
    "parent_code": "0603"
  },
  {
    "code": "060401",
    "label": "ដូង",
    "name_en": "Doung",
    "parent_code": "0604"
  },
  {
    "code": "060402",
    "label": "ក្រយា",
    "name_en": "Kraya",
    "parent_code": "0604"
  },
  {
    "code": "060403",
    "label": "ផាន់ញើម",
    "name_en": "Phan Nheum",
    "parent_code": "0604"
  },
  {
    "code": "060404",
    "label": "សាគ្រាម",
    "name_en": "Sakream",
    "parent_code": "0604"
  },
  {
    "code": "060405",
    "label": "សាលាវិស័យ",
    "name_en": "Sala Visai",
    "parent_code": "0604"
  },
  {
    "code": "060406",
    "label": "សាមគ្គី",
    "name_en": "Sameakki",
    "parent_code": "0604"
  },
  {
    "code": "060407",
    "label": "ទួលគ្រើល",
    "name_en": "Tuol Kreul",
    "parent_code": "0604"
  },
  {
    "code": "060501",
    "label": "ឈូក",
    "name_en": "Chhuk",
    "parent_code": "0605"
  },
  {
    "code": "060502",
    "label": "គោល",
    "name_en": "Koul",
    "parent_code": "0605"
  },
  {
    "code": "060503",
    "label": "សំបូរណ៍",
    "name_en": "Sambour",
    "parent_code": "0605"
  },
  {
    "code": "060504",
    "label": "ស្រើង",
    "name_en": "Sraeung",
    "parent_code": "0605"
  },
  {
    "code": "060505",
    "label": "តាំងក្រសៅ",
    "name_en": "Tang Krasau",
    "parent_code": "0605"
  },
  {
    "code": "060601",
    "label": "ឈើទាល",
    "name_en": "Chheu Teal",
    "parent_code": "0606"
  },
  {
    "code": "060602",
    "label": "ដងកាំបិត",
    "name_en": "Dang Kambet",
    "parent_code": "0606"
  },
  {
    "code": "060603",
    "label": "ក្លែង",
    "name_en": "Klaeng",
    "parent_code": "0606"
  },
  {
    "code": "060604",
    "label": "មានរិទ្ធ",
    "name_en": "Mean Rith",
    "parent_code": "0606"
  },
  {
    "code": "060605",
    "label": "មានជ័យ",
    "name_en": "Mean Chey",
    "parent_code": "0606"
  },
  {
    "code": "060606",
    "label": "ងន",
    "name_en": "Ngan",
    "parent_code": "0606"
  },
  {
    "code": "060607",
    "label": "សណ្ដាន់",
    "name_en": "Sandan",
    "parent_code": "0606"
  },
  {
    "code": "060608",
    "label": "សុចិត្រ",
    "name_en": "Sochet",
    "parent_code": "0606"
  },
  {
    "code": "060609",
    "label": "ទំរីង",
    "name_en": "Tum Ring",
    "parent_code": "0606"
  },
  {
    "code": "060701",
    "label": "បឹងល្វា",
    "name_en": "Boeng Lvea",
    "parent_code": "0607"
  },
  {
    "code": "060702",
    "label": "ជ្រាប់",
    "name_en": "Chroab",
    "parent_code": "0607"
  },
  {
    "code": "060703",
    "label": "កំពង់ថ្ម",
    "name_en": "Kampong Thma",
    "parent_code": "0607"
  },
  {
    "code": "060704",
    "label": "កកោះ",
    "name_en": "Kakaoh",
    "parent_code": "0607"
  },
  {
    "code": "060705",
    "label": "ក្រយា",
    "name_en": "Kraya",
    "parent_code": "0607"
  },
  {
    "code": "060706",
    "label": "ព្នៅ",
    "name_en": "Pnov",
    "parent_code": "0607"
  },
  {
    "code": "060707",
    "label": "ប្រាសាទ",
    "name_en": "Prasat",
    "parent_code": "0607"
  },
  {
    "code": "060708",
    "label": "តាំងក្រសាំង",
    "name_en": "Tang Krasang",
    "parent_code": "0607"
  },
  {
    "code": "060709",
    "label": "ទីពោ",
    "name_en": "Ti Pou",
    "parent_code": "0607"
  },
  {
    "code": "060710",
    "label": "ត្បូងក្រពើ",
    "name_en": "Tboung Krapeu",
    "parent_code": "0607"
  },
  {
    "code": "060801",
    "label": "បន្ទាយស្ទោង",
    "name_en": "Banteay Stoung",
    "parent_code": "0608"
  },
  {
    "code": "060802",
    "label": "ចំណាក្រោម",
    "name_en": "Chamna Kraom",
    "parent_code": "0608"
  },
  {
    "code": "060803",
    "label": "ចំណាលើ",
    "name_en": "Chamna Leu",
    "parent_code": "0608"
  },
  {
    "code": "060804",
    "label": "កំពង់ចិនជើង",
    "name_en": "Kampong Chen Cheung",
    "parent_code": "0608"
  },
  {
    "code": "060805",
    "label": "កំពង់ចិនត្បូង",
    "name_en": "Kampong Chen Tboung",
    "parent_code": "0608"
  },
  {
    "code": "060806",
    "label": "ម្សាក្រង",
    "name_en": "Msa Krang",
    "parent_code": "0608"
  },
  {
    "code": "060807",
    "label": "ពាមបាង",
    "name_en": "Peam Bang",
    "parent_code": "0608"
  },
  {
    "code": "060808",
    "label": "ពពក",
    "name_en": "Popok",
    "parent_code": "0608"
  },
  {
    "code": "060809",
    "label": "ប្រឡាយ",
    "name_en": "Pralay",
    "parent_code": "0608"
  },
  {
    "code": "060810",
    "label": "ព្រះដំរី",
    "name_en": "Preah Damrei",
    "parent_code": "0608"
  },
  {
    "code": "060811",
    "label": "រុងរឿង",
    "name_en": "Rung Roeang",
    "parent_code": "0608"
  },
  {
    "code": "060812",
    "label": "សំព្រោជ",
    "name_en": "Samprouch",
    "parent_code": "0608"
  },
  {
    "code": "060813",
    "label": "ទ្រា",
    "name_en": "Trea",
    "parent_code": "0608"
  },
  {
    "code": "070101",
    "label": "អង្គភ្នំតូច",
    "name_en": "Angk Phnum Touch",
    "parent_code": "0701"
  },
  {
    "code": "070102",
    "label": "អង្គរជ័យ",
    "name_en": "Ankor Chey",
    "parent_code": "0701"
  },
  {
    "code": "070103",
    "label": "ចំប៉ី",
    "name_en": "Champei",
    "parent_code": "0701"
  },
  {
    "code": "070104",
    "label": "ដំបូកខ្ពស់",
    "name_en": "Dambouk Khpos",
    "parent_code": "0701"
  },
  {
    "code": "070105",
    "label": "ដានគោម",
    "name_en": "Dan Koum",
    "parent_code": "0701"
  },
  {
    "code": "070106",
    "label": "ដើមដូង",
    "name_en": "Daeum Doung",
    "parent_code": "0701"
  },
  {
    "code": "070107",
    "label": "ម្រោម",
    "name_en": "Mroum",
    "parent_code": "0701"
  },
  {
    "code": "070108",
    "label": "ភ្នំកុង",
    "name_en": "Phnum Kong",
    "parent_code": "0701"
  },
  {
    "code": "070109",
    "label": "ប្រភ្នំ",
    "name_en": "Praphnum",
    "parent_code": "0701"
  },
  {
    "code": "070110",
    "label": "សំឡាញ",
    "name_en": "Samlanh",
    "parent_code": "0701"
  },
  {
    "code": "070111",
    "label": "តានី",
    "name_en": "Tani",
    "parent_code": "0701"
  },
  {
    "code": "070201",
    "label": "បន្ទាយមាសខាងកើត",
    "name_en": "Banteay Meas Khang Kaeut",
    "parent_code": "0702"
  },
  {
    "code": "070202",
    "label": "បន្ទាយមាសខាងលិច",
    "name_en": "Banteay Meas Khang lech",
    "parent_code": "0702"
  },
  {
    "code": "070203",
    "label": "ព្រៃទន្លេ",
    "name_en": "Prey Tonle",
    "parent_code": "0702"
  },
  {
    "code": "070204",
    "label": "សំរោងក្រោម",
    "name_en": "Samraong Kraom",
    "parent_code": "0702"
  },
  {
    "code": "070205",
    "label": "សំរោងលើ",
    "name_en": "Samraong Leu",
    "parent_code": "0702"
  },
  {
    "code": "070206",
    "label": "ស្ដេចគង់ខាងជើង",
    "name_en": "Sdach Kong Khang Cheung",
    "parent_code": "0702"
  },
  {
    "code": "070207",
    "label": "ស្ដេចគង់ខាងលិច",
    "name_en": "Sdach Kong Khang lech",
    "parent_code": "0702"
  },
  {
    "code": "070208",
    "label": "ស្ដេចគង់ខាងត្បូង",
    "name_en": "Sdach Kong Khang Tboung",
    "parent_code": "0702"
  },
  {
    "code": "070209",
    "label": "ត្នោតចុងស្រង់",
    "name_en": "Tnoat Chong Srang",
    "parent_code": "0702"
  },
  {
    "code": "070210",
    "label": "ត្រពាំងសាលាខាងកើត",
    "name_en": "Trapeang Sala Khang Kaeut",
    "parent_code": "0702"
  },
  {
    "code": "070211",
    "label": "ត្រពាំងសាលាខាងលិច",
    "name_en": "Trapeang Sala Khang Lech",
    "parent_code": "0702"
  },
  {
    "code": "070212",
    "label": "ទូកមាសខាងកើត",
    "name_en": "Tuk Meas Khang Kaeut",
    "parent_code": "0702"
  },
  {
    "code": "070213",
    "label": "ទូកមាសខាងលិច",
    "name_en": "Tuk Meas Khang Lech",
    "parent_code": "0702"
  },
  {
    "code": "070214",
    "label": "វត្ដអង្គខាងជើង",
    "name_en": "Voat Angk Khang Cheung",
    "parent_code": "0702"
  },
  {
    "code": "070215",
    "label": "វត្ដអង្គខាងត្បូង",
    "name_en": "Voat Angk Khang Tboung",
    "parent_code": "0702"
  },
  {
    "code": "070301",
    "label": "បានៀវ",
    "name_en": "Baniev",
    "parent_code": "0703"
  },
  {
    "code": "070302",
    "label": "តាកែន",
    "name_en": "Takaen",
    "parent_code": "0703"
  },
  {
    "code": "070303",
    "label": "បឹងនិមល",
    "name_en": "Boeng Nimol",
    "parent_code": "0703"
  },
  {
    "code": "070304",
    "label": "ឈូក",
    "name_en": "Chhuk",
    "parent_code": "0703"
  },
  {
    "code": "070305",
    "label": "ដូនយ៉យ",
    "name_en": "Doun Yay",
    "parent_code": "0703"
  },
  {
    "code": "070306",
    "label": "ក្រាំងស្បូវ",
    "name_en": "Krang Sbov",
    "parent_code": "0703"
  },
  {
    "code": "070307",
    "label": "ក្រាំងស្នាយ",
    "name_en": "Krang Snay",
    "parent_code": "0703"
  },
  {
    "code": "070308",
    "label": "ល្បើក",
    "name_en": "Lbaeuk",
    "parent_code": "0703"
  },
  {
    "code": "070309",
    "label": "ត្រពាំងភ្លាំង",
    "name_en": "Trapeang Phleang",
    "parent_code": "0703"
  },
  {
    "code": "070310",
    "label": "មានជ័យ",
    "name_en": "Mean Chey",
    "parent_code": "0703"
  },
  {
    "code": "070311",
    "label": "នារាយណ៍",
    "name_en": "Neareay",
    "parent_code": "0703"
  },
  {
    "code": "070312",
    "label": "សត្វពង",
    "name_en": "Satv Pong",
    "parent_code": "0703"
  },
  {
    "code": "070313",
    "label": "ត្រពាំងបី",
    "name_en": "Trapeang Bei",
    "parent_code": "0703"
  },
  {
    "code": "070314",
    "label": "ត្រមែង",
    "name_en": "Tramaeng",
    "parent_code": "0703"
  },
  {
    "code": "070315",
    "label": "តេជោអភិវឌ្ឍន៍",
    "name_en": "Dechou Akphivoadth",
    "parent_code": "0703"
  },
  {
    "code": "070401",
    "label": "ច្រេស",
    "name_en": "Chres",
    "parent_code": "0704"
  },
  {
    "code": "070402",
    "label": "ជំពូវន្ដ",
    "name_en": "Chumpu Voan",
    "parent_code": "0704"
  },
  {
    "code": "070403",
    "label": "ស្នាយអញ្ជិត",
    "name_en": "Snay Anhchit",
    "parent_code": "0704"
  },
  {
    "code": "070404",
    "label": "ស្រែចែង",
    "name_en": "Srae Chaeng",
    "parent_code": "0704"
  },
  {
    "code": "070405",
    "label": "ស្រែក្នុង",
    "name_en": "Srae Knong",
    "parent_code": "0704"
  },
  {
    "code": "070406",
    "label": "ស្រែសំរោង",
    "name_en": "Srae Samraong",
    "parent_code": "0704"
  },
  {
    "code": "070407",
    "label": "ត្រពាំងរាំង",
    "name_en": "Trapeang Reang",
    "parent_code": "0704"
  },
  {
    "code": "070501",
    "label": "ដំណាក់សុក្រំ",
    "name_en": "Damnak Sokram",
    "parent_code": "0705"
  },
  {
    "code": "070502",
    "label": "ដងទង់",
    "name_en": "Dang Tong",
    "parent_code": "0705"
  },
  {
    "code": "070503",
    "label": "ឃ្ជាយខាងជើង",
    "name_en": "Khcheay Khang Cheung",
    "parent_code": "0705"
  },
  {
    "code": "070504",
    "label": "ខ្ជាយខាងត្បូង",
    "name_en": "Khcheay Khang Tboung",
    "parent_code": "0705"
  },
  {
    "code": "070505",
    "label": "មានរិទ្ធិ",
    "name_en": "Mean Ritth",
    "parent_code": "0705"
  },
  {
    "code": "070506",
    "label": "ស្រែជាខាងជើង",
    "name_en": "Srae Chea Khang Cheung",
    "parent_code": "0705"
  },
  {
    "code": "070507",
    "label": "ស្រែជាខាងត្បូង",
    "name_en": "Srae Chea Khang Tboung",
    "parent_code": "0705"
  },
  {
    "code": "070508",
    "label": "ទទុង",
    "name_en": "Totung",
    "parent_code": "0705"
  },
  {
    "code": "070509",
    "label": "អង្គ រមាស",
    "name_en": "Angk  Romeas",
    "parent_code": "0705"
  },
  {
    "code": "070510",
    "label": "ល្អាង",
    "name_en": "L'ang",
    "parent_code": "0705"
  },
  {
    "code": "070601",
    "label": "បឹងសាលាខាងជើង",
    "name_en": "Boeng Sala Khang Cheung",
    "parent_code": "0706"
  },
  {
    "code": "070602",
    "label": "បឹងសាលាខាងត្បូង",
    "name_en": "Boeng Sala Khang Tboung",
    "parent_code": "0706"
  },
  {
    "code": "070603",
    "label": "ដំណាក់កន្ទួតខាងជើង",
    "name_en": "Damnak Kantuot Khang Cheung",
    "parent_code": "0706"
  },
  {
    "code": "070604",
    "label": "ដំណាក់កន្ទួតខាងត្បូង",
    "name_en": "Damnak Kantuot Khang Tboung",
    "parent_code": "0706"
  },
  {
    "code": "070605",
    "label": "កំពង់ត្រាចខាងកើត",
    "name_en": "Kampong Trach Khang Kaeut",
    "parent_code": "0706"
  },
  {
    "code": "070606",
    "label": "កំពង់ត្រាចខាងលិច",
    "name_en": "Kampong Trach Khang Lech",
    "parent_code": "0706"
  },
  {
    "code": "070607",
    "label": "ប្រាសាទភ្នំខ្យង",
    "name_en": "Prasat Phnom Khyang",
    "parent_code": "0706"
  },
  {
    "code": "070608",
    "label": "ភ្នំប្រាសាទ",
    "name_en": "Phnom Prasat",
    "parent_code": "0706"
  },
  {
    "code": "070609",
    "label": "អង្គសុរភី",
    "name_en": "Ang Sophy",
    "parent_code": "0706"
  },
  {
    "code": "070612",
    "label": "ព្រែកក្រឹស",
    "name_en": "Preaek Kroes",
    "parent_code": "0706"
  },
  {
    "code": "070613",
    "label": "ឫស្សីស្រុកខាងកើត",
    "name_en": "Ruessei Srok Khang Kaeut",
    "parent_code": "0706"
  },
  {
    "code": "070614",
    "label": "ឫស្សីស្រុកខាងលិច",
    "name_en": "Ruessei Srok Khang Lech",
    "parent_code": "0706"
  },
  {
    "code": "070615",
    "label": "ស្វាយទងខាងជើង",
    "name_en": "Svay Tong Khang Cheung",
    "parent_code": "0706"
  },
  {
    "code": "070616",
    "label": "ស្វាយទងខាងត្បូង",
    "name_en": "Svay Tong Khang Tboung",
    "parent_code": "0706"
  },
  {
    "code": "070701",
    "label": "បឹងទូក",
    "name_en": "Boeng Tuk",
    "parent_code": "0707"
  },
  {
    "code": "070702",
    "label": "ជុំគ្រៀល",
    "name_en": "Chum Kriel",
    "parent_code": "0707"
  },
  {
    "code": "070703",
    "label": "កំពង់ក្រែង",
    "name_en": "Kampong Kraeng",
    "parent_code": "0707"
  },
  {
    "code": "070704",
    "label": "កំពង់សំរោង",
    "name_en": "Kampong Samraong",
    "parent_code": "0707"
  },
  {
    "code": "070705",
    "label": "កណ្ដោល",
    "name_en": "Kandaol",
    "parent_code": "0707"
  },
  {
    "code": "070707",
    "label": "កោះតូច",
    "name_en": "Kaoh Touch",
    "parent_code": "0707"
  },
  {
    "code": "070708",
    "label": "កូនសត្វ",
    "name_en": "Koun Satv",
    "parent_code": "0707"
  },
  {
    "code": "070709",
    "label": "ម៉ាក់ប្រាង្គ",
    "name_en": "Makprang",
    "parent_code": "0707"
  },
  {
    "code": "070711",
    "label": "ព្រែកត្នោត",
    "name_en": "Preaek Tnoat",
    "parent_code": "0707"
  },
  {
    "code": "070712",
    "label": "ព្រៃឃ្មុំ",
    "name_en": "Prey Khmum",
    "parent_code": "0707"
  },
  {
    "code": "070713",
    "label": "ព្រៃថ្នង",
    "name_en": "Prey Thnang",
    "parent_code": "0707"
  },
  {
    "code": "070715",
    "label": "ស្ទឹងកែវ",
    "name_en": "Stueng Kaev",
    "parent_code": "0707"
  },
  {
    "code": "070716",
    "label": "ថ្មី",
    "name_en": "Thmei",
    "parent_code": "0707"
  },
  {
    "code": "070717",
    "label": "ត្រពាំងព្រីង",
    "name_en": "Trapeang Pring",
    "parent_code": "0707"
  },
  {
    "code": "070718",
    "label": "ត្រពាំងសង្កែ",
    "name_en": "Trapeang Sangkae",
    "parent_code": "0707"
  },
  {
    "code": "070719",
    "label": "ត្រពាំងធំ",
    "name_en": "Trapeang Thum",
    "parent_code": "0707"
  },
  {
    "code": "070801",
    "label": "កំពង់កណ្ដាល",
    "name_en": "Kampong Kandal",
    "parent_code": "0708"
  },
  {
    "code": "070802",
    "label": "ក្រាំងអំពិល",
    "name_en": "Krang Ampil",
    "parent_code": "0708"
  },
  {
    "code": "070803",
    "label": "កំពង់បាយ",
    "name_en": "Kampong Bay",
    "parent_code": "0708"
  },
  {
    "code": "070804",
    "label": "អណ្ដូងខ្មែរ",
    "name_en": "Andoung Khmer",
    "parent_code": "0708"
  },
  {
    "code": "070805",
    "label": "ត្រើយកោះ",
    "name_en": "Traeuy Kaoh",
    "parent_code": "0708"
  },
  {
    "code": "080101",
    "label": "អំពៅព្រៃ",
    "name_en": "Ampov Prey",
    "parent_code": "0801"
  },
  {
    "code": "080102",
    "label": "អន្លង់រមៀត",
    "name_en": "Anlong Romiet",
    "parent_code": "0801"
  },
  {
    "code": "080103",
    "label": "បារគូ",
    "name_en": "Barku",
    "parent_code": "0801"
  },
  {
    "code": "080104",
    "label": "បឹងខ្យាង",
    "name_en": "Boeng Khyang",
    "parent_code": "0801"
  },
  {
    "code": "080105",
    "label": "ជើងកើប",
    "name_en": "Cheung Kaeub",
    "parent_code": "0801"
  },
  {
    "code": "080106",
    "label": "ដើមឫស",
    "name_en": "Daeum Rues",
    "parent_code": "0801"
  },
  {
    "code": "080107",
    "label": "កណ្ដោក",
    "name_en": "Kandaok",
    "parent_code": "0801"
  },
  {
    "code": "080108",
    "label": "ថ្មី",
    "name_en": "Thmei",
    "parent_code": "0801"
  },
  {
    "code": "080109",
    "label": "គោកត្រប់",
    "name_en": "Kouk Trab",
    "parent_code": "0801"
  },
  {
    "code": "080113",
    "label": "ព្រះពុទ្ធ",
    "name_en": "Preah Putth",
    "parent_code": "0801"
  },
  {
    "code": "080115",
    "label": "ព្រែករកា",
    "name_en": "Preaek Roka",
    "parent_code": "0801"
  },
  {
    "code": "080116",
    "label": "ព្រែកស្លែង",
    "name_en": "Preaek Slaeng",
    "parent_code": "0801"
  },
  {
    "code": "080117",
    "label": "រកា",
    "name_en": "Roka",
    "parent_code": "0801"
  },
  {
    "code": "080118",
    "label": "រលាំងកែន",
    "name_en": "Roleang Kaen",
    "parent_code": "0801"
  },
  {
    "code": "080122",
    "label": "សៀមរាប",
    "name_en": "Siem Reab",
    "parent_code": "0801"
  },
  {
    "code": "080125",
    "label": "ត្បែង",
    "name_en": "Tbaeng",
    "parent_code": "0801"
  },
  {
    "code": "080127",
    "label": "ត្រពាំងវែង",
    "name_en": "Trapeang Veaeng",
    "parent_code": "0801"
  },
  {
    "code": "080128",
    "label": "ទ្រា",
    "name_en": "Trea",
    "parent_code": "0801"
  },
  {
    "code": "080201",
    "label": "បន្ទាយដែក",
    "name_en": "Banteay Daek",
    "parent_code": "0802"
  },
  {
    "code": "080202",
    "label": "ឈើទាល",
    "name_en": "Chheu Teal",
    "parent_code": "0802"
  },
  {
    "code": "080203",
    "label": "ដីឥដ្ឋ",
    "name_en": "Dei Edth",
    "parent_code": "0802"
  },
  {
    "code": "080204",
    "label": "កំពង់ស្វាយ",
    "name_en": "Kampong Svay",
    "parent_code": "0802"
  },
  {
    "code": "080206",
    "label": "គគីរ",
    "name_en": "Kokir",
    "parent_code": "0802"
  },
  {
    "code": "080207",
    "label": "គគីរធំ",
    "name_en": "Kokir Thum",
    "parent_code": "0802"
  },
  {
    "code": "080208",
    "label": "ភូមិធំ",
    "name_en": "Phum Thum",
    "parent_code": "0802"
  },
  {
    "code": "080211",
    "label": "សំរោងធំ",
    "name_en": "Samraong Thum",
    "parent_code": "0802"
  },
  {
    "code": "080301",
    "label": "បាក់ដាវ",
    "name_en": "Bak Dav",
    "parent_code": "0803"
  },
  {
    "code": "080302",
    "label": "ជ័យធំ",
    "name_en": "Chey Thum",
    "parent_code": "0803"
  },
  {
    "code": "080303",
    "label": "កំពង់ចំលង",
    "name_en": "Kampong Chamlang",
    "parent_code": "0803"
  },
  {
    "code": "080304",
    "label": "កោះចូរ៉ាម",
    "name_en": "Kaoh Chouram",
    "parent_code": "0803"
  },
  {
    "code": "080305",
    "label": "កោះឧកញ៉ាតី",
    "name_en": "Kaoh Oknha Tei",
    "parent_code": "0803"
  },
  {
    "code": "080306",
    "label": "ព្រះប្រសប់",
    "name_en": "Preah Prasab",
    "parent_code": "0803"
  },
  {
    "code": "080307",
    "label": "ព្រែកអំពិល",
    "name_en": "Preaek Ampil",
    "parent_code": "0803"
  },
  {
    "code": "080308",
    "label": "ព្រែកលួង",
    "name_en": "Preaek Luong",
    "parent_code": "0803"
  },
  {
    "code": "080309",
    "label": "ព្រែកតាកូវ",
    "name_en": "Preaek Ta kov",
    "parent_code": "0803"
  },
  {
    "code": "080310",
    "label": "ព្រែកតាមាក់",
    "name_en": "Preaek Ta Meak",
    "parent_code": "0803"
  },
  {
    "code": "080311",
    "label": "ពុកឫស្សី",
    "name_en": "Puk Ruessei",
    "parent_code": "0803"
  },
  {
    "code": "080312",
    "label": "រកាជន្លឹង",
    "name_en": "Roka Chonlueng",
    "parent_code": "0803"
  },
  {
    "code": "080313",
    "label": "សន្លុង",
    "name_en": "Sanlung",
    "parent_code": "0803"
  },
  {
    "code": "080314",
    "label": "ស៊ីធរ",
    "name_en": "Sithor",
    "parent_code": "0803"
  },
  {
    "code": "080315",
    "label": "ស្វាយជ្រំ",
    "name_en": "Svay Chrum",
    "parent_code": "0803"
  },
  {
    "code": "080316",
    "label": "ស្វាយរមៀត",
    "name_en": "Svay Romiet",
    "parent_code": "0803"
  },
  {
    "code": "080317",
    "label": "តាឯក",
    "name_en": "Ta Aek",
    "parent_code": "0803"
  },
  {
    "code": "080318",
    "label": "វិហារសួគ៌",
    "name_en": "Vihear Suork",
    "parent_code": "0803"
  },
  {
    "code": "080401",
    "label": "ឈើខ្មៅ",
    "name_en": "Chheu Kmau",
    "parent_code": "0804"
  },
  {
    "code": "080402",
    "label": "ជ្រោយតាកែវ",
    "name_en": "Chrouy Ta Kaev",
    "parent_code": "0804"
  },
  {
    "code": "080403",
    "label": "កំពង់កុង",
    "name_en": "Kampong Kong",
    "parent_code": "0804"
  },
  {
    "code": "080404",
    "label": "កោះធំ ‹ក›",
    "name_en": "Kaoh Thum Ka",
    "parent_code": "0804"
  },
  {
    "code": "080405",
    "label": "កោះធំ ‹ខ›",
    "name_en": "Kaoh Thum Kha",
    "parent_code": "0804"
  },
  {
    "code": "080407",
    "label": "លើកដែក",
    "name_en": "Leuk Daek",
    "parent_code": "0804"
  },
  {
    "code": "080408",
    "label": "ពោធិ៍បាន",
    "name_en": "Pouthi Ban",
    "parent_code": "0804"
  },
  {
    "code": "080409",
    "label": "ព្រែកជ្រៃ",
    "name_en": "Prea​ek Chrey",
    "parent_code": "0804"
  },
  {
    "code": "080410",
    "label": "ព្រែកស្ដី",
    "name_en": "Preaek Sdei",
    "parent_code": "0804"
  },
  {
    "code": "080411",
    "label": "ព្រែកថ្មី",
    "name_en": "Preaek Thmei",
    "parent_code": "0804"
  },
  {
    "code": "080412",
    "label": "សំពៅពូន",
    "name_en": "Sampeou Poun",
    "parent_code": "0804"
  },
  {
    "code": "080501",
    "label": "កំពង់ភ្នំ",
    "name_en": "Kampong Phnum",
    "parent_code": "0805"
  },
  {
    "code": "080502",
    "label": "ក្អមសំណរ",
    "name_en": "K'am Samnar",
    "parent_code": "0805"
  },
  {
    "code": "080503",
    "label": "ខ្ពបអាទាវ",
    "name_en": "Khpob Ateav",
    "parent_code": "0805"
  },
  {
    "code": "080504",
    "label": "ពាមរាំង",
    "name_en": "Peam Reang",
    "parent_code": "0805"
  },
  {
    "code": "080505",
    "label": "ព្រែកដាច់",
    "name_en": "Preaek Dach",
    "parent_code": "0805"
  },
  {
    "code": "080506",
    "label": "ព្រែកទន្លាប់",
    "name_en": "Preaek Tonloab",
    "parent_code": "0805"
  },
  {
    "code": "080507",
    "label": "សណ្ដារ",
    "name_en": "Sandar",
    "parent_code": "0805"
  },
  {
    "code": "080601",
    "label": "អរិយក្សត្រ",
    "name_en": "Akreiy Ksatr",
    "parent_code": "0806"
  },
  {
    "code": "080602",
    "label": "បារុង",
    "name_en": "Barong",
    "parent_code": "0806"
  },
  {
    "code": "080603",
    "label": "បឹងគ្រំ",
    "name_en": "Boeng Krum",
    "parent_code": "0806"
  },
  {
    "code": "080604",
    "label": "កោះកែវ",
    "name_en": "Kaoh Kaev",
    "parent_code": "0806"
  },
  {
    "code": "080605",
    "label": "កោះរះ",
    "name_en": "Kaoh Reah",
    "parent_code": "0806"
  },
  {
    "code": "080606",
    "label": "ល្វាសរ",
    "name_en": "Lvea Sar",
    "parent_code": "0806"
  },
  {
    "code": "080607",
    "label": "ពាមឧកញ៉ាអុង",
    "name_en": "Peam Oknha Ong",
    "parent_code": "0806"
  },
  {
    "code": "080608",
    "label": "ភូមិធំ",
    "name_en": "Phum Thum",
    "parent_code": "0806"
  },
  {
    "code": "080609",
    "label": "ព្រែកក្មេង",
    "name_en": "Preaek Kmeng",
    "parent_code": "0806"
  },
  {
    "code": "080610",
    "label": "ព្រែករៃ",
    "name_en": "Preaek Rey",
    "parent_code": "0806"
  },
  {
    "code": "080611",
    "label": "ព្រែកឫស្សី",
    "name_en": "Preaek Ruessei",
    "parent_code": "0806"
  },
  {
    "code": "080612",
    "label": "សំបួរ",
    "name_en": "Sambuor",
    "parent_code": "0806"
  },
  {
    "code": "080613",
    "label": "សារិកាកែវ",
    "name_en": "Sarikakaev",
    "parent_code": "0806"
  },
  {
    "code": "080614",
    "label": "ថ្មគរ",
    "name_en": "Thma Kor",
    "parent_code": "0806"
  },
  {
    "code": "080615",
    "label": "ទឹកឃ្លាំង",
    "name_en": "Tuek Khleang",
    "parent_code": "0806"
  },
  {
    "code": "080703",
    "label": "ព្រែកអញ្ចាញ",
    "name_en": "Preaek Anhchanh",
    "parent_code": "0807"
  },
  {
    "code": "080704",
    "label": "ព្រែកដំបង",
    "name_en": "Preaek Dambang",
    "parent_code": "0807"
  },
  {
    "code": "080707",
    "label": "រកាកោង ទី ១",
    "name_en": "Roka Kong Ti Muoy",
    "parent_code": "0807"
  },
  {
    "code": "080708",
    "label": "រកាកោង ទី ២",
    "name_en": "Roka Kong Ti Pir",
    "parent_code": "0807"
  },
  {
    "code": "080709",
    "label": "ឫស្សីជ្រោយ",
    "name_en": "Ruessei Chrouy",
    "parent_code": "0807"
  },
  {
    "code": "080710",
    "label": "សំបួរមាស",
    "name_en": "Sambuor Meas",
    "parent_code": "0807"
  },
  {
    "code": "080711",
    "label": "ស្វាយអំពារ",
    "name_en": "Svay Ampear",
    "parent_code": "0807"
  },
  {
    "code": "080801",
    "label": "បែកចាន",
    "name_en": "Baek Chan",
    "parent_code": "0808"
  },
  {
    "code": "080803",
    "label": "ឆក់ឈើនាង",
    "name_en": "Chhak Chheu Neang",
    "parent_code": "0808"
  },
  {
    "code": "080804",
    "label": "ដំណាក់អំពិល",
    "name_en": "Damnak Ampil",
    "parent_code": "0808"
  },
  {
    "code": "080807",
    "label": "ក្រាំងម្កាក់",
    "name_en": "Krang Mkak",
    "parent_code": "0808"
  },
  {
    "code": "080808",
    "label": "លំហាច",
    "name_en": "Lumhach",
    "parent_code": "0808"
  },
  {
    "code": "080809",
    "label": "ម្កាក់",
    "name_en": "Mkak",
    "parent_code": "0808"
  },
  {
    "code": "080811",
    "label": "ពើក",
    "name_en": "Peuk",
    "parent_code": "0808"
  },
  {
    "code": "080813",
    "label": "ព្រៃពួច",
    "name_en": "Prey Puoch",
    "parent_code": "0808"
  },
  {
    "code": "080814",
    "label": "សំរោងលើ",
    "name_en": "Samraong Leu",
    "parent_code": "0808"
  },
  {
    "code": "080816",
    "label": "ទួលព្រេជ",
    "name_en": "Tuol Prech",
    "parent_code": "0808"
  },
  {
    "code": "080901",
    "label": "ឈ្វាំង",
    "name_en": "Chhveang",
    "parent_code": "0809"
  },
  {
    "code": "080902",
    "label": "ជ្រៃលាស់",
    "name_en": "Chrey Loas",
    "parent_code": "0809"
  },
  {
    "code": "080903",
    "label": "កំពង់ហ្លួង",
    "name_en": "Kampong Luong",
    "parent_code": "0809"
  },
  {
    "code": "080904",
    "label": "កំពង់អុស",
    "name_en": "Kampong Os",
    "parent_code": "0809"
  },
  {
    "code": "080905",
    "label": "កោះចិន",
    "name_en": "Kaoh Chen",
    "parent_code": "0809"
  },
  {
    "code": "080906",
    "label": "ភ្នំបាត",
    "name_en": "Phnum Bat",
    "parent_code": "0809"
  },
  {
    "code": "080907",
    "label": "ពញាឮ",
    "name_en": "Ponhea Lueu",
    "parent_code": "0809"
  },
  {
    "code": "080910",
    "label": "ព្រែកតាទែន",
    "name_en": "Preaek Ta Teaen",
    "parent_code": "0809"
  },
  {
    "code": "080911",
    "label": "ផ្សារដែក",
    "name_en": "Phsar Daek",
    "parent_code": "0809"
  },
  {
    "code": "080913",
    "label": "ទំនប់ធំ",
    "name_en": "Tumnob Thum",
    "parent_code": "0809"
  },
  {
    "code": "080914",
    "label": "វិហារហ្លួង",
    "name_en": "Vihear Luong",
    "parent_code": "0809"
  },
  {
    "code": "081001",
    "label": "ខ្ពប",
    "name_en": "Khpob",
    "parent_code": "0810"
  },
  {
    "code": "081002",
    "label": "កោះអន្លង់ចិន",
    "name_en": "Kaoh Anlong Chen",
    "parent_code": "0810"
  },
  {
    "code": "081003",
    "label": "កោះខែល",
    "name_en": "Kaoh Khael",
    "parent_code": "0810"
  },
  {
    "code": "081004",
    "label": "កោះខ្សាច់ទន្លា",
    "name_en": "Kaoh Khsach Tonlea",
    "parent_code": "0810"
  },
  {
    "code": "081005",
    "label": "ក្រាំងយ៉ូវ",
    "name_en": "Krang Yov",
    "parent_code": "0810"
  },
  {
    "code": "081006",
    "label": "ប្រាសាទ",
    "name_en": "Prasat",
    "parent_code": "0810"
  },
  {
    "code": "081007",
    "label": "ព្រែកអំបិល",
    "name_en": "Preaek Ambel",
    "parent_code": "0810"
  },
  {
    "code": "081008",
    "label": "ព្រែកគយ",
    "name_en": "Preaek Koy",
    "parent_code": "0810"
  },
  {
    "code": "081009",
    "label": "រកាខ្ពស់",
    "name_en": "Roka Khpos",
    "parent_code": "0810"
  },
  {
    "code": "081010",
    "label": "ស្អាងភ្នំ",
    "name_en": "S'ang Phnum",
    "parent_code": "0810"
  },
  {
    "code": "081011",
    "label": "សិត្បូ",
    "name_en": "Setbou",
    "parent_code": "0810"
  },
  {
    "code": "081012",
    "label": "ស្វាយប្រទាល",
    "name_en": "Svay Prateal",
    "parent_code": "0810"
  },
  {
    "code": "081013",
    "label": "ស្វាយរលំ",
    "name_en": "Svay Rolum",
    "parent_code": "0810"
  },
  {
    "code": "081014",
    "label": "តាលន់",
    "name_en": "Ta Lon",
    "parent_code": "0810"
  },
  {
    "code": "081015",
    "label": "ត្រើយស្លា",
    "name_en": "Traeuy Sla",
    "parent_code": "0810"
  },
  {
    "code": "081016",
    "label": "ទឹកវិល",
    "name_en": "Tuek Vil",
    "parent_code": "0810"
  },
  {
    "code": "081101",
    "label": "តាក្ដុល",
    "name_en": "Ta Kdol",
    "parent_code": "0811"
  },
  {
    "code": "081102",
    "label": "ព្រែកឫស្សី",
    "name_en": "Prek Ruessey",
    "parent_code": "0811"
  },
  {
    "code": "081103",
    "label": "ដើមមៀន",
    "name_en": "Doeum Mien",
    "parent_code": "0811"
  },
  {
    "code": "081104",
    "label": "តាខ្មៅ",
    "name_en": "Ta Khmao",
    "parent_code": "0811"
  },
  {
    "code": "081105",
    "label": "ព្រែកហូរ",
    "name_en": "Prek Ho",
    "parent_code": "0811"
  },
  {
    "code": "081106",
    "label": "កំពង់សំណាញ់",
    "name_en": "Kampong Samnanh",
    "parent_code": "0811"
  },
  {
    "code": "090101",
    "label": "អណ្ដូងទឹក",
    "name_en": "Andoung Tuek",
    "parent_code": "0901"
  },
  {
    "code": "090102",
    "label": "កណ្ដោល",
    "name_en": "Kandaol",
    "parent_code": "0901"
  },
  {
    "code": "090103",
    "label": "តានូន",
    "name_en": "Ta Noun",
    "parent_code": "0901"
  },
  {
    "code": "090104",
    "label": "ថ្មស",
    "name_en": "Thma Sa",
    "parent_code": "0901"
  },
  {
    "code": "090201",
    "label": "កោះស្ដេច",
    "name_en": "Kaoh Sdach",
    "parent_code": "0902"
  },
  {
    "code": "090202",
    "label": "ភ្ញីមាស",
    "name_en": "Phnhi Meas",
    "parent_code": "0902"
  },
  {
    "code": "090203",
    "label": "ព្រែកខ្សាច់",
    "name_en": "Preaek Khsach",
    "parent_code": "0902"
  },
  {
    "code": "090301",
    "label": "ជ្រោយប្រស់",
    "name_en": "Chrouy Pras",
    "parent_code": "0903"
  },
  {
    "code": "090302",
    "label": "កោះកាពិ",
    "name_en": "Kaoh Kapi",
    "parent_code": "0903"
  },
  {
    "code": "090303",
    "label": "តាតៃក្រោម",
    "name_en": "Ta Tai Kraom",
    "parent_code": "0903"
  },
  {
    "code": "090304",
    "label": "ត្រពាំងរូង",
    "name_en": "Trapeang Rung",
    "parent_code": "0903"
  },
  {
    "code": "090401",
    "label": "ស្មាច់មានជ័យ",
    "name_en": "Smach Mean Chey",
    "parent_code": "0904"
  },
  {
    "code": "090402",
    "label": "ដងទង់",
    "name_en": "Dang Tong",
    "parent_code": "0904"
  },
  {
    "code": "090403",
    "label": "ស្ទឹងវែង",
    "name_en": "Stueng Veaeng",
    "parent_code": "0904"
  },
  {
    "code": "090501",
    "label": "ប៉ាក់ខ្លង",
    "name_en": "Pak Khlang",
    "parent_code": "0905"
  },
  {
    "code": "090502",
    "label": "ពាមក្រសោប",
    "name_en": "Peam Krasaob",
    "parent_code": "0905"
  },
  {
    "code": "090503",
    "label": "ទួលគគីរ",
    "name_en": "Tuol Kokir",
    "parent_code": "0905"
  },
  {
    "code": "090601",
    "label": "បឹងព្រាវ",
    "name_en": "Boeng Preav",
    "parent_code": "0906"
  },
  {
    "code": "090602",
    "label": "ជី ខ ក្រោម",
    "name_en": "Chi Kha Kraom",
    "parent_code": "0906"
  },
  {
    "code": "090603",
    "label": "ជី ខ លើ",
    "name_en": "Chi kha Leu",
    "parent_code": "0906"
  },
  {
    "code": "090604",
    "label": "ជ្រោយស្វាយ",
    "name_en": "Chrouy Svay",
    "parent_code": "0906"
  },
  {
    "code": "090605",
    "label": "ដងពែង",
    "name_en": "Dang Peaeng",
    "parent_code": "0906"
  },
  {
    "code": "090606",
    "label": "ស្រែអំបិល",
    "name_en": "Srae Ambel",
    "parent_code": "0906"
  },
  {
    "code": "090701",
    "label": "តាទៃលើ",
    "name_en": "Ta Tey Leu",
    "parent_code": "0907"
  },
  {
    "code": "090702",
    "label": "ប្រឡាយ",
    "name_en": "Pralay",
    "parent_code": "0907"
  },
  {
    "code": "090703",
    "label": "ជំនាប់",
    "name_en": "Chumnoab",
    "parent_code": "0907"
  },
  {
    "code": "090704",
    "label": "ឫស្សីជ្រុំ",
    "name_en": "Ruessei Chrum",
    "parent_code": "0907"
  },
  {
    "code": "090705",
    "label": "ជីផាត",
    "name_en": "Chi Phat",
    "parent_code": "0907"
  },
  {
    "code": "090706",
    "label": "ថ្មដូនពៅ",
    "name_en": "Thma Doun Pov",
    "parent_code": "0907"
  },
  {
    "code": "100101",
    "label": "ឆ្លូង",
    "name_en": "Chhloung",
    "parent_code": "1001"
  },
  {
    "code": "100102",
    "label": "ដំរីផុង",
    "name_en": "Damrei Phong",
    "parent_code": "1001"
  },
  {
    "code": "100103",
    "label": "ហាន់ជ័យ",
    "name_en": "Han Chey",
    "parent_code": "1001"
  },
  {
    "code": "100104",
    "label": "កំពង់ដំរី",
    "name_en": "Kampong Damrei",
    "parent_code": "1001"
  },
  {
    "code": "100105",
    "label": "កញ្ជរ",
    "name_en": "Kanhchor",
    "parent_code": "1001"
  },
  {
    "code": "100106",
    "label": "ខ្សាច់អណ្ដែត",
    "name_en": "Khsach Andeth",
    "parent_code": "1001"
  },
  {
    "code": "100107",
    "label": "ពង្រ",
    "name_en": "Pongro",
    "parent_code": "1001"
  },
  {
    "code": "100108",
    "label": "ព្រែកសាម៉ាន់",
    "name_en": "Preaek Saman",
    "parent_code": "1001"
  },
  {
    "code": "100207",
    "label": "កោះទ្រង់",
    "name_en": "Kaoh Trong",
    "parent_code": "1002"
  },
  {
    "code": "100208",
    "label": "ក្រគរ",
    "name_en": "Krakor",
    "parent_code": "1002"
  },
  {
    "code": "100209",
    "label": "ក្រចេះ",
    "name_en": "Kracheh",
    "parent_code": "1002"
  },
  {
    "code": "100210",
    "label": "អូរឫស្សី",
    "name_en": "Ou Ruessei",
    "parent_code": "1002"
  },
  {
    "code": "100211",
    "label": "រកាកណ្ដាល",
    "name_en": "Roka Kandal",
    "parent_code": "1002"
  },
  {
    "code": "100301",
    "label": "ចំបក់",
    "name_en": "Chambâk",
    "parent_code": "1003"
  },
  {
    "code": "100302",
    "label": "ជ្រោយបន្ទាយ",
    "name_en": "Chrouy Banteay",
    "parent_code": "1003"
  },
  {
    "code": "100303",
    "label": "កំពង់គរ",
    "name_en": "Kampong Kor",
    "parent_code": "1003"
  },
  {
    "code": "100304",
    "label": "កោះតាស៊ុយ",
    "name_en": "Koh Ta Suy",
    "parent_code": "1003"
  },
  {
    "code": "100305",
    "label": "ព្រែកប្រសព្វ",
    "name_en": "Preaek Prasab",
    "parent_code": "1003"
  },
  {
    "code": "100306",
    "label": "ឫស្សីកែវ",
    "name_en": "Russey Keo",
    "parent_code": "1003"
  },
  {
    "code": "100307",
    "label": "សោប",
    "name_en": "Saob",
    "parent_code": "1003"
  },
  {
    "code": "100308",
    "label": "តាម៉ៅ",
    "name_en": "Ta Mao",
    "parent_code": "1003"
  },
  {
    "code": "100401",
    "label": "បឹងចារ",
    "name_en": "Boeng Char",
    "parent_code": "1004"
  },
  {
    "code": "100402",
    "label": "កំពង់ចាម",
    "name_en": "Kampong Cham",
    "parent_code": "1004"
  },
  {
    "code": "100403",
    "label": "ក្បាលដំរី",
    "name_en": "Kbal Damrei",
    "parent_code": "1004"
  },
  {
    "code": "100404",
    "label": "កោះខ្ញែរ",
    "name_en": "Kaoh Khnhaer",
    "parent_code": "1004"
  },
  {
    "code": "100405",
    "label": "អូរគ្រៀង",
    "name_en": "Ou Krieng",
    "parent_code": "1004"
  },
  {
    "code": "100406",
    "label": "រលួសមានជ័យ",
    "name_en": "Roluos Mean Chey",
    "parent_code": "1004"
  },
  {
    "code": "100407",
    "label": "សំបូរ",
    "name_en": "Sambour",
    "parent_code": "1004"
  },
  {
    "code": "100408",
    "label": "សណ្ដាន់",
    "name_en": "Sandan",
    "parent_code": "1004"
  },
  {
    "code": "100409",
    "label": "ស្រែជិះ",
    "name_en": "Srae Chis",
    "parent_code": "1004"
  },
  {
    "code": "100410",
    "label": "វឌ្ឍនៈ",
    "name_en": "Voadthonak",
    "parent_code": "1004"
  },
  {
    "code": "100501",
    "label": "ឃ្សឹម",
    "name_en": "Khsuem",
    "parent_code": "1005"
  },
  {
    "code": "100502",
    "label": "ពីរធ្នូ",
    "name_en": "Pir Thnu",
    "parent_code": "1005"
  },
  {
    "code": "100503",
    "label": "ស្នួល",
    "name_en": "Snuol",
    "parent_code": "1005"
  },
  {
    "code": "100504",
    "label": "ស្រែចារ",
    "name_en": "Srae Char",
    "parent_code": "1005"
  },
  {
    "code": "100505",
    "label": "ស្វាយជ្រះ",
    "name_en": "Svay Chreah",
    "parent_code": "1005"
  },
  {
    "code": "100506",
    "label": "គ្រញូងសែនជ័យ",
    "name_en": "Kronhoung Saen Chey",
    "parent_code": "1005"
  },
  {
    "code": "100601",
    "label": "បុសលាវ",
    "name_en": "Bos Leav",
    "parent_code": "1006"
  },
  {
    "code": "100602",
    "label": "ចង្ក្រង់",
    "name_en": "Changkrang",
    "parent_code": "1006"
  },
  {
    "code": "100603",
    "label": "ដារ",
    "name_en": "Dar",
    "parent_code": "1006"
  },
  {
    "code": "100604",
    "label": "កន្ទួត",
    "name_en": "Kantuot",
    "parent_code": "1006"
  },
  {
    "code": "100605",
    "label": "គោលាប់",
    "name_en": "Kou Loab",
    "parent_code": "1006"
  },
  {
    "code": "100606",
    "label": "កោះច្រែង",
    "name_en": "Kaoh Chraeng",
    "parent_code": "1006"
  },
  {
    "code": "100607",
    "label": "សំបុក",
    "name_en": "Sambok",
    "parent_code": "1006"
  },
  {
    "code": "100608",
    "label": "ថ្មអណ្ដើក",
    "name_en": "Thma Andaeuk",
    "parent_code": "1006"
  },
  {
    "code": "100609",
    "label": "ថ្មគ្រែ",
    "name_en": "Thma Kreae",
    "parent_code": "1006"
  },
  {
    "code": "100610",
    "label": "ថ្មី",
    "name_en": "Thmei",
    "parent_code": "1006"
  },
  {
    "code": "110101",
    "label": "ចុងផ្លាស់",
    "name_en": "Chong Phlah",
    "parent_code": "1101"
  },
  {
    "code": "110102",
    "label": "មេម៉ង់",
    "name_en": "Memang",
    "parent_code": "1101"
  },
  {
    "code": "110103",
    "label": "ស្រែឈូក",
    "name_en": "Srae Chhuk",
    "parent_code": "1101"
  },
  {
    "code": "110104",
    "label": "ស្រែខ្ទុម",
    "name_en": "Srae Khtum",
    "parent_code": "1101"
  },
  {
    "code": "110105",
    "label": "ស្រែព្រះ",
    "name_en": "Srae Preah",
    "parent_code": "1101"
  },
  {
    "code": "110201",
    "label": "ណងឃីលិក",
    "name_en": "Nang Khi Lik",
    "parent_code": "1102"
  },
  {
    "code": "110202",
    "label": "អ បួនលើ",
    "name_en": "A Buon Leu",
    "parent_code": "1102"
  },
  {
    "code": "110203",
    "label": "រយ៉",
    "name_en": "Roya",
    "parent_code": "1102"
  },
  {
    "code": "110204",
    "label": "សុខសាន្ដ",
    "name_en": "Sokh Sant",
    "parent_code": "1102"
  },
  {
    "code": "110205",
    "label": "ស្រែហ៊ុយ",
    "name_en": "Srae Huy",
    "parent_code": "1102"
  },
  {
    "code": "110206",
    "label": "ស្រែសង្គម",
    "name_en": "Srae Sangkum",
    "parent_code": "1102"
  },
  {
    "code": "110301",
    "label": "ដាក់ដាំ",
    "name_en": "Dak Dam",
    "parent_code": "1103"
  },
  {
    "code": "110302",
    "label": "សែនមនោរម្យ",
    "name_en": "Saen Monourom",
    "parent_code": "1103"
  },
  {
    "code": "110401",
    "label": "ក្រង់តេះ",
    "name_en": "Krang Teh",
    "parent_code": "1104"
  },
  {
    "code": "110402",
    "label": "ពូជ្រៃ",
    "name_en": "Pu Chrey",
    "parent_code": "1104"
  },
  {
    "code": "110403",
    "label": "ស្រែអំពូម",
    "name_en": "Srae Ampum",
    "parent_code": "1104"
  },
  {
    "code": "110404",
    "label": "ប៊ូស្រា",
    "name_en": "Bu Sra",
    "parent_code": "1104"
  },
  {
    "code": "110501",
    "label": "មនោរម្យ",
    "name_en": "Monourom",
    "parent_code": "1105"
  },
  {
    "code": "110502",
    "label": "សុខដុម",
    "name_en": "Sokh Dom",
    "parent_code": "1105"
  },
  {
    "code": "110503",
    "label": "ស្ពានមានជ័យ",
    "name_en": "Spean Mean Chey",
    "parent_code": "1105"
  },
  {
    "code": "110504",
    "label": "រមនា",
    "name_en": "Romonea",
    "parent_code": "1105"
  },
  {
    "code": "120101",
    "label": "ទន្លេបាសាក់",
    "name_en": "Tonle Basak",
    "parent_code": "1201"
  },
  {
    "code": "120102",
    "label": "បឹងកេងកងទី ១",
    "name_en": "Boeng Keng Kang Ti Muoy",
    "parent_code": "1201"
  },
  {
    "code": "120103",
    "label": "បឹងកេងកងទី ២",
    "name_en": "Boeng Keng Kang Ti Pir",
    "parent_code": "1201"
  },
  {
    "code": "120104",
    "label": "បឹងកេងកងទី ៣",
    "name_en": "Boeng Keng Kang Ti Bei",
    "parent_code": "1201"
  },
  {
    "code": "120105",
    "label": "អូឡាំពិក",
    "name_en": "Olympic",
    "parent_code": "1201"
  },
  {
    "code": "120106",
    "label": "ទួលស្វាយព្រៃទី ១",
    "name_en": "Tuol Svay Prey Ti Muoy",
    "parent_code": "1201"
  },
  {
    "code": "120108",
    "label": "ទំនប់ទឹក",
    "name_en": "Tumnob Tuek",
    "parent_code": "1201"
  },
  {
    "code": "120109",
    "label": "ទួលទំពូងទី ២",
    "name_en": "Tuol Tumpung Ti Pir",
    "parent_code": "1201"
  },
  {
    "code": "120110",
    "label": "ទួលទំពូងទី ១",
    "name_en": "Tuol Tumpung Ti Muoy",
    "parent_code": "1201"
  },
  {
    "code": "120111",
    "label": "បឹងត្របែក",
    "name_en": "Boeng Trabaek",
    "parent_code": "1201"
  },
  {
    "code": "120112",
    "label": "ផ្សារដើមថ្កូវ",
    "name_en": "Phsar Daeum Thkov",
    "parent_code": "1201"
  },
  {
    "code": "120201",
    "label": "ផ្សារថ្មីទី ១",
    "name_en": "Phsar Thmei Ti Muoy",
    "parent_code": "1202"
  },
  {
    "code": "120202",
    "label": "ផ្សារថ្មីទី ២",
    "name_en": "Phsar Thmei Ti Pir",
    "parent_code": "1202"
  },
  {
    "code": "120203",
    "label": "ផ្សារថ្មីទី ៣",
    "name_en": "Phsar Thmei Ti Bei",
    "parent_code": "1202"
  },
  {
    "code": "120204",
    "label": "បឹងរាំង",
    "name_en": "Boeng Reang",
    "parent_code": "1202"
  },
  {
    "code": "120205",
    "label": "ផ្សារកណ្ដាលទី១",
    "name_en": "Phsar Kandal Ti Muoy",
    "parent_code": "1202"
  },
  {
    "code": "120206",
    "label": "ផ្សារកណ្ដាលទី២",
    "name_en": "Phsar Kandal Ti Pir",
    "parent_code": "1202"
  },
  {
    "code": "120207",
    "label": "ចតុមុខ",
    "name_en": "Chakto Mukh",
    "parent_code": "1202"
  },
  {
    "code": "120208",
    "label": "ជ័យជំនះ",
    "name_en": "Chey Chummeah",
    "parent_code": "1202"
  },
  {
    "code": "120209",
    "label": "ផ្សារចាស់",
    "name_en": "Phsar Chas",
    "parent_code": "1202"
  },
  {
    "code": "120210",
    "label": "ស្រះចក",
    "name_en": "Srah Chak",
    "parent_code": "1202"
  },
  {
    "code": "120211",
    "label": "វត្ដភ្នំ",
    "name_en": "Voat Phnum",
    "parent_code": "1202"
  },
  {
    "code": "120301",
    "label": "អូរឫស្សីទី ១",
    "name_en": "Ou Ruessei Ti Muoy",
    "parent_code": "1203"
  },
  {
    "code": "120302",
    "label": "អូរឫស្សីទី ២",
    "name_en": "Ou Ruessei Ti Pir",
    "parent_code": "1203"
  },
  {
    "code": "120303",
    "label": "អូរឫស្សីទី ៣",
    "name_en": "Ou Ruessei Ti Bei",
    "parent_code": "1203"
  },
  {
    "code": "120304",
    "label": "អូរឫស្សីទី ៤",
    "name_en": "Ou Ruessei Ti Buon",
    "parent_code": "1203"
  },
  {
    "code": "120305",
    "label": "មនោរម្យ",
    "name_en": "Monourom",
    "parent_code": "1203"
  },
  {
    "code": "120306",
    "label": "មិត្ដភាព",
    "name_en": "Mittapheap",
    "parent_code": "1203"
  },
  {
    "code": "120307",
    "label": "វាលវង់",
    "name_en": "Veal Vong",
    "parent_code": "1203"
  },
  {
    "code": "120308",
    "label": "បឹងព្រលឹត",
    "name_en": "Boeng Proluet",
    "parent_code": "1203"
  },
  {
    "code": "120401",
    "label": "ផ្សារដេប៉ូទី ១",
    "name_en": "Phsar Depou Ti Muoy",
    "parent_code": "1204"
  },
  {
    "code": "120402",
    "label": "ផ្សារដេប៉ូទី ២",
    "name_en": "Phsar Depou Ti Pir",
    "parent_code": "1204"
  },
  {
    "code": "120403",
    "label": "ផ្សារដេប៉ូទី ៣",
    "name_en": "Phsar Depou Ti Bei",
    "parent_code": "1204"
  },
  {
    "code": "120404",
    "label": "ទឹកល្អក់ទី ១",
    "name_en": "Tuek L'ak Ti Muoy",
    "parent_code": "1204"
  },
  {
    "code": "120405",
    "label": "ទឹកល្អក់ទី ២",
    "name_en": "Tuek L'ak Ti Pir",
    "parent_code": "1204"
  },
  {
    "code": "120406",
    "label": "ទឹកល្អក់ទី ៣",
    "name_en": "Tuek L'ak Ti Bei",
    "parent_code": "1204"
  },
  {
    "code": "120407",
    "label": "បឹងកក់ទី ១",
    "name_en": "Boeng Kak Ti Muoy",
    "parent_code": "1204"
  },
  {
    "code": "120408",
    "label": "បឹងកក់ទី ២",
    "name_en": "Boeng Kak Ti Pir",
    "parent_code": "1204"
  },
  {
    "code": "120409",
    "label": "ផ្សារដើមគរ",
    "name_en": "Phsar Daeum Kor",
    "parent_code": "1204"
  },
  {
    "code": "120410",
    "label": "បឹងសាឡាង",
    "name_en": "Boeng Salang",
    "parent_code": "1204"
  },
  {
    "code": "120501",
    "label": "ដង្កោ",
    "name_en": "Dangkao",
    "parent_code": "1205"
  },
  {
    "code": "120507",
    "label": "ពងទឹក",
    "name_en": "Pong Tuek",
    "parent_code": "1205"
  },
  {
    "code": "120508",
    "label": "ព្រៃវែង",
    "name_en": "Prey Veaeng",
    "parent_code": "1205"
  },
  {
    "code": "120510",
    "label": "ព្រៃស",
    "name_en": "Prey Sa",
    "parent_code": "1205"
  },
  {
    "code": "120512",
    "label": "ក្រាំងពង្រ",
    "name_en": "Krang Pongro",
    "parent_code": "1205"
  },
  {
    "code": "120513",
    "label": "ប្រទះឡាង",
    "name_en": "Prateah Lang",
    "parent_code": "1205"
  },
  {
    "code": "120514",
    "label": "សាក់សំពៅ",
    "name_en": "Sak Sampov",
    "parent_code": "1205"
  },
  {
    "code": "120515",
    "label": "ជើងឯក",
    "name_en": "Cheung Aek",
    "parent_code": "1205"
  },
  {
    "code": "120516",
    "label": "គងនយ",
    "name_en": "Kong Noy",
    "parent_code": "1205"
  },
  {
    "code": "120517",
    "label": "ព្រែកកំពឹស",
    "name_en": "Preaek Kampues",
    "parent_code": "1205"
  },
  {
    "code": "120518",
    "label": "រលួស",
    "name_en": "Roluos",
    "parent_code": "1205"
  },
  {
    "code": "120519",
    "label": "ស្ពានថ្ម",
    "name_en": "Spean Thma",
    "parent_code": "1205"
  },
  {
    "code": "120520",
    "label": "ទៀន",
    "name_en": "Tien",
    "parent_code": "1205"
  },
  {
    "code": "120606",
    "label": "ចាក់អង្រែលើ",
    "name_en": "Chak Angrae Leu",
    "parent_code": "1206"
  },
  {
    "code": "120607",
    "label": "ចាក់អង្រែក្រោម",
    "name_en": "Chak Angrae Kraom",
    "parent_code": "1206"
  },
  {
    "code": "120608",
    "label": "ស្ទឹងមានជ័យទី១",
    "name_en": "Stueng Mean chey 1",
    "parent_code": "1206"
  },
  {
    "code": "120609",
    "label": "ស្ទឹងមានជ័យទី២",
    "name_en": "Stueng Mean chey 2",
    "parent_code": "1206"
  },
  {
    "code": "120610",
    "label": "ស្ទឹងមានជ័យទី៣",
    "name_en": "Stueng Mean chey 3",
    "parent_code": "1206"
  },
  {
    "code": "120611",
    "label": "បឹងទំពុនទី១",
    "name_en": "Boeng Tumpun 1",
    "parent_code": "1206"
  },
  {
    "code": "120612",
    "label": "បឹងទំពុនទី២",
    "name_en": "Boeng Tumpun 2",
    "parent_code": "1206"
  },
  {
    "code": "120703",
    "label": "ស្វាយប៉ាក",
    "name_en": "Svay Pak",
    "parent_code": "1207"
  },
  {
    "code": "120704",
    "label": "គីឡូម៉ែត្រលេខ៦",
    "name_en": "Kilomaetr Lekh Prammuoy",
    "parent_code": "1207"
  },
  {
    "code": "120706",
    "label": "ឫស្សីកែវ",
    "name_en": "Ruessei Kaev",
    "parent_code": "1207"
  },
  {
    "code": "120711",
    "label": "ច្រាំងចំរេះទី ១",
    "name_en": "Chrang Chamreh Ti Muoy",
    "parent_code": "1207"
  },
  {
    "code": "120712",
    "label": "ច្រាំងចំរេះទី ២",
    "name_en": "Chrang Chamreh Ti Pir",
    "parent_code": "1207"
  },
  {
    "code": "120713",
    "label": "ទួលសង្កែទី១",
    "name_en": "Tuol Sangkae 1",
    "parent_code": "1207"
  },
  {
    "code": "120714",
    "label": "ទួលសង្កែទី២",
    "name_en": "Tuol Sangkae 2",
    "parent_code": "1207"
  },
  {
    "code": "120801",
    "label": "ភ្នំពេញថ្មី",
    "name_en": "Phnom Penh Thmei",
    "parent_code": "1208"
  },
  {
    "code": "120803",
    "label": "ឃ្មួញ",
    "name_en": "Khmuonh",
    "parent_code": "1208"
  },
  {
    "code": "120807",
    "label": "ក្រាំងធ្នង់",
    "name_en": "Krang Thnong",
    "parent_code": "1208"
  },
  {
    "code": "120808",
    "label": "អូរបែកក្អម",
    "name_en": "Ou Baek K'am",
    "parent_code": "1208"
  },
  {
    "code": "120809",
    "label": "គោកឃ្លាង",
    "name_en": "Kouk Khleang",
    "parent_code": "1208"
  },
  {
    "code": "120901",
    "label": "ត្រពាំងក្រសាំង",
    "name_en": "Trapeang Krasang",
    "parent_code": "1209"
  },
  {
    "code": "120903",
    "label": "ភ្លើងឆេះរទេះ",
    "name_en": "Phleung Chheh Roteh",
    "parent_code": "1209"
  },
  {
    "code": "120906",
    "label": "សំរោងក្រោម",
    "name_en": "Samraong Kraom",
    "parent_code": "1209"
  },
  {
    "code": "120908",
    "label": "បឹងធំ",
    "name_en": "Boeng Thum",
    "parent_code": "1209"
  },
  {
    "code": "120909",
    "label": "កំបូល",
    "name_en": "Kamboul",
    "parent_code": "1209"
  },
  {
    "code": "120910",
    "label": "កន្ទោក",
    "name_en": "Kantaok",
    "parent_code": "1209"
  },
  {
    "code": "120911",
    "label": "ឪឡោក",
    "name_en": "Ovlaok",
    "parent_code": "1209"
  },
  {
    "code": "120913",
    "label": "ស្នោរ",
    "name_en": "Snaor",
    "parent_code": "1209"
  },
  {
    "code": "120914",
    "label": "ចោមចៅទី១",
    "name_en": "Chaom Chau 1",
    "parent_code": "1209"
  },
  {
    "code": "120915",
    "label": "ចោមចៅទី២",
    "name_en": "Chaom Chau 2",
    "parent_code": "1209"
  },
  {
    "code": "120916",
    "label": "ចោមចៅទី៣",
    "name_en": "Chaom Chau 3",
    "parent_code": "1209"
  },
  {
    "code": "120917",
    "label": "កាកាបទី១",
    "name_en": "Kakab 1",
    "parent_code": "1209"
  },
  {
    "code": "120918",
    "label": "កាកាបទី២",
    "name_en": "Kakab 2",
    "parent_code": "1209"
  },
  {
    "code": "121001",
    "label": "ជ្រោយចង្វារ",
    "name_en": "Chrouy Changvar",
    "parent_code": "1210"
  },
  {
    "code": "121002",
    "label": "ព្រែកលៀប",
    "name_en": "Preaek Lieb",
    "parent_code": "1210"
  },
  {
    "code": "121003",
    "label": "ព្រែកតាសេក",
    "name_en": "Preaek Ta Sek",
    "parent_code": "1210"
  },
  {
    "code": "121004",
    "label": "កោះដាច់",
    "name_en": "Kaoh Dach",
    "parent_code": "1210"
  },
  {
    "code": "121005",
    "label": "បាក់ខែង",
    "name_en": "Bak Kaeng",
    "parent_code": "1210"
  },
  {
    "code": "121101",
    "label": "ព្រែកព្នៅ",
    "name_en": "Preaek Phnov",
    "parent_code": "1211"
  },
  {
    "code": "121102",
    "label": "ពញាពន់",
    "name_en": "Ponhea Pon",
    "parent_code": "1211"
  },
  {
    "code": "121103",
    "label": "សំរោង",
    "name_en": "Samraong",
    "parent_code": "1211"
  },
  {
    "code": "121104",
    "label": "គោករកា",
    "name_en": "Kouk Roka",
    "parent_code": "1211"
  },
  {
    "code": "121105",
    "label": "ពន្សាំង",
    "name_en": "Ponsang",
    "parent_code": "1211"
  },
  {
    "code": "121201",
    "label": "ច្បារអំពៅទី ១",
    "name_en": "Chhbar Ampov Ti Muoy",
    "parent_code": "1212"
  },
  {
    "code": "121202",
    "label": "ច្បារអំពៅទី ២",
    "name_en": "Chbar Ampov Ti Pir",
    "parent_code": "1212"
  },
  {
    "code": "121203",
    "label": "និរោធ",
    "name_en": "Nirouth",
    "parent_code": "1212"
  },
  {
    "code": "121204",
    "label": "ព្រែកប្រា",
    "name_en": "Preaek Pra",
    "parent_code": "1212"
  },
  {
    "code": "121205",
    "label": "វាលស្បូវ",
    "name_en": "Veal Sbov",
    "parent_code": "1212"
  },
  {
    "code": "121206",
    "label": "ព្រែកឯង",
    "name_en": "Preaek Aeng",
    "parent_code": "1212"
  },
  {
    "code": "121207",
    "label": "ក្បាលកោះ",
    "name_en": "Kbal Kaoh",
    "parent_code": "1212"
  },
  {
    "code": "121208",
    "label": "ព្រែកថ្មី",
    "name_en": "Preaek Thmei",
    "parent_code": "1212"
  },
  {
    "code": "130101",
    "label": "ស្អាង",
    "name_en": "S'ang",
    "parent_code": "1301"
  },
  {
    "code": "130102",
    "label": "តស៊ូ",
    "name_en": "Tasu",
    "parent_code": "1301"
  },
  {
    "code": "130103",
    "label": "ខ្យង",
    "name_en": "Khyang",
    "parent_code": "1301"
  },
  {
    "code": "130104",
    "label": "ច្រាច់",
    "name_en": "Chrach",
    "parent_code": "1301"
  },
  {
    "code": "130105",
    "label": "ធ្មា",
    "name_en": "Thmea",
    "parent_code": "1301"
  },
  {
    "code": "130106",
    "label": "ពុទ្រា",
    "name_en": "Putrea",
    "parent_code": "1301"
  },
  {
    "code": "130201",
    "label": "ឆែបមួយ",
    "name_en": "Chhaeb Muoy",
    "parent_code": "1302"
  },
  {
    "code": "130202",
    "label": "ឆែបពីរ",
    "name_en": "Chhaeb Pir",
    "parent_code": "1302"
  },
  {
    "code": "130203",
    "label": "សង្កែមួយ",
    "name_en": "Sangkae Muoy",
    "parent_code": "1302"
  },
  {
    "code": "130204",
    "label": "សង្កែពីរ",
    "name_en": "Sangkae Pir",
    "parent_code": "1302"
  },
  {
    "code": "130205",
    "label": "ម្លូព្រៃមួយ",
    "name_en": "Mlu Prey Muoy",
    "parent_code": "1302"
  },
  {
    "code": "130207",
    "label": "កំពង់ស្រឡៅមួយ",
    "name_en": "Kampong Sralau Muoy",
    "parent_code": "1302"
  },
  {
    "code": "130208",
    "label": "កំពង់ស្រឡៅពីរ",
    "name_en": "Kampong Sralau Pir",
    "parent_code": "1302"
  },
  {
    "code": "130301",
    "label": "ជាំក្សាន្ដ",
    "name_en": "Choam Ksant",
    "parent_code": "1303"
  },
  {
    "code": "130302",
    "label": "ទឹកក្រហម",
    "name_en": "Tuek Kraham",
    "parent_code": "1303"
  },
  {
    "code": "130303",
    "label": "ព្រីងធំ",
    "name_en": "Pring Thum",
    "parent_code": "1303"
  },
  {
    "code": "130304",
    "label": "រំដោះស្រែ",
    "name_en": "Rumdaoh Srae",
    "parent_code": "1303"
  },
  {
    "code": "130305",
    "label": "យាង",
    "name_en": "Yeang",
    "parent_code": "1303"
  },
  {
    "code": "130306",
    "label": "កន្ទួត",
    "name_en": "Kantuot",
    "parent_code": "1303"
  },
  {
    "code": "130307",
    "label": "ស្រអែម",
    "name_en": "Sror Aem",
    "parent_code": "1303"
  },
  {
    "code": "130308",
    "label": "មរកត",
    "name_en": "Morokot",
    "parent_code": "1303"
  },
  {
    "code": "130401",
    "label": "គូលែនត្បូង",
    "name_en": "Kuleaen Tboung",
    "parent_code": "1304"
  },
  {
    "code": "130402",
    "label": "គូលែនជើង",
    "name_en": "Kuleaen Cheung",
    "parent_code": "1304"
  },
  {
    "code": "130403",
    "label": "ថ្មី",
    "name_en": "Thmei",
    "parent_code": "1304"
  },
  {
    "code": "130404",
    "label": "ភ្នំពេញ",
    "name_en": "Phnum Penh",
    "parent_code": "1304"
  },
  {
    "code": "130405",
    "label": "ភ្នំត្បែងពីរ",
    "name_en": "Phnum Tbaeng Pir",
    "parent_code": "1304"
  },
  {
    "code": "130406",
    "label": "ស្រយង់",
    "name_en": "Srayang",
    "parent_code": "1304"
  },
  {
    "code": "130501",
    "label": "របៀប",
    "name_en": "Robieb",
    "parent_code": "1305"
  },
  {
    "code": "130502",
    "label": "រស្មី",
    "name_en": "Reaksmei",
    "parent_code": "1305"
  },
  {
    "code": "130503",
    "label": "រហ័ស",
    "name_en": "Rohas",
    "parent_code": "1305"
  },
  {
    "code": "130504",
    "label": "រុងរឿង",
    "name_en": "Rung Roeang",
    "parent_code": "1305"
  },
  {
    "code": "130505",
    "label": "រីករាយ",
    "name_en": "Rik Reay",
    "parent_code": "1305"
  },
  {
    "code": "130506",
    "label": "រួសរាន់",
    "name_en": "Ruos Roan",
    "parent_code": "1305"
  },
  {
    "code": "130507",
    "label": "រតនៈ",
    "name_en": "Rotanak",
    "parent_code": "1305"
  },
  {
    "code": "130508",
    "label": "រៀបរយ",
    "name_en": "Rieb Roy",
    "parent_code": "1305"
  },
  {
    "code": "130509",
    "label": "រក្សា",
    "name_en": "Reaksa",
    "parent_code": "1305"
  },
  {
    "code": "130510",
    "label": "រំដោះ",
    "name_en": "Rumdaoh",
    "parent_code": "1305"
  },
  {
    "code": "130511",
    "label": "រមទម",
    "name_en": "Romtum",
    "parent_code": "1305"
  },
  {
    "code": "130512",
    "label": "រមណីយ",
    "name_en": "Romoneiy",
    "parent_code": "1305"
  },
  {
    "code": "130601",
    "label": "ចំរើន",
    "name_en": "Chamraeun",
    "parent_code": "1306"
  },
  {
    "code": "130602",
    "label": "រអាង",
    "name_en": "Ro'ang",
    "parent_code": "1306"
  },
  {
    "code": "130603",
    "label": "ភ្នំត្បែងមួយ",
    "name_en": "Phnum Tbaeng Muoy",
    "parent_code": "1306"
  },
  {
    "code": "130604",
    "label": "ស្ដៅ",
    "name_en": "Sdau",
    "parent_code": "1306"
  },
  {
    "code": "130605",
    "label": "រណសិរ្ស",
    "name_en": "Ronak Ser",
    "parent_code": "1306"
  },
  {
    "code": "130703",
    "label": "ឈានមុខ",
    "name_en": "Chhean Mukh",
    "parent_code": "1307"
  },
  {
    "code": "130704",
    "label": "ពោធិ៍",
    "name_en": "Pou",
    "parent_code": "1307"
  },
  {
    "code": "130705",
    "label": "ប្រមេរុ",
    "name_en": "Prame",
    "parent_code": "1307"
  },
  {
    "code": "130706",
    "label": "ព្រះឃ្លាំង",
    "name_en": "Preah Khleang",
    "parent_code": "1307"
  },
  {
    "code": "130801",
    "label": "កំពង់ប្រណាក",
    "name_en": "Kampong Pranak",
    "parent_code": "1308"
  },
  {
    "code": "130802",
    "label": "ប៉ាលហាល",
    "name_en": "Pal Hal",
    "parent_code": "1308"
  },
  {
    "code": "140101",
    "label": "បឹងព្រះ",
    "name_en": "Boeng Preah",
    "parent_code": "1401"
  },
  {
    "code": "140102",
    "label": "ជើងភ្នំ",
    "name_en": "Cheung Phnum",
    "parent_code": "1401"
  },
  {
    "code": "140103",
    "label": "ឈើកាច់",
    "name_en": "Chheu Kach",
    "parent_code": "1401"
  },
  {
    "code": "140104",
    "label": "រក្សជ័យ",
    "name_en": "Reaks Chey",
    "parent_code": "1401"
  },
  {
    "code": "140105",
    "label": "រោងដំរី",
    "name_en": "Roung Damrei",
    "parent_code": "1401"
  },
  {
    "code": "140106",
    "label": "ស្ដៅកោង",
    "name_en": "Sdau Kaong",
    "parent_code": "1401"
  },
  {
    "code": "140107",
    "label": "ស្ពឺ  ក",
    "name_en": "Spueu Ka",
    "parent_code": "1401"
  },
  {
    "code": "140108",
    "label": "ស្ពឺ  ខ",
    "name_en": "Spueu Kha",
    "parent_code": "1401"
  },
  {
    "code": "140109",
    "label": "ធាយ",
    "name_en": "Theay",
    "parent_code": "1401"
  },
  {
    "code": "140201",
    "label": "ជាច",
    "name_en": "Cheach",
    "parent_code": "1402"
  },
  {
    "code": "140202",
    "label": "ដូនកឹង",
    "name_en": "Doun Koeng",
    "parent_code": "1402"
  },
  {
    "code": "140203",
    "label": "ក្រញូង",
    "name_en": "Kranhung",
    "parent_code": "1402"
  },
  {
    "code": "140204",
    "label": "ក្របៅ",
    "name_en": "Krabau",
    "parent_code": "1402"
  },
  {
    "code": "140205",
    "label": "ស៊ាងឃ្វាង",
    "name_en": "Seang Khveang",
    "parent_code": "1402"
  },
  {
    "code": "140206",
    "label": "ស្មោងខាងជើង",
    "name_en": "Smaong Khang Cheung",
    "parent_code": "1402"
  },
  {
    "code": "140207",
    "label": "ស្មោងខាងត្បូង",
    "name_en": "Smaong Khang Tboung",
    "parent_code": "1402"
  },
  {
    "code": "140208",
    "label": "ត្របែក",
    "name_en": "Trabaek",
    "parent_code": "1402"
  },
  {
    "code": "140301",
    "label": "អន្សោង",
    "name_en": "Ansaong",
    "parent_code": "1403"
  },
  {
    "code": "140302",
    "label": "ចាម",
    "name_en": "Cham",
    "parent_code": "1403"
  },
  {
    "code": "140303",
    "label": "ជាងដែក",
    "name_en": "Cheang Daek",
    "parent_code": "1403"
  },
  {
    "code": "140304",
    "label": "ជ្រៃ",
    "name_en": "Chrey",
    "parent_code": "1403"
  },
  {
    "code": "140305",
    "label": "កន្សោមអក",
    "name_en": "Kansoam Ak",
    "parent_code": "1403"
  },
  {
    "code": "140306",
    "label": "គោខ្ចក",
    "name_en": "Kou Khchak",
    "parent_code": "1403"
  },
  {
    "code": "140307",
    "label": "កំពង់ត្របែក",
    "name_en": "Kampong Trabaek",
    "parent_code": "1403"
  },
  {
    "code": "140308",
    "label": "ពាមមន្ទារ",
    "name_en": "Peam Montear",
    "parent_code": "1403"
  },
  {
    "code": "140309",
    "label": "ប្រាសាទ",
    "name_en": "Prasat",
    "parent_code": "1403"
  },
  {
    "code": "140310",
    "label": "ប្រធាតុ",
    "name_en": "Pratheat",
    "parent_code": "1403"
  },
  {
    "code": "140311",
    "label": "ព្រៃឈរ",
    "name_en": "Prey Chhor",
    "parent_code": "1403"
  },
  {
    "code": "140312",
    "label": "ព្រៃពោន",
    "name_en": "Prey Poun",
    "parent_code": "1403"
  },
  {
    "code": "140313",
    "label": "ថ្កូវ",
    "name_en": "Thkov",
    "parent_code": "1403"
  },
  {
    "code": "140401",
    "label": "ចុងអំពិល",
    "name_en": "Chong Ampil",
    "parent_code": "1404"
  },
  {
    "code": "140402",
    "label": "កញ្ជ្រៀច",
    "name_en": "Kanhchriech",
    "parent_code": "1404"
  },
  {
    "code": "140403",
    "label": "ក្ដឿងរាយ",
    "name_en": "Kdoeang Reay",
    "parent_code": "1404"
  },
  {
    "code": "140404",
    "label": "គោកគង់កើត",
    "name_en": "Kouk Kong Kaeut",
    "parent_code": "1404"
  },
  {
    "code": "140405",
    "label": "គោកគង់លិច",
    "name_en": "Kouk Kong Lech",
    "parent_code": "1404"
  },
  {
    "code": "140406",
    "label": "ព្រាល",
    "name_en": "Preal",
    "parent_code": "1404"
  },
  {
    "code": "140407",
    "label": "ថ្មពូន",
    "name_en": "Thma Pun",
    "parent_code": "1404"
  },
  {
    "code": "140408",
    "label": "ត្នោត",
    "name_en": "Tnaot",
    "parent_code": "1404"
  },
  {
    "code": "140501",
    "label": "អង្គរសរ",
    "name_en": "Angkor Sar",
    "parent_code": "1405"
  },
  {
    "code": "140502",
    "label": "ច្រេស",
    "name_en": "Chres",
    "parent_code": "1405"
  },
  {
    "code": "140503",
    "label": "ជីផុច",
    "name_en": "Chi Phoch",
    "parent_code": "1405"
  },
  {
    "code": "140504",
    "label": "ព្រៃឃ្នេស",
    "name_en": "Prey Khnes",
    "parent_code": "1405"
  },
  {
    "code": "140505",
    "label": "ព្រៃរំដេង",
    "name_en": "Prey Rumdeng",
    "parent_code": "1405"
  },
  {
    "code": "140506",
    "label": "ព្រៃទទឹង",
    "name_en": "Prey Totueng",
    "parent_code": "1405"
  },
  {
    "code": "140507",
    "label": "ស្វាយជ្រុំ",
    "name_en": "Svay Chrum",
    "parent_code": "1405"
  },
  {
    "code": "140508",
    "label": "ត្រពាំងស្រែ",
    "name_en": "Trapeang Srae",
    "parent_code": "1405"
  },
  {
    "code": "140601",
    "label": "អង្គរអង្គ",
    "name_en": "Angkor Angk",
    "parent_code": "1406"
  },
  {
    "code": "140602",
    "label": "កំពង់ប្រាសាទ",
    "name_en": "Kampong Prasat",
    "parent_code": "1406"
  },
  {
    "code": "140603",
    "label": "កោះចេក",
    "name_en": "Kaoh Chek",
    "parent_code": "1406"
  },
  {
    "code": "140604",
    "label": "កោះរកា",
    "name_en": "Kaoh Roka",
    "parent_code": "1406"
  },
  {
    "code": "140605",
    "label": "កោះសំពៅ",
    "name_en": "Kaoh Sampov",
    "parent_code": "1406"
  },
  {
    "code": "140606",
    "label": "ក្រាំងតាយ៉ង",
    "name_en": "Krang Ta Yang",
    "parent_code": "1406"
  },
  {
    "code": "140607",
    "label": "ព្រែកក្របៅ",
    "name_en": "Preaek Krabau",
    "parent_code": "1406"
  },
  {
    "code": "140608",
    "label": "ព្រែកសំបួរ",
    "name_en": "Preaek Sambuor",
    "parent_code": "1406"
  },
  {
    "code": "140609",
    "label": "ឫស្សីស្រុក",
    "name_en": "Ruessei Srok",
    "parent_code": "1406"
  },
  {
    "code": "140610",
    "label": "ស្វាយភ្លោះ",
    "name_en": "Svay Phluoh",
    "parent_code": "1406"
  },
  {
    "code": "140701",
    "label": "បាបោង",
    "name_en": "Ba Baong",
    "parent_code": "1407"
  },
  {
    "code": "140702",
    "label": "បន្លិចប្រាសាទ",
    "name_en": "Banlich Prasat",
    "parent_code": "1407"
  },
  {
    "code": "140703",
    "label": "អ្នកលឿង",
    "name_en": "Neak Loeang",
    "parent_code": "1407"
  },
  {
    "code": "140704",
    "label": "ពាមមានជ័យ",
    "name_en": "Peam Mean Chey",
    "parent_code": "1407"
  },
  {
    "code": "140705",
    "label": "ពាមរក៍",
    "name_en": "Peam Ro",
    "parent_code": "1407"
  },
  {
    "code": "140706",
    "label": "ព្រែកខ្សាយ ក",
    "name_en": "Preaek Khsay Ka",
    "parent_code": "1407"
  },
  {
    "code": "140707",
    "label": "ព្រែកខ្សាយ ខ",
    "name_en": "Preaek Khsay Kha",
    "parent_code": "1407"
  },
  {
    "code": "140708",
    "label": "ព្រៃកណ្ដៀង",
    "name_en": "Prey Kandieng",
    "parent_code": "1407"
  },
  {
    "code": "140801",
    "label": "កំពង់ពពិល",
    "name_en": "Kampong Popil",
    "parent_code": "1408"
  },
  {
    "code": "140803",
    "label": "កំពង់ប្រាំង",
    "name_en": "Kampong Prang",
    "parent_code": "1408"
  },
  {
    "code": "140805",
    "label": "មេសរប្រចាន់",
    "name_en": "Mesar Prachan",
    "parent_code": "1408"
  },
  {
    "code": "140807",
    "label": "ព្រៃព្នៅ",
    "name_en": "Prey Pnov",
    "parent_code": "1408"
  },
  {
    "code": "140808",
    "label": "ព្រៃស្នៀត",
    "name_en": "Prey Sniet",
    "parent_code": "1408"
  },
  {
    "code": "140809",
    "label": "ព្រៃស្រឡិត",
    "name_en": "Prey Sralet",
    "parent_code": "1408"
  },
  {
    "code": "140810",
    "label": "រាប",
    "name_en": "Reab",
    "parent_code": "1408"
  },
  {
    "code": "140811",
    "label": "រកា",
    "name_en": "Roka",
    "parent_code": "1408"
  },
  {
    "code": "140901",
    "label": "អង្គររាជ្យ",
    "name_en": "Angkor Reach",
    "parent_code": "1409"
  },
  {
    "code": "140902",
    "label": "បន្ទាយចក្រី",
    "name_en": "Banteay Chakrei",
    "parent_code": "1409"
  },
  {
    "code": "140903",
    "label": "បឹងដោល",
    "name_en": "Boeng Daol",
    "parent_code": "1409"
  },
  {
    "code": "140904",
    "label": "ជៃកំពក",
    "name_en": "Chey Kampok",
    "parent_code": "1409"
  },
  {
    "code": "140905",
    "label": "កំពង់សឹង",
    "name_en": "Kampong Soeng",
    "parent_code": "1409"
  },
  {
    "code": "140906",
    "label": "ក្រាំងស្វាយ",
    "name_en": "Krang Svay",
    "parent_code": "1409"
  },
  {
    "code": "140907",
    "label": "ល្វា",
    "name_en": "Lvea",
    "parent_code": "1409"
  },
  {
    "code": "140908",
    "label": "ព្រះស្ដេច",
    "name_en": "Preah Sdach",
    "parent_code": "1409"
  },
  {
    "code": "140909",
    "label": "រាធរ",
    "name_en": "Reathor",
    "parent_code": "1409"
  },
  {
    "code": "140910",
    "label": "រំចេក",
    "name_en": "Rumchek",
    "parent_code": "1409"
  },
  {
    "code": "140911",
    "label": "សេនារាជឧត្ដម",
    "name_en": "Sena Reach Otdam",
    "parent_code": "1409"
  },
  {
    "code": "141001",
    "label": "បារាយណ៍",
    "name_en": "Baray",
    "parent_code": "1410"
  },
  {
    "code": "141002",
    "label": "ជើងទឹក",
    "name_en": "Cheung Tuek",
    "parent_code": "1410"
  },
  {
    "code": "141003",
    "label": "កំពង់លាវ",
    "name_en": "Kampong Leav",
    "parent_code": "1410"
  },
  {
    "code": "141101",
    "label": "ពោធិ៍រៀង",
    "name_en": "Pou Rieng",
    "parent_code": "1411"
  },
  {
    "code": "141102",
    "label": "ព្រែកអន្ទះ",
    "name_en": "Preaek Anteah",
    "parent_code": "1411"
  },
  {
    "code": "141103",
    "label": "ព្រែកជ្រៃ",
    "name_en": "Preaek Chrey",
    "parent_code": "1411"
  },
  {
    "code": "141104",
    "label": "ព្រៃកន្លោង",
    "name_en": "Prey Kanlaong",
    "parent_code": "1411"
  },
  {
    "code": "141105",
    "label": "តាកោ",
    "name_en": "Ta Kao",
    "parent_code": "1411"
  },
  {
    "code": "141106",
    "label": "កំពង់ឫស្សី",
    "name_en": "Kampong Ruessei",
    "parent_code": "1411"
  },
  {
    "code": "141107",
    "label": "ព្រែកតាសរ",
    "name_en": "Preaek Ta Sar",
    "parent_code": "1411"
  },
  {
    "code": "141201",
    "label": "អំពិលក្រៅ",
    "name_en": "Ampil Krau",
    "parent_code": "1412"
  },
  {
    "code": "141202",
    "label": "ជ្រៃឃ្មុំ",
    "name_en": "Chrey Khmum",
    "parent_code": "1412"
  },
  {
    "code": "141203",
    "label": "ល្វេ",
    "name_en": "Lve",
    "parent_code": "1412"
  },
  {
    "code": "141204",
    "label": "ព្នៅទី ១",
    "name_en": "Pnov Ti Muoy",
    "parent_code": "1412"
  },
  {
    "code": "141205",
    "label": "ព្នៅទី ២",
    "name_en": "Pnov Ti Pir",
    "parent_code": "1412"
  },
  {
    "code": "141206",
    "label": "ពោធិ៍ទី",
    "name_en": "Pou Ti",
    "parent_code": "1412"
  },
  {
    "code": "141207",
    "label": "ព្រែកចង្ក្រាន",
    "name_en": "Preaek Changkran",
    "parent_code": "1412"
  },
  {
    "code": "141208",
    "label": "ព្រៃដើមថ្នឹង",
    "name_en": "Prey Daeum Thnoeng",
    "parent_code": "1412"
  },
  {
    "code": "141209",
    "label": "ព្រៃទឹង",
    "name_en": "Prey Tueng",
    "parent_code": "1412"
  },
  {
    "code": "141210",
    "label": "រំលេច",
    "name_en": "Rumlech",
    "parent_code": "1412"
  },
  {
    "code": "141211",
    "label": "ឫស្សីសាញ់",
    "name_en": "Ruessei Sanh",
    "parent_code": "1412"
  },
  {
    "code": "141301",
    "label": "អង្គរទ្រេត",
    "name_en": "Angkor Tret",
    "parent_code": "1413"
  },
  {
    "code": "141302",
    "label": "ជាខ្លាង",
    "name_en": "Chea Khlang",
    "parent_code": "1413"
  },
  {
    "code": "141303",
    "label": "ជ្រៃ",
    "name_en": "Chrey",
    "parent_code": "1413"
  },
  {
    "code": "141304",
    "label": "ដំរីពួន",
    "name_en": "Damrei Puon",
    "parent_code": "1413"
  },
  {
    "code": "141305",
    "label": "មេបុណ្យ",
    "name_en": "Me Bon",
    "parent_code": "1413"
  },
  {
    "code": "141306",
    "label": "ពានរោង",
    "name_en": "Pean Roung",
    "parent_code": "1413"
  },
  {
    "code": "141307",
    "label": "ពពឺស",
    "name_en": "Popueus",
    "parent_code": "1413"
  },
  {
    "code": "141308",
    "label": "ព្រៃខ្លា",
    "name_en": "Prey Khla",
    "parent_code": "1413"
  },
  {
    "code": "141309",
    "label": "សំរោង",
    "name_en": "Samraong",
    "parent_code": "1413"
  },
  {
    "code": "141310",
    "label": "ស្វាយអន្ទរ",
    "name_en": "Svay Antor",
    "parent_code": "1413"
  },
  {
    "code": "141311",
    "label": "ទឹកថ្លា",
    "name_en": "Tuek Thla",
    "parent_code": "1413"
  },
  {
    "code": "150101",
    "label": "បឹងបត់កណ្ដាល",
    "name_en": "Boeng Bat Kandaol",
    "parent_code": "1501"
  },
  {
    "code": "150102",
    "label": "បឹងខ្នារ",
    "name_en": "Boeng Khnar",
    "parent_code": "1501"
  },
  {
    "code": "150103",
    "label": "ខ្នារទទឹង",
    "name_en": "Khnar Totueng",
    "parent_code": "1501"
  },
  {
    "code": "150104",
    "label": "មេទឹក",
    "name_en": "Me Tuek",
    "parent_code": "1501"
  },
  {
    "code": "150105",
    "label": "អូរតាប៉ោង",
    "name_en": "Ou Ta Paong",
    "parent_code": "1501"
  },
  {
    "code": "150106",
    "label": "រំលេច",
    "name_en": "Rumlech",
    "parent_code": "1501"
  },
  {
    "code": "150108",
    "label": "ស្វាយដូនកែវ",
    "name_en": "Svay Doun Kaev",
    "parent_code": "1501"
  },
  {
    "code": "150109",
    "label": "តាលោ",
    "name_en": "Ta Lou",
    "parent_code": "1501"
  },
  {
    "code": "150110",
    "label": "ត្រពាំងជង",
    "name_en": "Trapeang chorng",
    "parent_code": "1501"
  },
  {
    "code": "150201",
    "label": "អន្លង់វិល",
    "name_en": "Anlong Vil",
    "parent_code": "1502"
  },
  {
    "code": "150203",
    "label": "កណ្ដៀង",
    "name_en": "Kandieng",
    "parent_code": "1502"
  },
  {
    "code": "150204",
    "label": "កញ្ជរ",
    "name_en": "Kanhchor",
    "parent_code": "1502"
  },
  {
    "code": "150205",
    "label": "រាំងទិល",
    "name_en": "Reang Til",
    "parent_code": "1502"
  },
  {
    "code": "150206",
    "label": "ស្រែស្ដុក",
    "name_en": "Srae Sdok",
    "parent_code": "1502"
  },
  {
    "code": "150207",
    "label": "ស្វាយលួង",
    "name_en": "Svay Luong",
    "parent_code": "1502"
  },
  {
    "code": "150208",
    "label": "ស្យា",
    "name_en": "Sya",
    "parent_code": "1502"
  },
  {
    "code": "150209",
    "label": "វាល",
    "name_en": "Veal",
    "parent_code": "1502"
  },
  {
    "code": "150210",
    "label": "កោះជុំ",
    "name_en": "Kaoh Chum",
    "parent_code": "1502"
  },
  {
    "code": "150301",
    "label": "អន្លង់ត្នោត",
    "name_en": "Anlong Tnaot",
    "parent_code": "1503"
  },
  {
    "code": "150302",
    "label": "អន្សាចំបក់",
    "name_en": "Ansa Chambak",
    "parent_code": "1503"
  },
  {
    "code": "150303",
    "label": "បឹងកន្ទួត",
    "name_en": "Boeng Kantuot",
    "parent_code": "1503"
  },
  {
    "code": "150304",
    "label": "ឈើតុំ",
    "name_en": "Chheu Tom",
    "parent_code": "1503"
  },
  {
    "code": "150305",
    "label": "កំពង់លួង",
    "name_en": "Kampong Luong",
    "parent_code": "1503"
  },
  {
    "code": "150306",
    "label": "កំពង់ពោធិ៍",
    "name_en": "Kampong Pou",
    "parent_code": "1503"
  },
  {
    "code": "150307",
    "label": "ក្បាលត្រាច",
    "name_en": "Kbal Trach",
    "parent_code": "1503"
  },
  {
    "code": "150308",
    "label": "អូរសណ្ដាន់",
    "name_en": "Ou Sandan",
    "parent_code": "1503"
  },
  {
    "code": "150309",
    "label": "ស្នាអន្សា",
    "name_en": "Sna Ansa",
    "parent_code": "1503"
  },
  {
    "code": "150310",
    "label": "ស្វាយស",
    "name_en": "Svay Sa",
    "parent_code": "1503"
  },
  {
    "code": "150311",
    "label": "ត្នោតជុំ",
    "name_en": "Tnaot Chum",
    "parent_code": "1503"
  },
  {
    "code": "150401",
    "label": "បាក់ចិញ្ចៀន",
    "name_en": "Bak Chenhchien",
    "parent_code": "1504"
  },
  {
    "code": "150402",
    "label": "លាច",
    "name_en": "Leach",
    "parent_code": "1504"
  },
  {
    "code": "150403",
    "label": "ផ្ទះរុង",
    "name_en": "Phteah Rung",
    "parent_code": "1504"
  },
  {
    "code": "150404",
    "label": "ព្រងិល",
    "name_en": "Prongil",
    "parent_code": "1504"
  },
  {
    "code": "150405",
    "label": "រកាត",
    "name_en": "Rokat",
    "parent_code": "1504"
  },
  {
    "code": "150406",
    "label": "សន្ទ្រែ",
    "name_en": "Santreae",
    "parent_code": "1504"
  },
  {
    "code": "150407",
    "label": "សំរោង",
    "name_en": "Samraong",
    "parent_code": "1504"
  },
  {
    "code": "150501",
    "label": "ចំរើនផល",
    "name_en": "Chamraeun Phal",
    "parent_code": "1505"
  },
  {
    "code": "150503",
    "label": "លលកស",
    "name_en": "Lolok Sa",
    "parent_code": "1505"
  },
  {
    "code": "150504",
    "label": "ផ្ទះព្រៃ",
    "name_en": "Phteah Prey",
    "parent_code": "1505"
  },
  {
    "code": "150505",
    "label": "ព្រៃញី",
    "name_en": "Prey Nhi",
    "parent_code": "1505"
  },
  {
    "code": "150506",
    "label": "រលាប",
    "name_en": "Roleab",
    "parent_code": "1505"
  },
  {
    "code": "150507",
    "label": "ស្វាយអាត់",
    "name_en": "Svay At",
    "parent_code": "1505"
  },
  {
    "code": "150508",
    "label": "បន្ទាយដី",
    "name_en": "Banteay Dei",
    "parent_code": "1505"
  },
  {
    "code": "150601",
    "label": "អូរសោម",
    "name_en": "Ou Saom",
    "parent_code": "1506"
  },
  {
    "code": "150602",
    "label": "ក្រពើពីរ",
    "name_en": "Krapeu Pir",
    "parent_code": "1506"
  },
  {
    "code": "150603",
    "label": "អន្លង់រាប",
    "name_en": "Anlong Reab",
    "parent_code": "1506"
  },
  {
    "code": "150604",
    "label": "ប្រម៉ោយ",
    "name_en": "Pramaoy",
    "parent_code": "1506"
  },
  {
    "code": "150605",
    "label": "ថ្មដា",
    "name_en": "Thma Da",
    "parent_code": "1506"
  },
  {
    "code": "160101",
    "label": "ម៉ាលិក",
    "name_en": "Malik",
    "parent_code": "1601"
  },
  {
    "code": "160103",
    "label": "ញ៉ាង",
    "name_en": "Nhang",
    "parent_code": "1601"
  },
  {
    "code": "160104",
    "label": "តាឡាវ",
    "name_en": "Ta Lav",
    "parent_code": "1601"
  },
  {
    "code": "160201",
    "label": "កាចាញ",
    "name_en": "Kachanh",
    "parent_code": "1602"
  },
  {
    "code": "160202",
    "label": "ឡាបានសៀក",
    "name_en": "Labansiek",
    "parent_code": "1602"
  },
  {
    "code": "160203",
    "label": "យក្ខឡោម",
    "name_en": "Yeak Laom",
    "parent_code": "1602"
  },
  {
    "code": "160204",
    "label": "បឹងកន្សែង",
    "name_en": "Boeng Kansaeng",
    "parent_code": "1602"
  },
  {
    "code": "160301",
    "label": "កក់",
    "name_en": "Kak",
    "parent_code": "1603"
  },
  {
    "code": "160302",
    "label": "កិះចុង",
    "name_en": "Keh Chong",
    "parent_code": "1603"
  },
  {
    "code": "160303",
    "label": "ឡាមីញ",
    "name_en": "La Minh",
    "parent_code": "1603"
  },
  {
    "code": "160304",
    "label": "លុងឃុង",
    "name_en": "Lung Khung",
    "parent_code": "1603"
  },
  {
    "code": "160305",
    "label": "ស៊ើង",
    "name_en": "Saeung",
    "parent_code": "1603"
  },
  {
    "code": "160306",
    "label": "ទីងចាក់",
    "name_en": "Ting Chak",
    "parent_code": "1603"
  },
  {
    "code": "160401",
    "label": "សិរីមង្គល",
    "name_en": "Serei Mongkol",
    "parent_code": "1604"
  },
  {
    "code": "160402",
    "label": "ស្រែអង្គ្រង",
    "name_en": "Srae Angkrorng",
    "parent_code": "1604"
  },
  {
    "code": "160403",
    "label": "តាអង",
    "name_en": "Ta Ang",
    "parent_code": "1604"
  },
  {
    "code": "160404",
    "label": "តឺន",
    "name_en": "Teun",
    "parent_code": "1604"
  },
  {
    "code": "160405",
    "label": "ត្រពាំងច្រេស",
    "name_en": "Trapeang Chres",
    "parent_code": "1604"
  },
  {
    "code": "160406",
    "label": "ត្រពាំងក្រហម",
    "name_en": "Trapeang Kraham",
    "parent_code": "1604"
  },
  {
    "code": "160501",
    "label": "ជ័យឧត្ដម",
    "name_en": "Chey Otdam",
    "parent_code": "1605"
  },
  {
    "code": "160502",
    "label": "កាឡែង",
    "name_en": "Ka Laeng",
    "parent_code": "1605"
  },
  {
    "code": "160503",
    "label": "ល្បាំង១",
    "name_en": "Lbang Muoy",
    "parent_code": "1605"
  },
  {
    "code": "160504",
    "label": "ល្បាំង២",
    "name_en": "Lbang Pir",
    "parent_code": "1605"
  },
  {
    "code": "160505",
    "label": "បាតាង",
    "name_en": "Ba Tang",
    "parent_code": "1605"
  },
  {
    "code": "160506",
    "label": "សេដា",
    "name_en": "Seda",
    "parent_code": "1605"
  },
  {
    "code": "160602",
    "label": "ប៉ូយ",
    "name_en": "Pouy",
    "parent_code": "1606"
  },
  {
    "code": "160603",
    "label": "ឯកភាព",
    "name_en": "Aekakpheap",
    "parent_code": "1606"
  },
  {
    "code": "160604",
    "label": "កាឡៃ",
    "name_en": "Kalai",
    "parent_code": "1606"
  },
  {
    "code": "160605",
    "label": "អូរជុំ",
    "name_en": "Ou Chum",
    "parent_code": "1606"
  },
  {
    "code": "160606",
    "label": "សាមគ្គី",
    "name_en": "Sameakki",
    "parent_code": "1606"
  },
  {
    "code": "160607",
    "label": "ល្អក់",
    "name_en": "L'ak",
    "parent_code": "1606"
  },
  {
    "code": "160701",
    "label": "បរខាំ",
    "name_en": "Bar Kham",
    "parent_code": "1607"
  },
  {
    "code": "160702",
    "label": "លំជ័រ",
    "name_en": "Lum Choar",
    "parent_code": "1607"
  },
  {
    "code": "160703",
    "label": "ប៉ក់ញ៉ៃ",
    "name_en": "Pak Nhai",
    "parent_code": "1607"
  },
  {
    "code": "160704",
    "label": "ប៉ាតេ",
    "name_en": "Pa Te",
    "parent_code": "1607"
  },
  {
    "code": "160705",
    "label": "សេសាន",
    "name_en": "Sesan",
    "parent_code": "1607"
  },
  {
    "code": "160706",
    "label": "សោមធំ",
    "name_en": "Saom Thum",
    "parent_code": "1607"
  },
  {
    "code": "160707",
    "label": "យ៉ាទុង",
    "name_en": "Ya Tung",
    "parent_code": "1607"
  },
  {
    "code": "160801",
    "label": "តាវែងលើ",
    "name_en": "Ta Veaeng Leu",
    "parent_code": "1608"
  },
  {
    "code": "160802",
    "label": "តាវែងក្រោម",
    "name_en": "Ta Veaeng Kraom",
    "parent_code": "1608"
  },
  {
    "code": "160901",
    "label": "ប៉ុង",
    "name_en": "Pong",
    "parent_code": "1609"
  },
  {
    "code": "160903",
    "label": "ហាត់ប៉ក់",
    "name_en": "Hat Pak",
    "parent_code": "1609"
  },
  {
    "code": "160904",
    "label": "កាចូន",
    "name_en": "Ka Choun",
    "parent_code": "1609"
  },
  {
    "code": "160905",
    "label": "កោះប៉ង់",
    "name_en": "Kaoh Pang",
    "parent_code": "1609"
  },
  {
    "code": "160906",
    "label": "កោះពាក្យ",
    "name_en": "Kaoh Peak",
    "parent_code": "1609"
  },
  {
    "code": "160907",
    "label": "កុកឡាក់",
    "name_en": "Kok Lak",
    "parent_code": "1609"
  },
  {
    "code": "160908",
    "label": "ប៉ាកាឡាន់",
    "name_en": "Pa Kalan",
    "parent_code": "1609"
  },
  {
    "code": "160909",
    "label": "ភ្នំកុក",
    "name_en": "Phnum Kok",
    "parent_code": "1609"
  },
  {
    "code": "160910",
    "label": "វើនសៃ",
    "name_en": "Veun Sai",
    "parent_code": "1609"
  },
  {
    "code": "170101",
    "label": "ចារឈូក",
    "name_en": "Char Chhuk",
    "parent_code": "1701"
  },
  {
    "code": "170102",
    "label": "ដូនពេង",
    "name_en": "Doun Peng",
    "parent_code": "1701"
  },
  {
    "code": "170103",
    "label": "គោកដូង",
    "name_en": "Kouk Doung",
    "parent_code": "1701"
  },
  {
    "code": "170104",
    "label": "គោល",
    "name_en": "Koul",
    "parent_code": "1701"
  },
  {
    "code": "170105",
    "label": "នគរភាស",
    "name_en": "Nokor Pheas",
    "parent_code": "1701"
  },
  {
    "code": "170106",
    "label": "ស្រែខ្វាវ",
    "name_en": "Srae Khvav",
    "parent_code": "1701"
  },
  {
    "code": "170107",
    "label": "តាសោម",
    "name_en": "Ta Saom",
    "parent_code": "1701"
  },
  {
    "code": "170201",
    "label": "ជប់តាត្រាវ",
    "name_en": "Chob Ta Trav",
    "parent_code": "1702"
  },
  {
    "code": "170202",
    "label": "លាងដៃ",
    "name_en": "Leang Dai",
    "parent_code": "1702"
  },
  {
    "code": "170203",
    "label": "ពាក់ស្នែង",
    "name_en": "Peak Snaeng",
    "parent_code": "1702"
  },
  {
    "code": "170204",
    "label": "ស្វាយចេក",
    "name_en": "Svay Chek",
    "parent_code": "1702"
  },
  {
    "code": "170301",
    "label": "ខ្នារសណ្ដាយ",
    "name_en": "Khnar Sanday",
    "parent_code": "1703"
  },
  {
    "code": "170302",
    "label": "ឃុនរាម",
    "name_en": "Khun Ream",
    "parent_code": "1703"
  },
  {
    "code": "170303",
    "label": "ព្រះដាក់",
    "name_en": "Preah Dak",
    "parent_code": "1703"
  },
  {
    "code": "170304",
    "label": "រំចេក",
    "name_en": "Rumchek",
    "parent_code": "1703"
  },
  {
    "code": "170305",
    "label": "រុនតាឯក",
    "name_en": "Run Ta Aek",
    "parent_code": "1703"
  },
  {
    "code": "170306",
    "label": "ត្បែង",
    "name_en": "Tbaeng",
    "parent_code": "1703"
  },
  {
    "code": "170401",
    "label": "អន្លង់សំណរ",
    "name_en": "Anlong Samnar",
    "parent_code": "1704"
  },
  {
    "code": "170402",
    "label": "ជីក្រែង",
    "name_en": "Chi Kraeng",
    "parent_code": "1704"
  },
  {
    "code": "170403",
    "label": "កំពង់ក្ដី",
    "name_en": "Kampong Kdei",
    "parent_code": "1704"
  },
  {
    "code": "170404",
    "label": "ខ្វាវ",
    "name_en": "Khvav",
    "parent_code": "1704"
  },
  {
    "code": "170405",
    "label": "គោកធ្លកក្រោម",
    "name_en": "Kouk Thlok Kraom",
    "parent_code": "1704"
  },
  {
    "code": "170406",
    "label": "គោកធ្លកលើ",
    "name_en": "Kouk Thlok Leu",
    "parent_code": "1704"
  },
  {
    "code": "170407",
    "label": "ល្វែងឫស្សី",
    "name_en": "Lveaeng Ruessei",
    "parent_code": "1704"
  },
  {
    "code": "170408",
    "label": "ពង្រក្រោម",
    "name_en": "Pongro Kraom",
    "parent_code": "1704"
  },
  {
    "code": "170409",
    "label": "ពង្រលើ",
    "name_en": "Pongro Leu",
    "parent_code": "1704"
  },
  {
    "code": "170410",
    "label": "ឫស្សីលក",
    "name_en": "Ruessei Lok",
    "parent_code": "1704"
  },
  {
    "code": "170411",
    "label": "សង្វើយ",
    "name_en": "Sangvaeuy",
    "parent_code": "1704"
  },
  {
    "code": "170412",
    "label": "ស្ពានត្នោត",
    "name_en": "Spean Tnaot",
    "parent_code": "1704"
  },
  {
    "code": "170601",
    "label": "ចន្លាសដៃ",
    "name_en": "Chanleas Dai",
    "parent_code": "1706"
  },
  {
    "code": "170602",
    "label": "កំពង់ថ្កូវ",
    "name_en": "Kampong Thkov",
    "parent_code": "1706"
  },
  {
    "code": "170603",
    "label": "ក្រឡាញ់",
    "name_en": "Kralanh",
    "parent_code": "1706"
  },
  {
    "code": "170605",
    "label": "រោងគោ",
    "name_en": "Roung Kou",
    "parent_code": "1706"
  },
  {
    "code": "170606",
    "label": "សំបួរ",
    "name_en": "Sambuor",
    "parent_code": "1706"
  },
  {
    "code": "170607",
    "label": "សែនសុខ",
    "name_en": "Saen Sokh",
    "parent_code": "1706"
  },
  {
    "code": "170608",
    "label": "ស្នួល",
    "name_en": "Snuol",
    "parent_code": "1706"
  },
  {
    "code": "170609",
    "label": "ស្រណាល",
    "name_en": "Sranal",
    "parent_code": "1706"
  },
  {
    "code": "170610",
    "label": "តាអាន",
    "name_en": "Ta An",
    "parent_code": "1706"
  },
  {
    "code": "170702",
    "label": "ដូនកែវ",
    "name_en": "Doun Kaev",
    "parent_code": "1707"
  },
  {
    "code": "170703",
    "label": "ក្ដីរុន",
    "name_en": "Kdei Run",
    "parent_code": "1707"
  },
  {
    "code": "170704",
    "label": "កែវពណ៌",
    "name_en": "Kaev Poar",
    "parent_code": "1707"
  },
  {
    "code": "170705",
    "label": "ខ្នាត",
    "name_en": "Khnat",
    "parent_code": "1707"
  },
  {
    "code": "170707",
    "label": "ល្វា",
    "name_en": "Lvea",
    "parent_code": "1707"
  },
  {
    "code": "170708",
    "label": "មុខប៉ែន",
    "name_en": "Mukh Paen",
    "parent_code": "1707"
  },
  {
    "code": "170709",
    "label": "ពោធិ៍ទ្រាយ",
    "name_en": "Pou Treay",
    "parent_code": "1707"
  },
  {
    "code": "170710",
    "label": "ពួក",
    "name_en": "Puok",
    "parent_code": "1707"
  },
  {
    "code": "170711",
    "label": "ព្រៃជ្រូក",
    "name_en": "Prey Chruk",
    "parent_code": "1707"
  },
  {
    "code": "170712",
    "label": "រើល",
    "name_en": "Reul",
    "parent_code": "1707"
  },
  {
    "code": "170713",
    "label": "សំរោងយា",
    "name_en": "Samraong Yea",
    "parent_code": "1707"
  },
  {
    "code": "170715",
    "label": "ត្រីញ័រ",
    "name_en": "Trei Nhoar",
    "parent_code": "1707"
  },
  {
    "code": "170716",
    "label": "យាង",
    "name_en": "Yeang",
    "parent_code": "1707"
  },
  {
    "code": "170902",
    "label": "បាគង",
    "name_en": "Bakong",
    "parent_code": "1709"
  },
  {
    "code": "170903",
    "label": "បល្ល័ង្ក",
    "name_en": "Ballangk",
    "parent_code": "1709"
  },
  {
    "code": "170904",
    "label": "កំពង់ភ្លុក",
    "name_en": "Kampong Phluk",
    "parent_code": "1709"
  },
  {
    "code": "170905",
    "label": "កន្ទ្រាំង",
    "name_en": "Kantreang",
    "parent_code": "1709"
  },
  {
    "code": "170906",
    "label": "កណ្ដែក",
    "name_en": "Kandaek",
    "parent_code": "1709"
  },
  {
    "code": "170907",
    "label": "មានជ័យ",
    "name_en": "Mean Chey",
    "parent_code": "1709"
  },
  {
    "code": "170908",
    "label": "រលួស",
    "name_en": "Roluos",
    "parent_code": "1709"
  },
  {
    "code": "170909",
    "label": "ត្រពាំងធំ",
    "name_en": "Trapeang Thum",
    "parent_code": "1709"
  },
  {
    "code": "170910",
    "label": "អំពិល",
    "name_en": "Ampil",
    "parent_code": "1709"
  },
  {
    "code": "171001",
    "label": "ស្លក្រាម",
    "name_en": "Sla Kram",
    "parent_code": "1710"
  },
  {
    "code": "171002",
    "label": "ស្វាយដង្គំ",
    "name_en": "Svay Dankum",
    "parent_code": "1710"
  },
  {
    "code": "171003",
    "label": "គោកចក",
    "name_en": "Kok Chak",
    "parent_code": "1710"
  },
  {
    "code": "171004",
    "label": "សាលាកំរើក",
    "name_en": "Sala Kamreuk",
    "parent_code": "1710"
  },
  {
    "code": "171005",
    "label": "នគរធំ",
    "name_en": "Nokor Thum",
    "parent_code": "1710"
  },
  {
    "code": "171006",
    "label": "ជ្រាវ",
    "name_en": "Chreav",
    "parent_code": "1710"
  },
  {
    "code": "171007",
    "label": "ចុងឃ្នៀស",
    "name_en": "Chong Khnies",
    "parent_code": "1710"
  },
  {
    "code": "171008",
    "label": "សំបួរ",
    "name_en": "Sngkat Sambuor",
    "parent_code": "1710"
  },
  {
    "code": "171009",
    "label": "សៀមរាប",
    "name_en": "Siem Reab",
    "parent_code": "1710"
  },
  {
    "code": "171010",
    "label": "ស្រង៉ែ",
    "name_en": "Srangae",
    "parent_code": "1710"
  },
  {
    "code": "171012",
    "label": "ក្របីរៀល",
    "name_en": "Krabei Riel",
    "parent_code": "1710"
  },
  {
    "code": "171013",
    "label": "ទឹកវិល",
    "name_en": "Tuek Vil",
    "parent_code": "1710"
  },
  {
    "code": "171101",
    "label": "ចាន់ស",
    "name_en": "Chan Sa",
    "parent_code": "1711"
  },
  {
    "code": "171102",
    "label": "ដំដែក",
    "name_en": "Dam Daek",
    "parent_code": "1711"
  },
  {
    "code": "171103",
    "label": "ដានរុន",
    "name_en": "Dan Run",
    "parent_code": "1711"
  },
  {
    "code": "171104",
    "label": "កំពង់ឃ្លាំង",
    "name_en": "Kampong Khleang",
    "parent_code": "1711"
  },
  {
    "code": "171105",
    "label": "កៀនសង្កែ",
    "name_en": "Kien Sangkae",
    "parent_code": "1711"
  },
  {
    "code": "171106",
    "label": "ខ្ចាស់",
    "name_en": "Khchas",
    "parent_code": "1711"
  },
  {
    "code": "171107",
    "label": "ខ្នារពោធិ៍",
    "name_en": "Khnar Pou",
    "parent_code": "1711"
  },
  {
    "code": "171108",
    "label": "ពពេល",
    "name_en": "Popel",
    "parent_code": "1711"
  },
  {
    "code": "171109",
    "label": "សំរោង",
    "name_en": "Samraong",
    "parent_code": "1711"
  },
  {
    "code": "171110",
    "label": "តាយ៉ែក",
    "name_en": "Ta Yaek",
    "parent_code": "1711"
  },
  {
    "code": "171201",
    "label": "ជ្រោយនាងងួន",
    "name_en": "Chrouy Neang Nguon",
    "parent_code": "1712"
  },
  {
    "code": "171202",
    "label": "ក្លាំងហាយ",
    "name_en": "Klang Hay",
    "parent_code": "1712"
  },
  {
    "code": "171203",
    "label": "ត្រាំសសរ",
    "name_en": "Tram Sasar",
    "parent_code": "1712"
  },
  {
    "code": "171204",
    "label": "មោង",
    "name_en": "Moung",
    "parent_code": "1712"
  },
  {
    "code": "171205",
    "label": "ប្រីយ៍",
    "name_en": "Prei",
    "parent_code": "1712"
  },
  {
    "code": "171206",
    "label": "ស្លែងស្ពាន",
    "name_en": "Slaeng Spean",
    "parent_code": "1712"
  },
  {
    "code": "171301",
    "label": "បឹងមាលា",
    "name_en": "Boeng Mealea",
    "parent_code": "1713"
  },
  {
    "code": "171302",
    "label": "កន្ទួត",
    "name_en": "Kantuot",
    "parent_code": "1713"
  },
  {
    "code": "171303",
    "label": "ខ្នងភ្នំ",
    "name_en": "Khnang Phnum",
    "parent_code": "1713"
  },
  {
    "code": "171304",
    "label": "ស្វាយលើ",
    "name_en": "Svay Leu",
    "parent_code": "1713"
  },
  {
    "code": "171305",
    "label": "តាសៀម",
    "name_en": "Ta Siem",
    "parent_code": "1713"
  },
  {
    "code": "171402",
    "label": "ល្វាក្រាំង",
    "name_en": "Lvea Krang",
    "parent_code": "1714"
  },
  {
    "code": "171403",
    "label": "ស្រែណូយ",
    "name_en": "Srae Nouy",
    "parent_code": "1714"
  },
  {
    "code": "171404",
    "label": "ស្វាយ ស",
    "name_en": "Svay Sa",
    "parent_code": "1714"
  },
  {
    "code": "171405",
    "label": "វ៉ារិន",
    "name_en": "Varin",
    "parent_code": "1714"
  },
  {
    "code": "180101",
    "label": "លេខ១",
    "name_en": "lek Muoy",
    "parent_code": "1801"
  },
  {
    "code": "180102",
    "label": "២",
    "name_en": "Pir",
    "parent_code": "1801"
  },
  {
    "code": "180103",
    "label": "៣",
    "name_en": "Bei",
    "parent_code": "1801"
  },
  {
    "code": "180104",
    "label": "៤",
    "name_en": "Buon",
    "parent_code": "1801"
  },
  {
    "code": "180105",
    "label": "កោះរ៉ុង",
    "name_en": "Kaoh Rung",
    "parent_code": "1801"
  },
  {
    "code": "180106",
    "label": "កោះរ៉ុងសន្លឹម",
    "name_en": "Koah Rung Sonlem",
    "parent_code": "1801"
  },
  {
    "code": "180201",
    "label": "អណ្ដូងថ្ម",
    "name_en": "Andoung Thma",
    "parent_code": "1802"
  },
  {
    "code": "180202",
    "label": "បឹងតាព្រហ្ម",
    "name_en": "Boeng Ta Prum",
    "parent_code": "1802"
  },
  {
    "code": "180203",
    "label": "បិតត្រាង",
    "name_en": "Bet Trang",
    "parent_code": "1802"
  },
  {
    "code": "180204",
    "label": "ជើងគោ",
    "name_en": "Cheung Kou",
    "parent_code": "1802"
  },
  {
    "code": "180205",
    "label": "អូរជ្រៅ",
    "name_en": "Ou Chrov",
    "parent_code": "1802"
  },
  {
    "code": "180206",
    "label": "អូរឧកញ៉ាហេង",
    "name_en": "Ou Oknha Heng",
    "parent_code": "1802"
  },
  {
    "code": "180208",
    "label": "រាម",
    "name_en": "Ream",
    "parent_code": "1802"
  },
  {
    "code": "180209",
    "label": "សាមគ្គី",
    "name_en": "Sameakki",
    "parent_code": "1802"
  },
  {
    "code": "180210",
    "label": "សំរុង",
    "name_en": "Samrong",
    "parent_code": "1802"
  },
  {
    "code": "180211",
    "label": "ទឹកល្អក់",
    "name_en": "Tuek L'ak",
    "parent_code": "1802"
  },
  {
    "code": "180212",
    "label": "ទឹកថ្លា",
    "name_en": "Tuek Thla",
    "parent_code": "1802"
  },
  {
    "code": "180213",
    "label": "ទួលទទឹង",
    "name_en": "Tuol Totueng",
    "parent_code": "1802"
  },
  {
    "code": "180214",
    "label": "វាលរេញ",
    "name_en": "Veal Renh",
    "parent_code": "1802"
  },
  {
    "code": "180215",
    "label": "តានៃ",
    "name_en": "Ta Ney",
    "parent_code": "1802"
  },
  {
    "code": "180301",
    "label": "កំពេញ",
    "name_en": "Kampenh",
    "parent_code": "1803"
  },
  {
    "code": "180302",
    "label": "អូរត្រេះ",
    "name_en": "Ou Treh",
    "parent_code": "1803"
  },
  {
    "code": "180303",
    "label": "ទំនប់រលក",
    "name_en": "Tumnob Rolok",
    "parent_code": "1803"
  },
  {
    "code": "180304",
    "label": "កែវផុស",
    "name_en": "Kaev Phos",
    "parent_code": "1803"
  },
  {
    "code": "180401",
    "label": "ចំការហ្លួង",
    "name_en": "Chamkar Luong",
    "parent_code": "1804"
  },
  {
    "code": "180402",
    "label": "កំពង់សីលា",
    "name_en": "Kampong Seila",
    "parent_code": "1804"
  },
  {
    "code": "180403",
    "label": "អូរបាក់រទេះ",
    "name_en": "Ou Bak Roteh",
    "parent_code": "1804"
  },
  {
    "code": "180404",
    "label": "ស្ទឹងឆាយ",
    "name_en": "Stueng Chhay",
    "parent_code": "1804"
  },
  {
    "code": "190101",
    "label": "កំភុន",
    "name_en": "Kamphun",
    "parent_code": "1901"
  },
  {
    "code": "190102",
    "label": "ក្បាលរមាស",
    "name_en": "Kbal Romeas",
    "parent_code": "1901"
  },
  {
    "code": "190103",
    "label": "ភ្លុក",
    "name_en": "Phluk",
    "parent_code": "1901"
  },
  {
    "code": "190104",
    "label": "សាមឃួយ",
    "name_en": "Samkhuoy",
    "parent_code": "1901"
  },
  {
    "code": "190105",
    "label": "ស្ដៅ",
    "name_en": "Sdau",
    "parent_code": "1901"
  },
  {
    "code": "190106",
    "label": "ស្រែគរ",
    "name_en": "Srae Kor",
    "parent_code": "1901"
  },
  {
    "code": "190107",
    "label": "តាឡាត",
    "name_en": "Ta Lat",
    "parent_code": "1901"
  },
  {
    "code": "190201",
    "label": "កោះព្រះ",
    "name_en": "Kaoh Preah",
    "parent_code": "1902"
  },
  {
    "code": "190202",
    "label": "កោះសំពាយ",
    "name_en": "Kaoh Sampeay",
    "parent_code": "1902"
  },
  {
    "code": "190203",
    "label": "កោះស្រឡាយ",
    "name_en": "Kaoh Sralay",
    "parent_code": "1902"
  },
  {
    "code": "190204",
    "label": "អូរម្រះ",
    "name_en": "Ou Mreah",
    "parent_code": "1902"
  },
  {
    "code": "190205",
    "label": "អូរឫស្សីកណ្ដាល",
    "name_en": "Ou Ruessei Kandal",
    "parent_code": "1902"
  },
  {
    "code": "190206",
    "label": "សៀមបូក",
    "name_en": "Siem Bouk",
    "parent_code": "1902"
  },
  {
    "code": "190207",
    "label": "ស្រែក្រសាំង",
    "name_en": "Srae Krasang",
    "parent_code": "1902"
  },
  {
    "code": "190301",
    "label": "ព្រែកមាស",
    "name_en": "Preaek Meas",
    "parent_code": "1903"
  },
  {
    "code": "190302",
    "label": "សេកុង",
    "name_en": "Sekong",
    "parent_code": "1903"
  },
  {
    "code": "190303",
    "label": "សន្ដិភាព",
    "name_en": "Santepheap",
    "parent_code": "1903"
  },
  {
    "code": "190304",
    "label": "ស្រែសំបូរ",
    "name_en": "Srae Sambour",
    "parent_code": "1903"
  },
  {
    "code": "190305",
    "label": "ថ្មកែវ",
    "name_en": "Tma Kaev",
    "parent_code": "1903"
  },
  {
    "code": "190401",
    "label": "ស្ទឹងត្រែង",
    "name_en": "Stueng Traeng",
    "parent_code": "1904"
  },
  {
    "code": "190402",
    "label": "ស្រះឫស្សី",
    "name_en": "Srah Ruessei",
    "parent_code": "1904"
  },
  {
    "code": "190403",
    "label": "ព្រះបាទ",
    "name_en": "Preah Bat",
    "parent_code": "1904"
  },
  {
    "code": "190404",
    "label": "សាមគ្គី",
    "name_en": "Sameakki",
    "parent_code": "1904"
  },
  {
    "code": "190501",
    "label": "អន្លង់ភេ",
    "name_en": "Anlong Phe",
    "parent_code": "1905"
  },
  {
    "code": "190502",
    "label": "ចំការលើ",
    "name_en": "Chamkar Leu",
    "parent_code": "1905"
  },
  {
    "code": "190503",
    "label": "កាំងចាម",
    "name_en": "Kang Cham",
    "parent_code": "1905"
  },
  {
    "code": "190504",
    "label": "កោះស្នែង",
    "name_en": "Kaoh Snaeng",
    "parent_code": "1905"
  },
  {
    "code": "190505",
    "label": "អន្លង់ជ្រៃ",
    "name_en": "Anlong Chrey",
    "parent_code": "1905"
  },
  {
    "code": "190506",
    "label": "អូររ៉ៃ",
    "name_en": "Ou Rai",
    "parent_code": "1905"
  },
  {
    "code": "190507",
    "label": "អូរស្វាយ",
    "name_en": "Ou Svay",
    "parent_code": "1905"
  },
  {
    "code": "190508",
    "label": "ព្រះរំកិល",
    "name_en": "Preah Rumkel",
    "parent_code": "1905"
  },
  {
    "code": "190509",
    "label": "សំអាង",
    "name_en": "Sam Ang",
    "parent_code": "1905"
  },
  {
    "code": "190510",
    "label": "ស្រែឫស្សី",
    "name_en": "Srae Ruessei",
    "parent_code": "1905"
  },
  {
    "code": "190511",
    "label": "ថាឡាបរិវ៉ាត់",
    "name_en": "Thala Barivat",
    "parent_code": "1905"
  },
  {
    "code": "200103",
    "label": "ចន្ទ្រា",
    "name_en": "Chantrea",
    "parent_code": "2001"
  },
  {
    "code": "200104",
    "label": "ច្រេស",
    "name_en": "Chres",
    "parent_code": "2001"
  },
  {
    "code": "200105",
    "label": "មេ សរថ្ងក",
    "name_en": "Me Sar Thngak",
    "parent_code": "2001"
  },
  {
    "code": "200108",
    "label": "ព្រៃគគីរ",
    "name_en": "Prey Kokir",
    "parent_code": "2001"
  },
  {
    "code": "200109",
    "label": "សំរោង",
    "name_en": "Samraong",
    "parent_code": "2001"
  },
  {
    "code": "200110",
    "label": "ទួលស្ដី",
    "name_en": "Tuol Sdei",
    "parent_code": "2001"
  },
  {
    "code": "200201",
    "label": "បន្ទាយក្រាំង",
    "name_en": "Banteay Krang",
    "parent_code": "2002"
  },
  {
    "code": "200202",
    "label": "ញរ",
    "name_en": "Nhor",
    "parent_code": "2002"
  },
  {
    "code": "200203",
    "label": "ខ្សែត្រ",
    "name_en": "Khsaetr",
    "parent_code": "2002"
  },
  {
    "code": "200204",
    "label": "ព្រះពន្លា",
    "name_en": "Preah Ponlea",
    "parent_code": "2002"
  },
  {
    "code": "200205",
    "label": "ព្រៃធំ",
    "name_en": "Prey Thum",
    "parent_code": "2002"
  },
  {
    "code": "200206",
    "label": "រាជមន្ទីរ",
    "name_en": "Reach Montir",
    "parent_code": "2002"
  },
  {
    "code": "200207",
    "label": "សំឡី",
    "name_en": "Samlei",
    "parent_code": "2002"
  },
  {
    "code": "200208",
    "label": "សំយ៉ោង",
    "name_en": "Samyaong",
    "parent_code": "2002"
  },
  {
    "code": "200209",
    "label": "ស្វាយតាយាន",
    "name_en": "Svay Ta Yean",
    "parent_code": "2002"
  },
  {
    "code": "200211",
    "label": "ថ្មី",
    "name_en": "Thmei",
    "parent_code": "2002"
  },
  {
    "code": "200212",
    "label": "ត្នោត",
    "name_en": "Tnaot",
    "parent_code": "2002"
  },
  {
    "code": "200301",
    "label": "បុសមន",
    "name_en": "Bos Mon",
    "parent_code": "2003"
  },
  {
    "code": "200302",
    "label": "ធ្មា",
    "name_en": "Thmea",
    "parent_code": "2003"
  },
  {
    "code": "200303",
    "label": "កំពង់ចក",
    "name_en": "Kampong Chak",
    "parent_code": "2003"
  },
  {
    "code": "200304",
    "label": "ជ្រុងពពេល",
    "name_en": "Chrung Popel",
    "parent_code": "2003"
  },
  {
    "code": "200305",
    "label": "កំពង់អំពិល",
    "name_en": "Kampong Ampil",
    "parent_code": "2003"
  },
  {
    "code": "200306",
    "label": "ម៉ឺនជ័យ",
    "name_en": "Meun Chey",
    "parent_code": "2003"
  },
  {
    "code": "200307",
    "label": "ពងទឹក",
    "name_en": "Pong Tuek",
    "parent_code": "2003"
  },
  {
    "code": "200308",
    "label": "សង្កែ",
    "name_en": "Sangkae",
    "parent_code": "2003"
  },
  {
    "code": "200309",
    "label": "ស្វាយចេក",
    "name_en": "Svay Chek",
    "parent_code": "2003"
  },
  {
    "code": "200310",
    "label": "ថ្នាធ្នង់",
    "name_en": "Thna Thnong",
    "parent_code": "2003"
  },
  {
    "code": "200401",
    "label": "អំពិល",
    "name_en": "Ampil",
    "parent_code": "2004"
  },
  {
    "code": "200402",
    "label": "អណ្ដូងពោធិ៍",
    "name_en": "Andoung Pou",
    "parent_code": "2004"
  },
  {
    "code": "200403",
    "label": "អណ្ដូងត្របែក",
    "name_en": "Andoung Trabaek",
    "parent_code": "2004"
  },
  {
    "code": "200404",
    "label": "អង្គប្រស្រែ",
    "name_en": "Angk Prasrae",
    "parent_code": "2004"
  },
  {
    "code": "200405",
    "label": "ចន្ដ្រី",
    "name_en": "Chantrei",
    "parent_code": "2004"
  },
  {
    "code": "200406",
    "label": "ជ្រៃធំ",
    "name_en": "Chrey Thum",
    "parent_code": "2004"
  },
  {
    "code": "200407",
    "label": "ដូង",
    "name_en": "Doung",
    "parent_code": "2004"
  },
  {
    "code": "200408",
    "label": "កំពង់ត្រាច",
    "name_en": "Kampong Trach",
    "parent_code": "2004"
  },
  {
    "code": "200409",
    "label": "គគីរ",
    "name_en": "Kokir",
    "parent_code": "2004"
  },
  {
    "code": "200410",
    "label": "ក្រសាំង",
    "name_en": "Krasang",
    "parent_code": "2004"
  },
  {
    "code": "200411",
    "label": "មុខដា",
    "name_en": "Mukh Da",
    "parent_code": "2004"
  },
  {
    "code": "200412",
    "label": "ម្រាម",
    "name_en": "Mream",
    "parent_code": "2004"
  },
  {
    "code": "200413",
    "label": "សំបួរ",
    "name_en": "Sambuor",
    "parent_code": "2004"
  },
  {
    "code": "200414",
    "label": "សម្បត្ដិមានជ័យ",
    "name_en": "Sambatt Mean Chey",
    "parent_code": "2004"
  },
  {
    "code": "200415",
    "label": "ត្រពាំងស្ដៅ",
    "name_en": "Trapeang Sdau",
    "parent_code": "2004"
  },
  {
    "code": "200416",
    "label": "ត្រស់",
    "name_en": "Tras",
    "parent_code": "2004"
  },
  {
    "code": "200501",
    "label": "អង្គតាសូ",
    "name_en": "Angk Ta Sou",
    "parent_code": "2005"
  },
  {
    "code": "200502",
    "label": "បាសាក់",
    "name_en": "Basak",
    "parent_code": "2005"
  },
  {
    "code": "200503",
    "label": "ចំបក់",
    "name_en": "Chambak",
    "parent_code": "2005"
  },
  {
    "code": "200504",
    "label": "កំពង់ចំឡង",
    "name_en": "Kampong Chamlang",
    "parent_code": "2005"
  },
  {
    "code": "200505",
    "label": "តាសួស",
    "name_en": "Ta Suos",
    "parent_code": "2005"
  },
  {
    "code": "200507",
    "label": "ឈើទាល",
    "name_en": "Chheu Teal",
    "parent_code": "2005"
  },
  {
    "code": "200508",
    "label": "ដូនស",
    "name_en": "Doun Sa",
    "parent_code": "2005"
  },
  {
    "code": "200509",
    "label": "គោកព្រីង",
    "name_en": "Kouk Pring",
    "parent_code": "2005"
  },
  {
    "code": "200510",
    "label": "ក្រោលគោ",
    "name_en": "Kraol Kou",
    "parent_code": "2005"
  },
  {
    "code": "200512",
    "label": "ពោធិរាជ",
    "name_en": "Pouthi Reach",
    "parent_code": "2005"
  },
  {
    "code": "200513",
    "label": "ស្វាយអង្គ",
    "name_en": "Svay Angk",
    "parent_code": "2005"
  },
  {
    "code": "200514",
    "label": "ស្វាយជ្រំ",
    "name_en": "Svay Chrum",
    "parent_code": "2005"
  },
  {
    "code": "200515",
    "label": "ស្វាយធំ",
    "name_en": "Svay Thum",
    "parent_code": "2005"
  },
  {
    "code": "200516",
    "label": "ស្វាយយា",
    "name_en": "Svay Yea",
    "parent_code": "2005"
  },
  {
    "code": "200517",
    "label": "ធ្លក",
    "name_en": "Thlok",
    "parent_code": "2005"
  },
  {
    "code": "200601",
    "label": "ស្វាយរៀង",
    "name_en": "Svay Rieng",
    "parent_code": "2006"
  },
  {
    "code": "200602",
    "label": "ព្រៃឆ្លាក់",
    "name_en": "Prey Chhlak",
    "parent_code": "2006"
  },
  {
    "code": "200603",
    "label": "គយត្របែក",
    "name_en": "Koy Trabaek",
    "parent_code": "2006"
  },
  {
    "code": "200604",
    "label": "ពោធិ៍តាហោ",
    "name_en": "Pou Ta Hao",
    "parent_code": "2006"
  },
  {
    "code": "200605",
    "label": "ចេក",
    "name_en": "Chek",
    "parent_code": "2006"
  },
  {
    "code": "200606",
    "label": "ស្វាយតឿ",
    "name_en": "Svay Toea",
    "parent_code": "2006"
  },
  {
    "code": "200607",
    "label": "សង្ឃរ័",
    "name_en": "Sangkhoar",
    "parent_code": "2006"
  },
  {
    "code": "200702",
    "label": "គគីសោម",
    "name_en": "Koki Saom",
    "parent_code": "2007"
  },
  {
    "code": "200703",
    "label": "កណ្ដៀងរាយ",
    "name_en": "Kandieng Reay",
    "parent_code": "2007"
  },
  {
    "code": "200704",
    "label": "មនោរម្យ",
    "name_en": "Monourom",
    "parent_code": "2007"
  },
  {
    "code": "200705",
    "label": "ពពែត",
    "name_en": "Popeaet",
    "parent_code": "2007"
  },
  {
    "code": "200706",
    "label": "ព្រៃតាអី",
    "name_en": "Prey Ta Ei",
    "parent_code": "2007"
  },
  {
    "code": "200707",
    "label": "ប្រសូត្រ",
    "name_en": "Prasoutr",
    "parent_code": "2007"
  },
  {
    "code": "200708",
    "label": "រមាំងថ្កោល",
    "name_en": "Romeang Thkaol",
    "parent_code": "2007"
  },
  {
    "code": "200709",
    "label": "សំបួរ",
    "name_en": "Sambuor",
    "parent_code": "2007"
  },
  {
    "code": "200711",
    "label": "ស្វាយរំពារ",
    "name_en": "Svay Rumpear",
    "parent_code": "2007"
  },
  {
    "code": "200801",
    "label": "បាទី",
    "name_en": "Bati",
    "parent_code": "2008"
  },
  {
    "code": "200802",
    "label": "បាវិត",
    "name_en": "Bavet",
    "parent_code": "2008"
  },
  {
    "code": "200803",
    "label": "ច្រកម្ទេស",
    "name_en": "Chrak Mtes",
    "parent_code": "2008"
  },
  {
    "code": "200804",
    "label": "ប្រាសាទ",
    "name_en": "Prasat",
    "parent_code": "2008"
  },
  {
    "code": "200805",
    "label": "ព្រៃអង្គុញ",
    "name_en": "Prey Angkunh",
    "parent_code": "2008"
  },
  {
    "code": "210101",
    "label": "អង្គរបូរី",
    "name_en": "Angkor Borei",
    "parent_code": "2101"
  },
  {
    "code": "210102",
    "label": "បាស្រែ",
    "name_en": "Ba Srae",
    "parent_code": "2101"
  },
  {
    "code": "210103",
    "label": "គោកធ្លក",
    "name_en": "Kouk Thlok",
    "parent_code": "2101"
  },
  {
    "code": "210104",
    "label": "ពន្លៃ",
    "name_en": "Ponley",
    "parent_code": "2101"
  },
  {
    "code": "210105",
    "label": "ព្រែកផ្ទោល",
    "name_en": "Preaek Phtoul",
    "parent_code": "2101"
  },
  {
    "code": "210106",
    "label": "ព្រៃផ្គាំ",
    "name_en": "Prey Phkoam",
    "parent_code": "2101"
  },
  {
    "code": "210201",
    "label": "ចំបក់",
    "name_en": "Chambak",
    "parent_code": "2102"
  },
  {
    "code": "210202",
    "label": "ចំប៉ី",
    "name_en": "Champei",
    "parent_code": "2102"
  },
  {
    "code": "210203",
    "label": "ដូង",
    "name_en": "Doung",
    "parent_code": "2102"
  },
  {
    "code": "210204",
    "label": "កណ្ដឹង",
    "name_en": "Kandoeng",
    "parent_code": "2102"
  },
  {
    "code": "210205",
    "label": "កុមាររាជា",
    "name_en": "Komar Reachea",
    "parent_code": "2102"
  },
  {
    "code": "210206",
    "label": "ក្រាំងលាវ",
    "name_en": "Krang Leav",
    "parent_code": "2102"
  },
  {
    "code": "210207",
    "label": "ក្រាំងធ្នង់",
    "name_en": "Krang Thnong",
    "parent_code": "2102"
  },
  {
    "code": "210208",
    "label": "លំពង់",
    "name_en": "Lumpong",
    "parent_code": "2102"
  },
  {
    "code": "210209",
    "label": "ពារាម",
    "name_en": "Pea Ream",
    "parent_code": "2102"
  },
  {
    "code": "210210",
    "label": "ពត់សរ",
    "name_en": "Pot Sar",
    "parent_code": "2102"
  },
  {
    "code": "210211",
    "label": "សូរភី",
    "name_en": "Sour Phi",
    "parent_code": "2102"
  },
  {
    "code": "210212",
    "label": "តាំងដូង",
    "name_en": "Tang Doung",
    "parent_code": "2102"
  },
  {
    "code": "210213",
    "label": "ត្នោត",
    "name_en": "Tnaot",
    "parent_code": "2102"
  },
  {
    "code": "210214",
    "label": "ត្រពាំងក្រសាំង",
    "name_en": "Trapeang Krasang",
    "parent_code": "2102"
  },
  {
    "code": "210215",
    "label": "ត្រពាំងសាប",
    "name_en": "Trapeang Sab",
    "parent_code": "2102"
  },
  {
    "code": "210301",
    "label": "បូរីជលសារ",
    "name_en": "Borei Cholsar",
    "parent_code": "2103"
  },
  {
    "code": "210302",
    "label": "ជ័យជោគ",
    "name_en": "Chey Chouk",
    "parent_code": "2103"
  },
  {
    "code": "210303",
    "label": "ដូងខ្ពស់",
    "name_en": "Doung Khpos",
    "parent_code": "2103"
  },
  {
    "code": "210304",
    "label": "កំពង់ក្រសាំង",
    "name_en": "Kampong Krasang",
    "parent_code": "2103"
  },
  {
    "code": "210305",
    "label": "គោកពោធិ៍",
    "name_en": "Kouk Pou",
    "parent_code": "2103"
  },
  {
    "code": "210401",
    "label": "អង្គប្រាសាទ",
    "name_en": "Angk Prasat",
    "parent_code": "2104"
  },
  {
    "code": "210402",
    "label": "ព្រះបាទជាន់ជុំ",
    "name_en": "Preah Bat Choan Chum",
    "parent_code": "2104"
  },
  {
    "code": "210403",
    "label": "កំណប់",
    "name_en": "Kamnab",
    "parent_code": "2104"
  },
  {
    "code": "210404",
    "label": "កំពែង",
    "name_en": "Kampeaeng",
    "parent_code": "2104"
  },
  {
    "code": "210405",
    "label": "គីរីចុងកោះ",
    "name_en": "Kiri Chong Kaoh",
    "parent_code": "2104"
  },
  {
    "code": "210406",
    "label": "គោកព្រេច",
    "name_en": "Kouk Prech",
    "parent_code": "2104"
  },
  {
    "code": "210407",
    "label": "ភ្នំដិន",
    "name_en": "Phnum Den",
    "parent_code": "2104"
  },
  {
    "code": "210408",
    "label": "ព្រៃអំពក",
    "name_en": "Prey Ampok",
    "parent_code": "2104"
  },
  {
    "code": "210409",
    "label": "ព្រៃរំដេង",
    "name_en": "Prey Rumdeng",
    "parent_code": "2104"
  },
  {
    "code": "210410",
    "label": "រាមអណ្ដើក",
    "name_en": "Ream Andaeuk",
    "parent_code": "2104"
  },
  {
    "code": "210411",
    "label": "សោម",
    "name_en": "Saom",
    "parent_code": "2104"
  },
  {
    "code": "210412",
    "label": "តាអូរ",
    "name_en": "Ta Ou",
    "parent_code": "2104"
  },
  {
    "code": "210501",
    "label": "ក្រពុំឈូក",
    "name_en": "Krapum Chhuk",
    "parent_code": "2105"
  },
  {
    "code": "210502",
    "label": "ពេជសារ",
    "name_en": "Pech Sar",
    "parent_code": "2105"
  },
  {
    "code": "210503",
    "label": "ព្រៃខ្លា",
    "name_en": "Prey Khla",
    "parent_code": "2105"
  },
  {
    "code": "210504",
    "label": "ព្រៃយុថ្កា",
    "name_en": "Prey Yuthka",
    "parent_code": "2105"
  },
  {
    "code": "210505",
    "label": "រមេញ",
    "name_en": "Romenh",
    "parent_code": "2105"
  },
  {
    "code": "210506",
    "label": "ធ្លាប្រជុំ",
    "name_en": "Thlea Prachum",
    "parent_code": "2105"
  },
  {
    "code": "210601",
    "label": "អង្កាញ់",
    "name_en": "Angkanh",
    "parent_code": "2106"
  },
  {
    "code": "210602",
    "label": "បានកាម",
    "name_en": "Ban Kam",
    "parent_code": "2106"
  },
  {
    "code": "210603",
    "label": "ចំប៉ា",
    "name_en": "Champa",
    "parent_code": "2106"
  },
  {
    "code": "210604",
    "label": "ចារ",
    "name_en": "Char",
    "parent_code": "2106"
  },
  {
    "code": "210605",
    "label": "កំពែង",
    "name_en": "Kampeaeng",
    "parent_code": "2106"
  },
  {
    "code": "210606",
    "label": "កំពង់រាប",
    "name_en": "Kampong Reab",
    "parent_code": "2106"
  },
  {
    "code": "210607",
    "label": "ក្ដាញ់",
    "name_en": "Kdanh",
    "parent_code": "2106"
  },
  {
    "code": "210608",
    "label": "ពោធិ៍រំចាក",
    "name_en": "Pou Rumchak",
    "parent_code": "2106"
  },
  {
    "code": "210609",
    "label": "ព្រៃកប្បាស",
    "name_en": "Prey Kabbas",
    "parent_code": "2106"
  },
  {
    "code": "210610",
    "label": "ព្រៃល្វា",
    "name_en": "Prey Lvea",
    "parent_code": "2106"
  },
  {
    "code": "210611",
    "label": "ព្រៃផ្ដៅ",
    "name_en": "Prey Phdau",
    "parent_code": "2106"
  },
  {
    "code": "210612",
    "label": "ស្នោ",
    "name_en": "Snao",
    "parent_code": "2106"
  },
  {
    "code": "210613",
    "label": "តាំងយ៉ាប",
    "name_en": "Tang Yab",
    "parent_code": "2106"
  },
  {
    "code": "210701",
    "label": "បឹងត្រាញ់ខាងជើង",
    "name_en": "Boeng Tranh Khang Cheung",
    "parent_code": "2107"
  },
  {
    "code": "210702",
    "label": "បឹងត្រាញ់ខាងត្បូង",
    "name_en": "Boeng Tranh Khang Tboung",
    "parent_code": "2107"
  },
  {
    "code": "210703",
    "label": "ជើងគួន",
    "name_en": "Cheung Kuon",
    "parent_code": "2107"
  },
  {
    "code": "210704",
    "label": "ជំរះពេន",
    "name_en": "Chumreah Pen",
    "parent_code": "2107"
  },
  {
    "code": "210705",
    "label": "ខ្វាវ",
    "name_en": "Khvav",
    "parent_code": "2107"
  },
  {
    "code": "210706",
    "label": "លំចង់",
    "name_en": "Lumchang",
    "parent_code": "2107"
  },
  {
    "code": "210707",
    "label": "រវៀង",
    "name_en": "Rovieng",
    "parent_code": "2107"
  },
  {
    "code": "210708",
    "label": "សំរោង",
    "name_en": "Samraong",
    "parent_code": "2107"
  },
  {
    "code": "210709",
    "label": "សឹង្ហ",
    "name_en": "Soengh",
    "parent_code": "2107"
  },
  {
    "code": "210710",
    "label": "ស្លា",
    "name_en": "Sla",
    "parent_code": "2107"
  },
  {
    "code": "210711",
    "label": "ទ្រា",
    "name_en": "Trea",
    "parent_code": "2107"
  },
  {
    "code": "210801",
    "label": "បារាយណ៍",
    "name_en": "Baray",
    "parent_code": "2108"
  },
  {
    "code": "210802",
    "label": "រកាក្នុង",
    "name_en": "Roka Knong",
    "parent_code": "2108"
  },
  {
    "code": "210803",
    "label": "រកាក្រៅ",
    "name_en": "Roka Krau",
    "parent_code": "2108"
  },
  {
    "code": "210901",
    "label": "អង្គតាសោម",
    "name_en": "Angk Ta Saom",
    "parent_code": "2109"
  },
  {
    "code": "210902",
    "label": "ជាងទង",
    "name_en": "Cheang Tong",
    "parent_code": "2109"
  },
  {
    "code": "210903",
    "label": "គុស",
    "name_en": "Kus",
    "parent_code": "2109"
  },
  {
    "code": "210904",
    "label": "លាយបូរ",
    "name_en": "Leay Bour",
    "parent_code": "2109"
  },
  {
    "code": "210905",
    "label": "ញ៉ែងញ៉ង",
    "name_en": "Nhaeng Nhang",
    "parent_code": "2109"
  },
  {
    "code": "210906",
    "label": "អូរសារាយ",
    "name_en": "Ou Saray",
    "parent_code": "2109"
  },
  {
    "code": "210907",
    "label": "ត្រពាំងក្រញូង",
    "name_en": "Trapeang Kranhoung",
    "parent_code": "2109"
  },
  {
    "code": "210908",
    "label": "ឧត្ដមសុរិយា",
    "name_en": "Otdam Soriya",
    "parent_code": "2109"
  },
  {
    "code": "210909",
    "label": "ពពេល",
    "name_en": "Popel",
    "parent_code": "2109"
  },
  {
    "code": "210910",
    "label": "សំរោង",
    "name_en": "Samraong",
    "parent_code": "2109"
  },
  {
    "code": "210911",
    "label": "ស្រែរនោង",
    "name_en": "Srae Ronoung",
    "parent_code": "2109"
  },
  {
    "code": "210912",
    "label": "តាភេម",
    "name_en": "Ta Phem",
    "parent_code": "2109"
  },
  {
    "code": "210913",
    "label": "ត្រាំកក់",
    "name_en": "Tram Kak",
    "parent_code": "2109"
  },
  {
    "code": "210914",
    "label": "ត្រពាំងធំខាងជើង",
    "name_en": "Trapeang Thum Khang Cheung",
    "parent_code": "2109"
  },
  {
    "code": "210915",
    "label": "ត្រពាំងធំខាងត្បូង",
    "name_en": "Trapeang Thum Khang Tboung",
    "parent_code": "2109"
  },
  {
    "code": "211001",
    "label": "អង្កាញ់",
    "name_en": "Angkanh",
    "parent_code": "2110"
  },
  {
    "code": "211002",
    "label": "អង្គខ្នុរ",
    "name_en": "Angk Khnor",
    "parent_code": "2110"
  },
  {
    "code": "211003",
    "label": "ជីខ្មា",
    "name_en": "Chi Khma",
    "parent_code": "2110"
  },
  {
    "code": "211004",
    "label": "ខ្វាវ",
    "name_en": "Khvav",
    "parent_code": "2110"
  },
  {
    "code": "211005",
    "label": "ប្រាំបីមុំ",
    "name_en": "Prambei Mum",
    "parent_code": "2110"
  },
  {
    "code": "211006",
    "label": "អង្គកែវ",
    "name_en": "Angk Kaev",
    "parent_code": "2110"
  },
  {
    "code": "211007",
    "label": "ព្រៃស្លឹក",
    "name_en": "Prey Sloek",
    "parent_code": "2110"
  },
  {
    "code": "211008",
    "label": "រនាម",
    "name_en": "Roneam",
    "parent_code": "2110"
  },
  {
    "code": "211009",
    "label": "សំបួរ",
    "name_en": "Sambuor",
    "parent_code": "2110"
  },
  {
    "code": "211010",
    "label": "សន្លុង",
    "name_en": "Sanlung",
    "parent_code": "2110"
  },
  {
    "code": "211011",
    "label": "ស្មោង",
    "name_en": "Smaong",
    "parent_code": "2110"
  },
  {
    "code": "211012",
    "label": "ស្រង៉ែ",
    "name_en": "Srangae",
    "parent_code": "2110"
  },
  {
    "code": "211013",
    "label": "ធ្លក",
    "name_en": "Thlok",
    "parent_code": "2110"
  },
  {
    "code": "211014",
    "label": "ត្រឡាច",
    "name_en": "Tralach",
    "parent_code": "2110"
  },
  {
    "code": "220101",
    "label": "អន្លង់វែង",
    "name_en": "Anlong Veaeng",
    "parent_code": "2201"
  },
  {
    "code": "220103",
    "label": "ត្រពាំងតាវ",
    "name_en": "Trapeang Tav",
    "parent_code": "2201"
  },
  {
    "code": "220104",
    "label": "ត្រពាំងប្រីយ៍",
    "name_en": "Trapeang Prei",
    "parent_code": "2201"
  },
  {
    "code": "220105",
    "label": "ថ្លាត",
    "name_en": "Thlat",
    "parent_code": "2201"
  },
  {
    "code": "220106",
    "label": "លំទង",
    "name_en": "Lumtong",
    "parent_code": "2201"
  },
  {
    "code": "220201",
    "label": "អំពិល",
    "name_en": "Ampil",
    "parent_code": "2202"
  },
  {
    "code": "220202",
    "label": "បេង",
    "name_en": "Beng",
    "parent_code": "2202"
  },
  {
    "code": "220203",
    "label": "គោកខ្ពស់",
    "name_en": "Kouk Khpos",
    "parent_code": "2202"
  },
  {
    "code": "220204",
    "label": "គោកមន",
    "name_en": "Kouk Mon",
    "parent_code": "2202"
  },
  {
    "code": "220301",
    "label": "ជើងទៀន",
    "name_en": "Cheung Tien",
    "parent_code": "2203"
  },
  {
    "code": "220302",
    "label": "ចុងកាល់",
    "name_en": "Chong Kal",
    "parent_code": "2203"
  },
  {
    "code": "220303",
    "label": "ក្រសាំង",
    "name_en": "Krasang",
    "parent_code": "2203"
  },
  {
    "code": "220304",
    "label": "ពង្រ",
    "name_en": "Pongro",
    "parent_code": "2203"
  },
  {
    "code": "220401",
    "label": "បន្សាយរាក់",
    "name_en": "Bansay Reak",
    "parent_code": "2204"
  },
  {
    "code": "220402",
    "label": "បុស្បូវ",
    "name_en": "Bos Sbov",
    "parent_code": "2204"
  },
  {
    "code": "220403",
    "label": "កូនក្រៀល",
    "name_en": "Koun Kriel",
    "parent_code": "2204"
  },
  {
    "code": "220404",
    "label": "សំរោង",
    "name_en": "Samraong",
    "parent_code": "2204"
  },
  {
    "code": "220405",
    "label": "អូរស្មាច់",
    "name_en": "Ou Smach",
    "parent_code": "2204"
  },
  {
    "code": "220501",
    "label": "បាក់អន្លូង",
    "name_en": "Bak Anloung",
    "parent_code": "2205"
  },
  {
    "code": "220502",
    "label": "ផ្អាវ",
    "name_en": "Ph'av",
    "parent_code": "2205"
  },
  {
    "code": "220503",
    "label": "អូរស្វាយ",
    "name_en": "Ou Svay",
    "parent_code": "2205"
  },
  {
    "code": "220504",
    "label": "ព្រះប្រឡាយ",
    "name_en": "Preah Pralay",
    "parent_code": "2205"
  },
  {
    "code": "220505",
    "label": "ទំនប់ដាច់",
    "name_en": "Tumnob Dach",
    "parent_code": "2205"
  },
  {
    "code": "220506",
    "label": "ត្រពាំងប្រាសាទ",
    "name_en": "Trapeang Prasat",
    "parent_code": "2205"
  },
  {
    "code": "230101",
    "label": "អង្កោល",
    "name_en": "Angkaol",
    "parent_code": "2301"
  },
  {
    "code": "230103",
    "label": "ពងទឹក",
    "name_en": "Pong Tuek",
    "parent_code": "2301"
  },
  {
    "code": "230201",
    "label": "កែប",
    "name_en": "Kaeb",
    "parent_code": "2302"
  },
  {
    "code": "230202",
    "label": "ព្រៃធំ",
    "name_en": "Prey Thum",
    "parent_code": "2302"
  },
  {
    "code": "230203",
    "label": "អូរក្រសារ",
    "name_en": "Ou Krasar",
    "parent_code": "2302"
  },
  {
    "code": "240101",
    "label": "ប៉ៃលិន",
    "name_en": "Pailin",
    "parent_code": "2401"
  },
  {
    "code": "240102",
    "label": "អូរតាវ៉ៅ",
    "name_en": "Ou Ta Vau",
    "parent_code": "2401"
  },
  {
    "code": "240103",
    "label": "ទួលល្វា",
    "name_en": "Tuol Lvea",
    "parent_code": "2401"
  },
  {
    "code": "240104",
    "label": "បរយ៉ាខា",
    "name_en": "Bar Yakha",
    "parent_code": "2401"
  },
  {
    "code": "240201",
    "label": "សាលាក្រៅ",
    "name_en": "Sala Krau",
    "parent_code": "2402"
  },
  {
    "code": "240202",
    "label": "ស្ទឹងត្រង់",
    "name_en": "Stueng Trang",
    "parent_code": "2402"
  },
  {
    "code": "240203",
    "label": "ស្ទឹងកាច់",
    "name_en": "Stueng Kach",
    "parent_code": "2402"
  },
  {
    "code": "240204",
    "label": "អូរអណ្ដូង",
    "name_en": "Ou Andoung",
    "parent_code": "2402"
  },
  {
    "code": "250101",
    "label": "ចុងជាច",
    "name_en": "Chong Cheach",
    "parent_code": "2501"
  },
  {
    "code": "250102",
    "label": "តំបែរ",
    "name_en": "Dambae",
    "parent_code": "2501"
  },
  {
    "code": "250103",
    "label": "គោកស្រុក",
    "name_en": "Kouk Srok",
    "parent_code": "2501"
  },
  {
    "code": "250104",
    "label": "នាងទើត",
    "name_en": "Neang Teut",
    "parent_code": "2501"
  },
  {
    "code": "250105",
    "label": "សេដា",
    "name_en": "Seda",
    "parent_code": "2501"
  },
  {
    "code": "250106",
    "label": "ត្រពាំងព្រីង",
    "name_en": "Trapeang Pring",
    "parent_code": "2501"
  },
  {
    "code": "250107",
    "label": "ទឹកជ្រៅ",
    "name_en": "Tuek Chrov",
    "parent_code": "2501"
  },
  {
    "code": "250201",
    "label": "ឈូក",
    "name_en": "Chhuk",
    "parent_code": "2502"
  },
  {
    "code": "250202",
    "label": "ជំនីក",
    "name_en": "Chumnik",
    "parent_code": "2502"
  },
  {
    "code": "250203",
    "label": "កំពង់ទ្រាស",
    "name_en": "Kampong Treas",
    "parent_code": "2502"
  },
  {
    "code": "250204",
    "label": "កោះពីរ",
    "name_en": "Kaoh Pir",
    "parent_code": "2502"
  },
  {
    "code": "250205",
    "label": "ក្រូចឆ្មារ",
    "name_en": "Krouch Chhmar",
    "parent_code": "2502"
  },
  {
    "code": "250206",
    "label": "ប៉ឺស១",
    "name_en": "Peus Muoy",
    "parent_code": "2502"
  },
  {
    "code": "250207",
    "label": "ប៉ឺស២",
    "name_en": "Peus Pir",
    "parent_code": "2502"
  },
  {
    "code": "250208",
    "label": "ព្រែកអាជី",
    "name_en": "Preaek A chi",
    "parent_code": "2502"
  },
  {
    "code": "250209",
    "label": "រការខ្នុរ",
    "name_en": "Roka Khnor",
    "parent_code": "2502"
  },
  {
    "code": "250210",
    "label": "ស្វាយឃ្លាំង",
    "name_en": "Svay Khleang",
    "parent_code": "2502"
  },
  {
    "code": "250211",
    "label": "ទ្រា",
    "name_en": "Trea",
    "parent_code": "2502"
  },
  {
    "code": "250212",
    "label": "ទួលស្នួល",
    "name_en": "Tuol Snuol",
    "parent_code": "2502"
  },
  {
    "code": "250301",
    "label": "ចាន់មូល",
    "name_en": "Chan Mul",
    "parent_code": "2503"
  },
  {
    "code": "250302",
    "label": "ជាំ",
    "name_en": "Choam",
    "parent_code": "2503"
  },
  {
    "code": "250303",
    "label": "ជាំក្រវៀន",
    "name_en": "Choam Kravien",
    "parent_code": "2503"
  },
  {
    "code": "250304",
    "label": "ជាំតាម៉ៅ",
    "name_en": "Choam Ta Mau",
    "parent_code": "2503"
  },
  {
    "code": "250305",
    "label": "ដារ",
    "name_en": "Dar",
    "parent_code": "2503"
  },
  {
    "code": "250306",
    "label": "កំពាន់",
    "name_en": "Kampoan",
    "parent_code": "2503"
  },
  {
    "code": "250307",
    "label": "គគីរ",
    "name_en": "Kokir",
    "parent_code": "2503"
  },
  {
    "code": "250308",
    "label": "មេមង",
    "name_en": "Memong",
    "parent_code": "2503"
  },
  {
    "code": "250309",
    "label": "មេមត់",
    "name_en": "Memot",
    "parent_code": "2503"
  },
  {
    "code": "250310",
    "label": "រំចេក",
    "name_en": "Rumchek",
    "parent_code": "2503"
  },
  {
    "code": "250311",
    "label": "រូង",
    "name_en": "Rung",
    "parent_code": "2503"
  },
  {
    "code": "250312",
    "label": "ទន្លូង",
    "name_en": "Tonlung",
    "parent_code": "2503"
  },
  {
    "code": "250313",
    "label": "ត្រមូង",
    "name_en": "Tramung",
    "parent_code": "2503"
  },
  {
    "code": "250314",
    "label": "ទ្រៀក",
    "name_en": "Triek",
    "parent_code": "2503"
  },
  {
    "code": "250401",
    "label": "អំពិលតាពក",
    "name_en": "Ampil Ta Pok",
    "parent_code": "2504"
  },
  {
    "code": "250402",
    "label": "ចក",
    "name_en": "Chak",
    "parent_code": "2504"
  },
  {
    "code": "250403",
    "label": "ដំរិល",
    "name_en": "Damril",
    "parent_code": "2504"
  },
  {
    "code": "250404",
    "label": "គងជ័យ",
    "name_en": "Kong Chey",
    "parent_code": "2504"
  },
  {
    "code": "250405",
    "label": "មៀន",
    "name_en": "Mien",
    "parent_code": "2504"
  },
  {
    "code": "250406",
    "label": "ព្រះធាតុ",
    "name_en": "Preah Theat",
    "parent_code": "2504"
  },
  {
    "code": "250407",
    "label": "ទួលសូភី",
    "name_en": "Tuol Souphi",
    "parent_code": "2504"
  },
  {
    "code": "250501",
    "label": "ដូនតី",
    "name_en": "Dountei",
    "parent_code": "2505"
  },
  {
    "code": "250502",
    "label": "កក់",
    "name_en": "Kak",
    "parent_code": "2505"
  },
  {
    "code": "250503",
    "label": "កណ្ដោលជ្រុំ",
    "name_en": "Kandaol Chrum",
    "parent_code": "2505"
  },
  {
    "code": "250504",
    "label": "កោងកាង",
    "name_en": "Kaong Kang",
    "parent_code": "2505"
  },
  {
    "code": "250505",
    "label": "ក្រែក",
    "name_en": "Kraek",
    "parent_code": "2505"
  },
  {
    "code": "250506",
    "label": "ពពេល",
    "name_en": "Popel",
    "parent_code": "2505"
  },
  {
    "code": "250507",
    "label": "ត្រពាំងផ្លុង",
    "name_en": "Trapeang Phlong",
    "parent_code": "2505"
  },
  {
    "code": "250508",
    "label": "វាលម្លូរ",
    "name_en": "Veal Mlu",
    "parent_code": "2505"
  },
  {
    "code": "250601",
    "label": "សួង",
    "name_en": "Suong",
    "parent_code": "2506"
  },
  {
    "code": "250602",
    "label": "វិហារលួង",
    "name_en": "Vihear Luong",
    "parent_code": "2506"
  },
  {
    "code": "250702",
    "label": "បឹងព្រួល",
    "name_en": "Boeng Pruol",
    "parent_code": "2507"
  },
  {
    "code": "250703",
    "label": "ជីគរ",
    "name_en": "Chikor",
    "parent_code": "2507"
  },
  {
    "code": "250704",
    "label": "ជីរោទ៍ ទី១",
    "name_en": "Chirou Ti Muoy",
    "parent_code": "2507"
  },
  {
    "code": "250705",
    "label": "ជីរោទ៍ ទី២",
    "name_en": "Chirou Ti Pir",
    "parent_code": "2507"
  },
  {
    "code": "250706",
    "label": "ជប់",
    "name_en": "Chob",
    "parent_code": "2507"
  },
  {
    "code": "250707",
    "label": "គរ",
    "name_en": "Kor",
    "parent_code": "2507"
  },
  {
    "code": "250708",
    "label": "ល្ងៀង",
    "name_en": "Lngieng",
    "parent_code": "2507"
  },
  {
    "code": "250709",
    "label": "មង់រៀវ",
    "name_en": "Mong Riev",
    "parent_code": "2507"
  },
  {
    "code": "250710",
    "label": "ពាមជីលាំង",
    "name_en": "Peam Chileang",
    "parent_code": "2507"
  },
  {
    "code": "250711",
    "label": "រកាពប្រាំ",
    "name_en": "Roka Po Pram",
    "parent_code": "2507"
  },
  {
    "code": "250712",
    "label": "ស្រឡប់",
    "name_en": "Sralab",
    "parent_code": "2507"
  },
  {
    "code": "250713",
    "label": "ថ្មពេជ្រ",
    "name_en": "Thma Pech",
    "parent_code": "2507"
  },
  {
    "code": "250714",
    "label": "ទន្លេបិទ",
    "name_en": "Tonle Bet",
    "parent_code": "2507"
  }
]
